{"type":"FeatureCollection","county":"花蓮縣","data_ym":"202606","features":[{"type":"Feature","properties":{"id":"b7d70070d9c4","NAME":"莊敬路","PSTART":"中華路","PEND":"民國路二段","SW_DIRECT":"1","SW_LENG":180.0,"SW_WTH":1.2,"SWW_WTH":1.2,"SW_RAMP":2,"VILL_NAME":"玉里鎮"},"geometry":{"type":"Polygon","coordinates":[[[121.316758,23.341688],[121.318439,23.341183],[121.318426,23.341183],[121.316758,23.341688]]]}},{"type":"Feature","properties":{"id":"56cf40dc15bd","NAME":"中華路","PSTART":"莊敬路","PEND":"玉里高中前","SW_DIRECT":"1","SW_LENG":610.0,"SW_WTH":1.2,"SWW_WTH":1.2,"SW_RAMP":6,"VILL_NAME":"玉里鎮"},"geometry":{"type":"Polygon","coordinates":[[[121.320481,23.340085],[121.319875,23.340839],[121.319591,23.340989],[121.318614,23.341284],[121.318641,23.341355],[121.318785,23.342388],[121.320481,23.340085]]]}},{"type":"Feature","properties":{"id":"6dc56eecd177","NAME":"鎮民廣場","PSTART":"民族路","PEND":"民族路","SW_DIRECT":"3","SW_LENG":570.0,"SW_WTH":2.5,"SWW_WTH":2.5,"SW_RAMP":6,"VILL_NAME":"玉里鎮"},"geometry":{"type":"Polygon","coordinates":[[[121.314252,23.336492],[121.315036,23.334388],[121.315023,23.334352],[121.314574,23.335608],[121.314586,23.335584],[121.314252,23.336492]]]}},{"type":"Feature","properties":{"id":"a1e8527cacc8","NAME":"仁愛路","PSTART":"光復路","PEND":"中山路","SW_DIRECT":"1","SW_LENG":470.0,"SW_WTH":920.0,"SWW_WTH":1.5,"SW_RAMP":10,"VILL_NAME":"玉里鎮"},"geometry":{"type":"Polygon","coordinates":[[[121.31863,23.332319],[121.318669,23.332247],[121.317212,23.328959],[121.317011,23.32878],[121.316759,23.328673],[121.316752,23.328685],[121.317005,23.328792],[121.317199,23.328971],[121.318656,23.332247],[121.318624,23.332313],[121.31863,23.332319]]]}},{"type":"Feature","properties":{"id":"8bd67e3e9807","NAME":"光復路","PSTART":"大同路","PEND":"中山路","SW_DIRECT":"1","SW_LENG":620.0,"SW_WTH":620.0,"SWW_WTH":1.0,"SW_RAMP":10,"VILL_NAME":"玉里鎮"},"geometry":{"type":"Polygon","coordinates":[[[121.312731,23.334153],[121.312244,23.330762],[121.312218,23.330798],[121.312692,23.334165],[121.312731,23.334153]]]}},{"type":"Feature","properties":{"id":"da1e421a5a14","NAME":"忠智路","PSTART":"仁愛路（玉里國小四周）","PEND":"忠智路","SW_DIRECT":"3","SW_LENG":830.0,"SW_WTH":830.0,"SWW_WTH":3.5,"SW_RAMP":null,"VILL_NAME":"玉里鎮"},"geometry":{"type":"Polygon","coordinates":[[[121.316788,23.328594],[121.317073,23.328707],[121.317261,23.328898],[121.317547,23.329542],[121.318048,23.330646],[121.318468,23.330436],[121.318971,23.330017],[121.319268,23.329634],[121.319616,23.328917],[121.320034,23.327918],[121.320008,23.327918],[121.319525,23.329036],[121.319287,23.329533],[121.319203,23.329676],[121.318926,23.330023],[121.318442,23.330424],[121.318067,23.330604],[121.317872,23.330169],[121.317606,23.329596],[121.317287,23.328892],[121.31708,23.328689],[121.316808,23.328576],[121.316788,23.328588],[121.316788,23.328594]]]}},{"type":"Feature","properties":{"id":"6d7af6cc8926","NAME":"林森路","PSTART":"林森路460巷","PEND":"中興路","SW_DIRECT":"2","SW_LENG":910.0,"SW_WTH":1.5,"SWW_WTH":1.0,"SW_RAMP":15,"VILL_NAME":"光復鄉"},"geometry":{"type":"Polygon","coordinates":[[[121.423132,23.672966],[121.418576,23.680001],[121.418576,23.680011],[121.423132,23.672966]]]}},{"type":"Feature","properties":{"id":"cbab7760b2e4","NAME":"吉豐路","PSTART":"中山路","PEND":"廣賢路","SW_DIRECT":"2","SW_LENG":693.6,"SW_WTH":2.0,"SWW_WTH":2.0,"SW_RAMP":7,"VILL_NAME":"吉安鄉"},"geometry":{"type":"Polygon","coordinates":[[[121.589658,23.96455],[121.57993,23.963643],[121.579904,23.963763],[121.589604,23.964659],[121.589658,23.96455]]]}},{"type":"Feature","properties":{"id":"d9b2a2097d21","NAME":"吉豐路","PSTART":"中山路","PEND":"廣賢路","SW_DIRECT":"1","SW_LENG":454.7,"SW_WTH":2.0,"SWW_WTH":2.0,"SW_RAMP":7,"VILL_NAME":"吉安鄉"},"geometry":{"type":"Polygon","coordinates":[[[121.58976,23.964448],[121.589811,23.964353],[121.579928,23.963459],[121.579915,23.963566],[121.58976,23.964448]]]}},{"type":"Feature","properties":{"id":"b36e4ead4360","NAME":"中山路","PSTART":"中正路","PEND":"仁里五街","SW_DIRECT":"2","SW_LENG":559.0,"SW_WTH":2.0,"SWW_WTH":2.0,"SW_RAMP":6,"VILL_NAME":"吉安鄉"},"geometry":{"type":"Polygon","coordinates":[[[121.589773,23.96454],[121.58869,23.966359],[121.585767,23.969655],[121.585923,23.969643],[121.588729,23.966527],[121.589877,23.964564],[121.589773,23.96454]]]}},{"type":"Feature","properties":{"id":"c6de435a133d","NAME":"中山路","PSTART":"吉豐路","PEND":"仁里五街","SW_DIRECT":"1","SW_LENG":632.55,"SW_WTH":2.0,"SWW_WTH":2.0,"SW_RAMP":11,"VILL_NAME":"吉安鄉"},"geometry":{"type":"Polygon","coordinates":[[[121.589678,23.96453],[121.589558,23.96452],[121.588474,23.966268],[121.585578,23.969624],[121.585659,23.969695],[121.588594,23.966315],[121.589678,23.96453]]]}},{"type":"Feature","properties":{"id":"cceefb47393b","NAME":"中央路","PSTART":"建昌路","PEND":"308980,2652546","SW_DIRECT":"2","SW_LENG":1619.79,"SW_WTH":2.0,"SWW_WTH":2.0,"SW_RAMP":30,"VILL_NAME":"吉安鄉"},"geometry":{"type":"Polygon","coordinates":[[[121.579608,23.976569],[121.579598,23.976636],[121.581399,23.977065],[121.582129,23.97754],[121.582371,23.977856],[121.582582,23.978224],[121.58557,23.983234],[121.587815,23.987064],[121.589824,23.990351],[121.589882,23.990314],[121.587908,23.987098],[121.584382,23.98105],[121.582449,23.977833],[121.582175,23.977486],[121.581418,23.976997],[121.579608,23.976569]]]}},{"type":"Feature","properties":{"id":"839120759348","NAME":"中央路","PSTART":"建昌路","PEND":"億福橋","SW_DIRECT":"1","SW_LENG":2673.9,"SW_WTH":2.0,"SWW_WTH":2.0,"SW_RAMP":20,"VILL_NAME":"吉安鄉"},"geometry":{"type":"Polygon","coordinates":[[[121.589933,23.990272],[121.590012,23.990236],[121.588139,23.987197],[121.586606,23.984622],[121.584471,23.980962],[121.582571,23.97778],[121.582264,23.977393],[121.581807,23.977073],[121.58141,23.976877],[121.578879,23.976271],[121.57886,23.976325],[121.581371,23.976919],[121.581757,23.977104],[121.58221,23.977437],[121.582533,23.97783],[121.583252,23.97901],[121.587942,23.987019],[121.589933,23.990272]]]}},{"type":"Feature","properties":{"id":"32aca2a47bdb","NAME":"中正路","PSTART":"仁里三街","PEND":"中山路","SW_DIRECT":"2","SW_LENG":516.1,"SW_WTH":2.0,"SWW_WTH":2.0,"SW_RAMP":12,"VILL_NAME":"吉安鄉"},"geometry":{"type":"Polygon","coordinates":[[[121.592569,23.966949],[121.590577,23.964723],[121.590531,23.964765],[121.59253,23.967003],[121.592569,23.966949]]]}},{"type":"Feature","properties":{"id":"5135638e8c75","NAME":"中正路","PSTART":"東海六街","PEND":"海岸路","SW_DIRECT":"1","SW_LENG":472.15,"SW_WTH":2.0,"SWW_WTH":2.0,"SW_RAMP":9,"VILL_NAME":"吉安鄉"},"geometry":{"type":"Polygon","coordinates":[[[121.592472,23.966725],[121.592517,23.966684],[121.590662,23.964654],[121.590107,23.963975],[121.590074,23.964029],[121.590611,23.96469],[121.592472,23.966725]]]}},{"type":"Feature","properties":{"id":"218864a85050","NAME":"中山路二段","PSTART":"南昌北路","PEND":"中山路二段鐵路平交道","SW_DIRECT":"1","SW_LENG":250.0,"SW_WTH":1.5,"SWW_WTH":1.5,"SW_RAMP":4,"VILL_NAME":"吉安鄉"},"geometry":{"type":"Polygon","coordinates":[[[121.585566,23.9698],[121.583653,23.97084],[121.584451,23.970407],[121.585566,23.9698]]]}},{"type":"Feature","properties":{"id":"462bee751cf4","NAME":"宜昌一街","PSTART":"荳蘭三街","PEND":"中山路二段","SW_DIRECT":"2","SW_LENG":390.0,"SW_WTH":1.5,"SWW_WTH":1.5,"SW_RAMP":6,"VILL_NAME":"吉安鄉"},"geometry":{"type":"Polygon","coordinates":[[[121.584431,23.970431],[121.587166,23.973007],[121.587173,23.973007],[121.586755,23.972489],[121.585958,23.971721],[121.584431,23.970431]]]}},{"type":"Feature","properties":{"id":"c984bd99b465","NAME":"建國路","PSTART":"中央路","PEND":"自立路","SW_DIRECT":"2","SW_LENG":733.0,"SW_WTH":2.5,"SWW_WTH":2.5,"SW_RAMP":17,"VILL_NAME":"吉安鄉"},"geometry":{"type":"Polygon","coordinates":[[[121.588008,23.98721],[121.59675,23.98493],[121.596697,23.984763],[121.587956,23.98709],[121.588008,23.98721]]]}},{"type":"Feature","properties":{"id":"57cdd3f27db4","NAME":"建國路","PSTART":"中央路","PEND":"自立路","SW_DIRECT":"1","SW_LENG":705.0,"SW_WTH":2.5,"SWW_WTH":2.5,"SW_RAMP":16,"VILL_NAME":"吉安鄉"},"geometry":{"type":"Polygon","coordinates":[[[121.587931,23.987033],[121.596656,23.984682],[121.596604,23.984539],[121.587878,23.98689],[121.587931,23.987033]]]}},{"type":"Feature","properties":{"id":"ff28bb7bb62f","NAME":"和平路","PSTART":"中央路","PEND":"自立路","SW_DIRECT":"2","SW_LENG":691.0,"SW_WTH":2.0,"SWW_WTH":2.0,"SW_RAMP":10,"VILL_NAME":"吉安鄉"},"geometry":{"type":"Polygon","coordinates":[[[121.586507,23.984635],[121.592812,23.981294],[121.59276,23.981247],[121.58647,23.984568],[121.586507,23.984635]]]}},{"type":"Feature","properties":{"id":"9ef80a5026db","NAME":"和平路","PSTART":"中央路","PEND":"自立路","SW_DIRECT":"1","SW_LENG":681.0,"SW_WTH":2.0,"SWW_WTH":2.0,"SW_RAMP":15,"VILL_NAME":"吉安鄉"},"geometry":{"type":"Polygon","coordinates":[[[121.586424,23.984488],[121.59274,23.981168],[121.592701,23.981096],[121.586385,23.984417],[121.586424,23.984488]]]}},{"type":"Feature","properties":{"id":"f5c689e10bcb","NAME":"中正路","PSTART":"東海一街","PEND":"東海六街","SW_DIRECT":"1","SW_LENG":110.0,"SW_WTH":2.0,"SWW_WTH":0.0,"SW_RAMP":2,"VILL_NAME":"吉安鄉"},"geometry":{"type":"Polygon","coordinates":[[[121.594262,23.968622],[121.594301,23.968592],[121.593511,23.967807],[121.593472,23.967831],[121.594262,23.968622]]]}},{"type":"Feature","properties":{"id":"9eab99be1075","NAME":"中正路","PSTART":"仁里一街","PEND":"仁里三街","SW_DIRECT":"2","SW_LENG":95.0,"SW_WTH":2.0,"SWW_WTH":0.0,"SW_RAMP":2,"VILL_NAME":"吉安鄉"},"geometry":{"type":"Polygon","coordinates":[[[121.594221,23.968643],[121.59357,23.967996],[121.593551,23.968011],[121.594205,23.968661],[121.594221,23.968643]]]}},{"type":"Feature","properties":{"id":"e07f05d84960","NAME":"民權路","PSTART":"民權五街","PEND":"民權八街","SW_DIRECT":"2","SW_LENG":371.9,"SW_WTH":2.0,"SWW_WTH":2.3,"SW_RAMP":null,"VILL_NAME":"花蓮市"},"geometry":{"type":"Polygon","coordinates":[[[121.622673,23.984229],[121.625681,23.987804],[121.625732,23.98776],[121.62483,23.986605],[121.623274,23.984807],[121.62279,23.984176],[121.622673,23.984229]]]}},{"type":"Feature","properties":{"id":"3d6419ed5486","NAME":"民權路","PSTART":"順興路","PEND":"化道路","SW_DIRECT":"2","SW_LENG":478.66,"SW_WTH":3.0,"SWW_WTH":3.0,"SW_RAMP":null,"VILL_NAME":"花蓮市"},"geometry":{"type":"Polygon","coordinates":[[[121.629105,23.991768],[121.630099,23.992964],[121.631021,23.994059],[121.631073,23.994011],[121.630687,23.993535],[121.629163,23.99172],[121.629105,23.991768]]]}},{"type":"Feature","properties":{"id":"1d74fda7cc91","NAME":"化道路、中美三街","PSTART":"中美三街、中興路","PEND":"中美九街、化道路","SW_DIRECT":"1","SW_LENG":300.0,"SW_WTH":1.5,"SWW_WTH":2.0,"SW_RAMP":8,"VILL_NAME":"花蓮市"},"geometry":{"type":"Polygon","coordinates":[[[121.629161,23.995317],[121.62657,23.997203],[121.626557,23.997215],[121.629161,23.995317]]]}},{"type":"Feature","properties":{"id":"24764054f49d","NAME":"化道路","PSTART":"中美路","PEND":"球崙一街","SW_DIRECT":"1","SW_LENG":600.0,"SW_WTH":15.0,"SWW_WTH":3.0,"SW_RAMP":20,"VILL_NAME":"花蓮市"},"geometry":{"type":"Polygon","coordinates":[[[121.631062,23.994056],[121.631024,23.994068],[121.631037,23.994056],[121.63101,23.993985],[121.624273,23.998874],[121.624313,23.998939],[121.631062,23.994056]]]}},{"type":"Feature","properties":{"id":"06d4fdd28431","NAME":"中興路","PSTART":"中美路","PEND":"中美五街","SW_DIRECT":"2","SW_LENG":3.0,"SW_WTH":4.0,"SWW_WTH":3.0,"SW_RAMP":5,"VILL_NAME":"花蓮市"},"geometry":{"type":"Polygon","coordinates":[[[121.628245,23.994132],[121.628155,23.994051],[121.62692,23.994916],[121.627031,23.994986],[121.628245,23.994132]]]}},{"type":"Feature","properties":{"id":"21e638609d6a","NAME":"永興路","PSTART":"中美路","PEND":"中美九街","SW_DIRECT":"2","SW_LENG":300.0,"SW_WTH":5.0,"SWW_WTH":4.0,"SW_RAMP":15,"VILL_NAME":"花蓮市"},"geometry":{"type":"Polygon","coordinates":[[[121.626118,23.991759],[121.626107,23.991761],[121.626068,23.991755],[121.626023,23.991947],[121.623567,23.993707],[121.623607,23.993754],[121.626065,23.991978],[121.626118,23.991759]]]}},{"type":"Feature","properties":{"id":"6b506b4a9fee","NAME":"中美路","PSTART":"化道路","PEND":"中興路","SW_DIRECT":"1","SW_LENG":150.0,"SW_WTH":5.5,"SWW_WTH":4.0,"SW_RAMP":5,"VILL_NAME":"花蓮市"},"geometry":{"type":"Polygon","coordinates":[[[121.629156,23.995312],[121.629174,23.995297],[121.629239,23.995261],[121.628258,23.994106],[121.628204,23.994166],[121.629156,23.995312]]]}},{"type":"Feature","properties":{"id":"2e553a3eeb49","NAME":"公園路","PSTART":"明禮路","PEND":"花崗街","SW_DIRECT":null,"SW_LENG":319.0,"SW_WTH":3.5,"SWW_WTH":2.3,"SW_RAMP":2,"VILL_NAME":"花蓮市"},"geometry":{"type":"Polygon","coordinates":[[[121.613164,23.978482],[121.612705,23.978188],[121.612053,23.977758],[121.612038,23.977777],[121.613144,23.978503],[121.613164,23.978482]]]}},{"type":"Feature","properties":{"id":"603286c7793d","NAME":"公園路","PSTART":"明禮路","PEND":"花崗街","SW_DIRECT":null,"SW_LENG":319.0,"SW_WTH":3.5,"SWW_WTH":2.3,"SW_RAMP":2,"VILL_NAME":"花蓮市"},"geometry":{"type":"Polygon","coordinates":[[[121.613185,23.97846],[121.613203,23.978441],[121.612084,23.977715],[121.612069,23.977736],[121.613185,23.97846]]]}},{"type":"Feature","properties":{"id":"6b85473c1512","NAME":"中山路","PSTART":"商校街","PEND":"國聯二路","SW_DIRECT":null,"SW_LENG":68.0,"SW_WTH":2.9,"SWW_WTH":1.8,"SW_RAMP":0,"VILL_NAME":"花蓮市"},"geometry":{"type":"Polygon","coordinates":[[[121.601073,23.98777],[121.601091,23.987787],[121.601241,23.98754],[121.601497,23.987202],[121.601468,23.9872],[121.601218,23.987531],[121.601073,23.98777]]]}},{"type":"Feature","properties":{"id":"87b2b7a7681b","NAME":"明禮路","PSTART":"林森路","PEND":"民國路","SW_DIRECT":null,"SW_LENG":221.0,"SW_WTH":2.5,"SWW_WTH":1.3,"SW_RAMP":0,"VILL_NAME":"花蓮市"},"geometry":{"type":"Polygon","coordinates":[[[121.607941,23.983027],[121.60796,23.983044],[121.608616,23.982186],[121.609319,23.981292],[121.609303,23.981276],[121.6086,23.982172],[121.607941,23.983027]]]}},{"type":"Feature","properties":{"id":"4d2377e735cd","NAME":"國聯二路","PSTART":"中山路","PEND":"國聯四路","SW_DIRECT":null,"SW_LENG":600.0,"SW_WTH":2.0,"SWW_WTH":2.0,"SW_RAMP":0,"VILL_NAME":"花蓮市"},"geometry":{"type":"Polygon","coordinates":[[[121.604528,23.991885],[121.604492,23.991307],[121.604066,23.990845],[121.603256,23.990012],[121.60255,23.989243],[121.601675,23.988315],[121.601028,23.987837],[121.601023,23.987861],[121.601657,23.988332],[121.602535,23.989257],[121.60323,23.990031],[121.604032,23.99086],[121.604466,23.991322],[121.604513,23.9919],[121.604528,23.991885]]]}},{"type":"Feature","properties":{"id":"3b74b1cc7927","NAME":"國聯五路","PSTART":"國民十二街","PEND":"商校街","SW_DIRECT":null,"SW_LENG":643.0,"SW_WTH":2.4,"SWW_WTH":1.2,"SW_RAMP":0,"VILL_NAME":"花蓮市"},"geometry":{"type":"Polygon","coordinates":[[[121.604441,23.995316],[121.604469,23.99532],[121.604753,23.994266],[121.605005,23.993221],[121.605498,23.991133],[121.605736,23.990277],[121.606062,23.988957],[121.606256,23.98812],[121.606225,23.988118],[121.606031,23.98895],[121.60571,23.990267],[121.605469,23.991128],[121.604977,23.993202],[121.604719,23.994256],[121.604441,23.995316]]]}},{"type":"Feature","properties":{"id":"8daadbf0ae24","NAME":"中山路","PSTART":"商校街","PEND":"國聯二路","SW_DIRECT":null,"SW_LENG":62.0,"SW_WTH":2.9,"SWW_WTH":1.8,"SW_RAMP":0,"VILL_NAME":"花蓮市"},"geometry":{"type":"Polygon","coordinates":[[[121.601035,23.98775],[121.601162,23.987513],[121.601425,23.987187],[121.601394,23.98718],[121.601138,23.987504],[121.601012,23.987741],[121.601035,23.98775]]]}},{"type":"Feature","properties":{"id":"57fbaf478f68","NAME":"明禮路","PSTART":"林森路","PEND":"民國路","SW_DIRECT":null,"SW_LENG":204.0,"SW_WTH":2.5,"SWW_WTH":1.3,"SW_RAMP":0,"VILL_NAME":"花蓮市"},"geometry":{"type":"Polygon","coordinates":[[[121.607915,23.983006],[121.608572,23.98215],[121.609269,23.981259],[121.609254,23.981247],[121.608553,23.982143],[121.6079,23.982996],[121.607915,23.983006]]]}},{"type":"Feature","properties":{"id":"b4a9fb00e1c6","NAME":"國聯二路","PSTART":"中山路","PEND":"國聯四路","SW_DIRECT":null,"SW_LENG":600.0,"SW_WTH":2.0,"SWW_WTH":2.0,"SW_RAMP":0,"VILL_NAME":"花蓮市"},"geometry":{"type":"Polygon","coordinates":[[[121.604574,23.991887],[121.604596,23.991897],[121.604567,23.99128],[121.60412,23.990814],[121.6026,23.989203],[121.602213,23.98876],[121.601714,23.98826],[121.601056,23.987785],[121.601041,23.987804],[121.601705,23.988279],[121.602193,23.988769],[121.602585,23.989217],[121.603294,23.989983],[121.604101,23.990824],[121.60454,23.991288],[121.604574,23.991887]]]}},{"type":"Feature","properties":{"id":"5f5eb8db4435","NAME":"林森路","PSTART":"中華路","PEND":"明禮路","SW_DIRECT":"1","SW_LENG":1200.0,"SW_WTH":1.5,"SWW_WTH":1.0,"SW_RAMP":12,"VILL_NAME":"花蓮市"},"geometry":{"type":"Polygon","coordinates":[[[121.607899,23.983034],[121.607912,23.98302],[121.605786,23.98161],[121.605784,23.981626],[121.607899,23.983034]]]}},{"type":"Feature","properties":{"id":"af3ce611b67e","NAME":"國聯四路","PSTART":"國興一街","PEND":"國聯五路","SW_DIRECT":null,"SW_LENG":100.0,"SW_WTH":5.0,"SWW_WTH":4.0,"SW_RAMP":0,"VILL_NAME":"花蓮市"},"geometry":{"type":"Polygon","coordinates":[[[121.602657,23.992707],[121.60327,23.992458],[121.603955,23.992157],[121.604549,23.991925],[121.60519,23.992066],[121.605192,23.99204],[121.604539,23.991902],[121.603937,23.992136],[121.603262,23.992435],[121.602647,23.992685],[121.602657,23.992707]]]}},{"type":"Feature","properties":{"id":"eeb767e79030","NAME":"明禮路","PSTART":"公園路","PEND":"節約街","SW_DIRECT":null,"SW_LENG":250.0,"SW_WTH":2.0,"SWW_WTH":1.2,"SW_RAMP":6,"VILL_NAME":"花蓮市"},"geometry":{"type":"Polygon","coordinates":[[[121.610002,23.980341],[121.612051,23.977771],[121.612038,23.977741],[121.609989,23.980341],[121.610002,23.980341]]]}},{"type":"Feature","properties":{"id":"ee269e90ed57","NAME":"國聯一路","PSTART":"中山路","PEND":"國民九街","SW_DIRECT":null,"SW_LENG":800.0,"SW_WTH":7.0,"SWW_WTH":5.0,"SW_RAMP":0,"VILL_NAME":"花蓮市"},"geometry":{"type":"Polygon","coordinates":[[[121.600303,23.988751],[121.600645,23.989146],[121.601505,23.990077],[121.602224,23.990825],[121.602916,23.991565],[121.60331,23.992466],[121.603749,23.993349],[121.604161,23.994119],[121.604181,23.994104],[121.603767,23.993339],[121.603329,23.992447],[121.60294,23.991551],[121.602242,23.990808],[121.601528,23.990068],[121.600669,23.989135],[121.600324,23.988737],[121.600303,23.988751]]]}},{"type":"Feature","properties":{"id":"2bd034a73a7b","NAME":"國聯四路","PSTART":"國興一街","PEND":"國聯五路","SW_DIRECT":null,"SW_LENG":100.0,"SW_WTH":5.0,"SWW_WTH":3.2,"SW_RAMP":0,"VILL_NAME":"花蓮市"},"geometry":{"type":"Polygon","coordinates":[[[121.602671,23.992738],[121.602678,23.99275],[121.602681,23.992764],[121.603301,23.992511],[121.603979,23.992224],[121.60455,23.991987],[121.605177,23.992131],[121.60519,23.992104],[121.604552,23.991961],[121.603973,23.992198],[121.603291,23.992492],[121.602671,23.992738]]]}},{"type":"Feature","properties":{"id":"d5d24a0735b4","NAME":"車站街","PSTART":"中興路113巷","PEND":"中山路","SW_DIRECT":"2","SW_LENG":135.0,"SW_WTH":1.6,"SWW_WTH":1.6,"SW_RAMP":135,"VILL_NAME":"富里鄉"},"geometry":{"type":"Polygon","coordinates":[[[121.248513,23.17781],[121.248638,23.178369],[121.248965,23.178906],[121.24898,23.178899],[121.248654,23.178362],[121.248531,23.177807],[121.248513,23.17781]]]}},{"type":"Feature","properties":{"id":"420428709b03","NAME":"中山路","PSTART":"中興路","PEND":"東富公路","SW_DIRECT":"2","SW_LENG":85.0,"SW_WTH":1.8,"SWW_WTH":1.8,"SW_RAMP":85,"VILL_NAME":"富里鄉"},"geometry":{"type":"Polygon","coordinates":[[[121.249279,23.178268],[121.249258,23.178278],[121.249712,23.179154],[121.24973,23.179144],[121.249722,23.179137],[121.249279,23.178268]]]}},{"type":"Feature","properties":{"id":"be747e5e2087","NAME":"民族路人行道","PSTART":"光復路","PEND":"復興路","SW_DIRECT":"2","SW_LENG":382.3,"SW_WTH":1.7,"SWW_WTH":1.7,"SW_RAMP":10,"VILL_NAME":"新城鄉"},"geometry":{"type":"Polygon","coordinates":[[[121.602834,24.032386],[121.60585,24.033182],[121.605245,24.032967],[121.604331,24.032662],[121.603531,24.032477],[121.602834,24.032386]]]}},{"type":"Feature","properties":{"id":"f3c2429f3a4c","NAME":"成功北路","PSTART":"溫泉路","PEND":"中正北路","SW_DIRECT":"2","SW_LENG":425.0,"SW_WTH":3.5,"SWW_WTH":3.5,"SW_RAMP":3,"VILL_NAME":"瑞穗鄉"},"geometry":{"type":"Polygon","coordinates":[[[121.377294,23.499962],[121.375913,23.499857],[121.376109,23.497324],[121.376006,23.497289],[121.375813,23.499953],[121.377299,23.500048],[121.377294,23.499962]]]}},{"type":"Feature","properties":{"id":"b95bd457ce8b","NAME":"中山路二段","PSTART":"博愛路","PEND":"仁愛路","SW_DIRECT":"1","SW_LENG":370.0,"SW_WTH":2.25,"SWW_WTH":1.5,"SW_RAMP":3,"VILL_NAME":"瑞穗鄉"},"geometry":{"type":"Polygon","coordinates":[[[121.389457,23.494184],[121.391994,23.493545],[121.392919,23.493148],[121.392854,23.493065],[121.391948,23.493455],[121.389431,23.494077],[121.389457,23.494184]]]}},{"type":"Feature","properties":{"id":"ff1830642d4d","NAME":"博愛路","PSTART":"中山路二段","PEND":"民權東路","SW_DIRECT":"2","SW_LENG":140.0,"SW_WTH":3.5,"SWW_WTH":1.5,"SW_RAMP":2,"VILL_NAME":"瑞穗鄉"},"geometry":{"type":"Polygon","coordinates":[[[121.389454,23.494179],[121.389586,23.49414],[121.389258,23.492809],[121.389131,23.492875],[121.389454,23.494179]]]}},{"type":"Feature","properties":{"id":"6e75d1d0338d","NAME":"民權東路","PSTART":"博愛路","PEND":"仁愛路","SW_DIRECT":"1","SW_LENG":220.0,"SW_WTH":4.2,"SWW_WTH":3.2,"SW_RAMP":2,"VILL_NAME":"瑞穗鄉"},"geometry":{"type":"Polygon","coordinates":[[[121.390804,23.492027],[121.389127,23.492872],[121.389171,23.493017],[121.390871,23.492167],[121.390804,23.492027]]]}},{"type":"Feature","properties":{"id":"5e24f6647cbc","NAME":"中山路一段","PSTART":"中興路","PEND":"中華路","SW_DIRECT":"1","SW_LENG":492.0,"SW_WTH":4.15,"SWW_WTH":4.1,"SW_RAMP":null,"VILL_NAME":"瑞穗鄉"},"geometry":{"type":"Polygon","coordinates":[[[121.380738,23.496515],[121.380743,23.496543],[121.380763,23.496566],[121.382853,23.495998],[121.38284,23.495962],[121.380738,23.496515]]]}},{"type":"Feature","properties":{"id":"ca24fc58fec7","NAME":"中山路一段","PSTART":"中興路","PEND":"中華路","SW_DIRECT":"1","SW_LENG":210.0,"SW_WTH":4.15,"SWW_WTH":4.1,"SW_RAMP":null,"VILL_NAME":"瑞穗鄉"},"geometry":{"type":"Polygon","coordinates":[[[121.380721,23.49647],[121.382824,23.495915],[121.382805,23.495885],[121.380701,23.496434],[121.380721,23.49647]]]}},{"type":"Feature","properties":{"id":"886f2ca46e80","NAME":"中山路一段","PSTART":"國光路","PEND":"中興路","SW_DIRECT":"1","SW_LENG":60.0,"SW_WTH":4.0,"SWW_WTH":4.0,"SW_RAMP":null,"VILL_NAME":"瑞穗鄉"},"geometry":{"type":"Polygon","coordinates":[[[121.380676,23.496535],[121.379123,23.496945],[121.379155,23.496982],[121.380689,23.496572],[121.380676,23.496535]]]}},{"type":"Feature","properties":{"id":"4882862332b3","NAME":"中山路一段","PSTART":"國光路","PEND":"中興路","SW_DIRECT":"1","SW_LENG":210.0,"SW_WTH":4.0,"SWW_WTH":4.0,"SW_RAMP":null,"VILL_NAME":"瑞穗鄉"},"geometry":{"type":"Polygon","coordinates":[[[121.379108,23.496906],[121.380654,23.496478],[121.380654,23.496431],[121.379102,23.496852],[121.379108,23.496906]]]}},{"type":"Feature","properties":{"id":"fc94b30fc810","NAME":"中山路一段","PSTART":"復興街","PEND":"國光路","SW_DIRECT":"1","SW_LENG":105.0,"SW_WTH":4.0,"SWW_WTH":4.0,"SW_RAMP":null,"VILL_NAME":"瑞穗鄉"},"geometry":{"type":"Polygon","coordinates":[[[121.37907,23.496965],[121.378014,23.497243],[121.378039,23.497284],[121.379074,23.497007],[121.37907,23.496965]]]}},{"type":"Feature","properties":{"id":"b474dc1d46c5","NAME":"中山路一段","PSTART":"中正路","PEND":"復興街","SW_DIRECT":"1","SW_LENG":30.0,"SW_WTH":4.0,"SWW_WTH":4.0,"SW_RAMP":null,"VILL_NAME":"瑞穗鄉"},"geometry":{"type":"Polygon","coordinates":[[[121.377957,23.497249],[121.377676,23.497334],[121.377548,23.49743],[121.37756,23.4975],[121.377703,23.497375],[121.377968,23.497297],[121.377957,23.497249]]]}},{"type":"Feature","properties":{"id":"2804ae05f1d9","NAME":"中山路一段","PSTART":"中正路","PEND":"國光路","SW_DIRECT":"1","SW_LENG":140.0,"SW_WTH":4.0,"SWW_WTH":4.0,"SW_RAMP":null,"VILL_NAME":"瑞穗鄉"},"geometry":{"type":"Polygon","coordinates":[[[121.377957,23.497249],[121.377676,23.497334],[121.377548,23.49743],[121.37756,23.4975],[121.377703,23.497375],[121.377968,23.497297],[121.377957,23.497249]]]}},{"type":"Feature","properties":{"id":"743e5041b4c6","NAME":"中山路一段","PSTART":"中正路","PEND":"國光路","SW_DIRECT":"1","SW_LENG":140.0,"SW_WTH":4.0,"SWW_WTH":4.0,"SW_RAMP":null,"VILL_NAME":"瑞穗鄉"},"geometry":{"type":"Polygon","coordinates":[[[121.37907,23.496912],[121.379051,23.496867],[121.377692,23.497217],[121.377595,23.497271],[121.377576,23.497354],[121.377691,23.49726],[121.37907,23.496912]]]}},{"type":"Feature","properties":{"id":"003db2a87d3d","NAME":"成功路","PSTART":"中正路","PEND":"四維路","SW_DIRECT":"2","SW_LENG":45.0,"SW_WTH":1.75,"SWW_WTH":1.75,"SW_RAMP":2,"VILL_NAME":"瑞穗鄉"},"geometry":{"type":"Polygon","coordinates":[[[121.376696,23.499854],[121.377312,23.499906],[121.377311,23.499871],[121.376716,23.49983],[121.376696,23.499854]]]}},{"type":"Feature","properties":{"id":"da3d41f2404d","NAME":"成功路","PSTART":"四維路","PEND":"溫泉路","SW_DIRECT":"2","SW_LENG":482.0,"SW_WTH":3.5,"SWW_WTH":3.5,"SW_RAMP":3,"VILL_NAME":"瑞穗鄉"},"geometry":{"type":"Polygon","coordinates":[[[121.376612,23.499853],[121.376618,23.499829],[121.375988,23.499785],[121.375975,23.499761],[121.376055,23.49882],[121.376193,23.497291],[121.376333,23.496382],[121.376307,23.496383],[121.376167,23.497255],[121.375946,23.499764],[121.375979,23.499812],[121.376612,23.499853]]]}},{"type":"Feature","properties":{"id":"643fa4c908a9","NAME":"成功路","PSTART":"溫泉路","PEND":"民權路","SW_DIRECT":"2","SW_LENG":185.0,"SW_WTH":0.9,"SWW_WTH":0.9,"SW_RAMP":null,"VILL_NAME":"瑞穗鄉"},"geometry":{"type":"Polygon","coordinates":[[[121.376079,23.497278],[121.376264,23.496287],[121.376241,23.49628],[121.376045,23.497276],[121.376079,23.497278]]]}},{"type":"Feature","properties":{"id":"9e880ab211ea","NAME":"溫泉路","PSTART":"成功路","PEND":"民權路","SW_DIRECT":"2","SW_LENG":280.0,"SW_WTH":3.6,"SWW_WTH":2.1,"SW_RAMP":2,"VILL_NAME":"瑞穗鄉"},"geometry":{"type":"Polygon","coordinates":[[[121.373328,23.496891],[121.373322,23.496926],[121.375991,23.497362],[121.37601,23.497308],[121.373328,23.496891]]]}},{"type":"Feature","properties":{"id":"4532a89095d9","NAME":"溫泉路","PSTART":"成功路","PEND":"民權路","SW_DIRECT":"2","SW_LENG":263.0,"SW_WTH":3.6,"SWW_WTH":1.5,"SW_RAMP":null,"VILL_NAME":"瑞穗鄉"},"geometry":{"type":"Polygon","coordinates":[[[121.376043,23.49726],[121.376055,23.49723],[121.373457,23.496819],[121.373451,23.496848],[121.376043,23.49726]]]}},{"type":"Feature","properties":{"id":"c420100902d5","NAME":"四維路","PSTART":"成功路","PEND":"中山路","SW_DIRECT":"1","SW_LENG":165.0,"SW_WTH":4.0,"SWW_WTH":2.3,"SW_RAMP":2,"VILL_NAME":"瑞穗鄉"},"geometry":{"type":"Polygon","coordinates":[[[121.376618,23.499826],[121.37684,23.498314],[121.376736,23.498315],[121.376558,23.49982],[121.376618,23.499826]]]}},{"type":"Feature","properties":{"id":"3c63a5ae31ec","NAME":"仁愛路","PSTART":"X:290031  Y:2598754","PEND":"X:289999  Y:2598694","SW_DIRECT":"2","SW_LENG":54.7,"SW_WTH":1.5,"SWW_WTH":1.5,"SW_RAMP":null,"VILL_NAME":"瑞穗鄉"},"geometry":{"type":"Polygon","coordinates":[[[121.39195,23.491406],[121.391635,23.490865],[121.391607,23.490868],[121.391927,23.491414],[121.39195,23.491406]]]}},{"type":"Feature","properties":{"id":"9b6517007a02","NAME":"仁愛路","PSTART":"X:289999  Y:2598691","PEND":"X:289962  Y:2598620","SW_DIRECT":"2","SW_LENG":29.8,"SW_WTH":38.74,"SWW_WTH":1.3,"SW_RAMP":null,"VILL_NAME":"瑞穗鄉"},"geometry":{"type":"Polygon","coordinates":[[[121.391619,23.490835],[121.391396,23.490427],[121.391384,23.490448],[121.391601,23.490839],[121.391619,23.490835]]]}},{"type":"Feature","properties":{"id":"c60835f76bb3","NAME":"民權東路","PSTART":"x:289034  y:2598996","PEND":"X:289959  y:2598787","SW_DIRECT":"1","SW_LENG":765.0,"SW_WTH":2.5,"SWW_WTH":1.8,"SW_RAMP":19,"VILL_NAME":"瑞穗鄉"},"geometry":{"type":"Polygon","coordinates":[[[121.382209,23.493657],[121.386741,23.493228],[121.388722,23.492936],[121.391231,23.491747],[121.391192,23.491688],[121.388657,23.492889],[121.386651,23.493169],[121.382196,23.493586],[121.382209,23.493657]]]}},{"type":"Feature","properties":{"id":"121546e5993e","NAME":"仁愛路","PSTART":"X:290037  Y:2598746","PEND":"X:289952  Y:2598583","SW_DIRECT":"1","SW_LENG":184.0,"SW_WTH":1.5,"SWW_WTH":1.5,"SW_RAMP":null,"VILL_NAME":"瑞穗鄉"},"geometry":{"type":"Polygon","coordinates":[[[121.392017,23.491325],[121.391542,23.490454],[121.39149,23.490478],[121.391966,23.491355],[121.392017,23.491325]]]}},{"type":"Feature","properties":{"id":"30e09008e9d4","NAME":"壽山路暨公園路","PSTART":"壽山路","PEND":"公園路","SW_DIRECT":"3","SW_LENG":900.0,"SW_WTH":3.0,"SWW_WTH":3.0,"SW_RAMP":null,"VILL_NAME":"壽豐鄉"},"geometry":{"type":"Polygon","coordinates":[[[121.509503,23.869618],[121.509257,23.869238],[121.509232,23.869265],[121.509482,23.86963],[121.509503,23.869618]]]}},{"type":"Feature","properties":{"id":"8b2141325183","NAME":"中山路","PSTART":"中山路5段","PEND":"中山路六段和榮橋人行道","SW_DIRECT":"3","SW_LENG":2936.4,"SW_WTH":5.0,"SWW_WTH":5.0,"SW_RAMP":null,"VILL_NAME":"壽豐鄉"},"geometry":{"type":"Polygon","coordinates":[[[121.508591,23.86811],[121.508861,23.868993],[121.508977,23.868975],[121.508591,23.86811]]]}},{"type":"Feature","properties":{"id":"4dc221757c29","NAME":"中山路六段","PSTART":"和榮大橋","PEND":"公園路","SW_DIRECT":"2","SW_LENG":774.0,"SW_WTH":5.0,"SWW_WTH":5.0,"SW_RAMP":7,"VILL_NAME":"壽豐鄉"},"geometry":{"type":"Polygon","coordinates":[[[121.513452,23.878528],[121.513487,23.878512],[121.510986,23.872094],[121.510732,23.871617],[121.513452,23.878528]]]}},{"type":"Feature","properties":{"id":"66310909c604","NAME":"中山路","PSTART":"中正路","PEND":"火車站","SW_DIRECT":"2","SW_LENG":113.0,"SW_WTH":2.27,"SWW_WTH":2.27,"SW_RAMP":null,"VILL_NAME":"鳳林鎮"},"geometry":{"type":"Polygon","coordinates":[[[121.447147,23.746286],[121.448456,23.745829],[121.44843,23.745781],[121.447108,23.746245],[121.447147,23.746286]]]}},{"type":"Feature","properties":{"id":"0b5c3cf936d1","NAME":"成功街","PSTART":"和平街","PEND":"忠義路","SW_DIRECT":"1","SW_LENG":100.0,"SW_WTH":3.28,"SWW_WTH":3.28,"SW_RAMP":null,"VILL_NAME":"鳳林鎮"},"geometry":{"type":"Polygon","coordinates":[[[121.448854,23.749089],[121.448944,23.749077],[121.445874,23.742945],[121.445329,23.743031],[121.444938,23.742399],[121.444873,23.742411],[121.445343,23.743138],[121.445835,23.743041],[121.448854,23.749089]]]}},{"type":"Feature","properties":{"id":"a9c5099e18fb","NAME":"光復路","PSTART":"信義路","PEND":"信義路","SW_DIRECT":"1","SW_LENG":900.0,"SW_WTH":2.0,"SWW_WTH":2.0,"SW_RAMP":null,"VILL_NAME":"鳳林鎮"},"geometry":{"type":"Polygon","coordinates":[[[121.452155,23.752531],[121.452202,23.752436],[121.447489,23.740623],[121.447334,23.740624],[121.452155,23.752531]]]}},{"type":"Feature","properties":{"id":"a7efe2df77b0","NAME":"中和路","PSTART":"光復路","PEND":"大榮一路","SW_DIRECT":"1","SW_LENG":1462.35,"SW_WTH":2.0,"SWW_WTH":2.0,"SW_RAMP":null,"VILL_NAME":"鳳林鎮"},"geometry":{"type":"Polygon","coordinates":[[[121.45036,23.748219],[121.456611,23.745961],[121.456598,23.745937],[121.456598,23.745901],[121.45034,23.748166],[121.45036,23.748219]]]}},{"type":"Feature","properties":{"id":"77760042095e","NAME":"公園路","PSTART":"中和路","PEND":"光復路","SW_DIRECT":"2","SW_LENG":708.49,"SW_WTH":1.5,"SWW_WTH":1.5,"SW_RAMP":4,"VILL_NAME":"鳳林鎮"},"geometry":{"type":"Polygon","coordinates":[[[121.451349,23.750547],[121.45236,23.750168],[121.45267,23.749678],[121.452825,23.749444],[121.452934,23.749139],[121.452254,23.747546],[121.452189,23.747577],[121.452889,23.749163],[121.452786,23.749414],[121.452308,23.750127],[121.451323,23.750494],[121.451349,23.750547]]]}},{"type":"Feature","properties":{"id":"5506747b494d","NAME":"中華路","PSTART":"台9線(信義路)","PEND":"台9線(信義路)","SW_DIRECT":"1","SW_LENG":1620.0,"SW_WTH":4.0,"SWW_WTH":4.0,"SW_RAMP":30,"VILL_NAME":"鳳林鎮"},"geometry":{"type":"Polygon","coordinates":[[[121.451257,23.747827],[121.451347,23.747803],[121.449084,23.742136],[121.449034,23.742184],[121.451257,23.747827]]]}},{"type":"Feature","properties":{"id":"08622d77e014","NAME":"中正路","PSTART":"台9線(信義路)","PEND":"台9線(信義路)","SW_DIRECT":"1","SW_LENG":1668.0,"SW_WTH":3.0,"SWW_WTH":3.0,"SW_RAMP":12,"VILL_NAME":"鳳林鎮"},"geometry":{"type":"Polygon","coordinates":[[[121.451748,23.75352],[121.446142,23.739846],[121.446012,23.739846],[121.451638,23.753519],[121.451748,23.75352]]]}},{"type":"Feature","properties":{"id":"23c60b537e5a","NAME":"信義路","PSTART":"中正路","PEND":"中正路","SW_DIRECT":"1","SW_LENG":3731.0,"SW_WTH":2.8,"SWW_WTH":2.8,"SW_RAMP":3,"VILL_NAME":"鳳林鎮"},"geometry":{"type":"Polygon","coordinates":[[[121.451874,23.753798],[121.452004,23.75375],[121.452363,23.752674],[121.453963,23.749994],[121.454039,23.749468],[121.454036,23.748417],[121.451497,23.742308],[121.451157,23.741592],[121.450065,23.740974],[121.447234,23.740337],[121.446297,23.739671],[121.446247,23.739958],[121.446975,23.74041],[121.448325,23.740693],[121.450247,23.741141],[121.451028,23.74176],[121.453304,23.746914],[121.453959,23.74868],[121.453885,23.749779],[121.452878,23.751454],[121.452104,23.752794],[121.451874,23.753798]]]}},{"type":"Feature","properties":{"id":"3b1c99ba9fbf","NAME":"新興一路","PSTART":"新興三街","PEND":"台九線中正路","SW_DIRECT":"1","SW_LENG":800.0,"SW_WTH":3.0,"SWW_WTH":1.65,"SW_RAMP":16,"VILL_NAME":"新城鄉"},"geometry":{"type":"Polygon","coordinates":[[[121.641718,24.127101],[121.641666,24.127113],[121.641679,24.127173],[121.644458,24.125859],[121.648584,24.126081],[121.648623,24.126045],[121.644444,24.125812],[121.641718,24.127101]]]}},{"type":"Feature","properties":{"id":"ff74d4fd2200","NAME":"平和一街","PSTART":"平和一街","PEND":"平和二街","SW_DIRECT":"2","SW_LENG":77.0,"SW_WTH":2.0,"SWW_WTH":2.0,"SW_RAMP":1,"VILL_NAME":"壽豐鄉"},"geometry":{"type":"Polygon","coordinates":[[[121.521253,23.884104],[121.521316,23.88407],[121.52029,23.882873],[121.520233,23.882908],[121.521253,23.884104]]]}},{"type":"Feature","properties":{"id":"5e43f3154ea5","NAME":"平和一街","PSTART":"平和一街","PEND":"平和二街","SW_DIRECT":"2","SW_LENG":180.0,"SW_WTH":2.0,"SWW_WTH":2.0,"SW_RAMP":1,"VILL_NAME":"壽豐鄉"},"geometry":{"type":"Polygon","coordinates":[[[121.519607,23.88337],[121.520311,23.882909],[121.520267,23.882834],[121.519493,23.883254],[121.519607,23.88337]]]}},{"type":"Feature","properties":{"id":"ae8782b5b641","NAME":"新順興路","PSTART":"新興一路街口","PEND":"新興一路與新順興路交叉口","SW_DIRECT":"2","SW_LENG":919.0,"SW_WTH":4.5,"SWW_WTH":1.65,"SW_RAMP":16,"VILL_NAME":"新城鄉"},"geometry":{"type":"Polygon","coordinates":[[[121.642304,24.128519],[121.642431,24.128478],[121.64171,24.127153],[121.64159,24.127206],[121.641584,24.127229],[121.642304,24.128519]]]}},{"type":"Feature","properties":{"id":"59fef36c893e","NAME":"仁愛路","PSTART":"光復路","PEND":"忠智路","SW_DIRECT":"1","SW_LENG":470.0,"SW_WTH":1.5,"SWW_WTH":1.5,"SW_RAMP":6,"VILL_NAME":"玉里鎮"},"geometry":{"type":"Polygon","coordinates":[[[121.318584,23.332297],[121.318597,23.33225],[121.317959,23.330853],[121.318584,23.332262],[121.318584,23.332297]]]}},{"type":"Feature","properties":{"id":"9a4c88df071d","NAME":"光復路","PSTART":"光復路","PEND":"光復路","SW_DIRECT":"1","SW_LENG":470.0,"SW_WTH":1.2,"SWW_WTH":1.2,"SW_RAMP":8,"VILL_NAME":"玉里鎮"},"geometry":{"type":"Polygon","coordinates":[[[121.312482,23.331512],[121.312495,23.331524],[121.313103,23.331475],[121.313517,23.331427],[121.313879,23.331378],[121.314009,23.331378],[121.314164,23.331413],[121.314578,23.331544],[121.315005,23.331639],[121.315212,23.33171],[121.315174,23.331818],[121.315213,23.331913],[121.315394,23.332056],[121.315485,23.332092],[121.315588,23.332091],[121.315757,23.332043],[121.315937,23.331947],[121.315911,23.331924],[121.315834,23.331995],[121.315627,23.332067],[121.315498,23.332068],[121.315278,23.331949],[121.3152,23.331806],[121.315225,23.331674],[121.314669,23.331532],[121.314073,23.331354],[121.313944,23.331342],[121.312482,23.331512]]]}},{"type":"Feature","properties":{"id":"9c61a8fdf66c","NAME":"鎮民廣場","PSTART":"民權街","PEND":"民權街","SW_DIRECT":"3","SW_LENG":780.0,"SW_WTH":3.5,"SWW_WTH":3.5,"SW_RAMP":6,"VILL_NAME":"玉里鎮"},"geometry":{"type":"Polygon","coordinates":[[[121.316293,23.334694],[121.31628,23.334659],[121.315843,23.335746],[121.31583,23.33589],[121.316283,23.336056],[121.316389,23.336892],[121.317682,23.336746],[121.317786,23.336698],[121.317484,23.334931],[121.316733,23.334717],[121.3165,23.334742],[121.316293,23.334694]]]}},{"type":"Feature","properties":{"id":"25b441fdd5b6","NAME":"客家生活館","PSTART":"民權街","PEND":"民權街","SW_DIRECT":"3","SW_LENG":360.0,"SW_WTH":3.5,"SWW_WTH":3.5,"SW_RAMP":6,"VILL_NAME":"玉里鎮"},"geometry":{"type":"Polygon","coordinates":[[[121.318816,23.33505],[121.318829,23.33505],[121.318908,23.335527],[121.3198,23.335406],[121.319682,23.334725],[121.318816,23.33505]]]}},{"type":"Feature","properties":{"id":"572f1c3626e9","NAME":"國風街21巷","PSTART":"中華路二段","PEND":"國風街","SW_DIRECT":"1","SW_LENG":400.0,"SW_WTH":2.0,"SWW_WTH":2.0,"SW_RAMP":8,"VILL_NAME":"花蓮市"},"geometry":{"type":"Polygon","coordinates":[[[121.592819,23.97461],[121.59278,23.974646],[121.593823,23.975299],[121.595087,23.975963],[121.59739,23.976551],[121.597442,23.976491],[121.595073,23.97588],[121.593783,23.975228],[121.592819,23.97461]]]}},{"type":"Feature","properties":{"id":"660801ccc367","NAME":"16股大道","PSTART":"尚志路","PEND":"中央路","SW_DIRECT":"2","SW_LENG":1000.0,"SW_WTH":2.0,"SWW_WTH":2.0,"SW_RAMP":12,"VILL_NAME":"花蓮市"},"geometry":{"type":"Polygon","coordinates":[[[121.613342,24.001382],[121.613368,24.001406],[121.613394,24.001405],[121.613315,24.001119],[121.607205,24.001502],[121.60718,24.001717],[121.602123,24.004556],[121.602254,24.004746],[121.605469,24.00287],[121.607467,24.00174],[121.613342,24.001382]]]}},{"type":"Feature","properties":{"id":"c90abe2093c3","NAME":"新興路","PSTART":"瑞美路","PEND":"介壽四街","SW_DIRECT":"2","SW_LENG":500.0,"SW_WTH":2.0,"SWW_WTH":1.5,"SW_RAMP":8,"VILL_NAME":"花蓮市"},"geometry":{"type":"Polygon","coordinates":[[[121.616541,23.990624],[121.6162,23.989299],[121.616153,23.989313],[121.616497,23.990607],[121.616885,23.993096],[121.616943,23.993084],[121.616541,23.990624]]]}},{"type":"Feature","properties":{"id":"e7ab7cfe2710","NAME":"海濱路(東側人行道)","PSTART":"北濱外環道出口","PEND":"康樂街","SW_DIRECT":"1","SW_LENG":500.0,"SW_WTH":1.5,"SWW_WTH":1.5,"SW_RAMP":6,"VILL_NAME":"花蓮市"},"geometry":{"type":"Polygon","coordinates":[[[121.615276,23.973803],[121.615478,23.974065],[121.615688,23.974368],[121.616265,23.975363],[121.616402,23.975644],[121.616442,23.975787],[121.616542,23.976306],[121.616573,23.977417],[121.616765,23.978103],[121.616824,23.978228],[121.616889,23.978174],[121.616691,23.97759],[121.616617,23.977076],[121.616641,23.976694],[121.616613,23.976198],[121.616507,23.975715],[121.616356,23.975363],[121.615628,23.97416],[121.615276,23.973803]]]}},{"type":"Feature","properties":{"id":"765ca3e25664","NAME":"商校街(東側人行道)","PSTART":"中山路","PEND":"進豐街","SW_DIRECT":"2","SW_LENG":500.0,"SW_WTH":1.5,"SWW_WTH":1.5,"SW_RAMP":6,"VILL_NAME":"花蓮市"},"geometry":{"type":"Polygon","coordinates":[[[121.601731,23.987191],[121.603551,23.987628],[121.604787,23.987912],[121.605635,23.988035],[121.605867,23.988034],[121.605869,23.98802],[121.60563,23.988026],[121.6048,23.987902],[121.601734,23.987176],[121.601731,23.987191]]]}},{"type":"Feature","properties":{"id":"742bdc07b886","NAME":"國盛二街轉國民八街","PSTART":"國盛七街","PEND":"國盛四街","SW_DIRECT":"2","SW_LENG":500.0,"SW_WTH":2.0,"SWW_WTH":1.5,"SW_RAMP":10,"VILL_NAME":"花蓮市"},"geometry":{"type":"Polygon","coordinates":[[[121.60702,23.991133],[121.606999,23.991126],[121.606456,23.993338],[121.607619,23.993579],[121.607831,23.992709],[121.60781,23.992704],[121.607609,23.993553],[121.606479,23.993324],[121.60702,23.991133]]]}},{"type":"Feature","properties":{"id":"bcb98c506991","NAME":"中央路四段","PSTART":"裕民路","PEND":"16股大道","SW_DIRECT":"2","SW_LENG":500.0,"SW_WTH":2.0,"SWW_WTH":1.5,"SW_RAMP":12,"VILL_NAME":"花蓮市"},"geometry":{"type":"Polygon","coordinates":[[[121.598398,24.000487],[121.598301,24.000529],[121.601922,24.004666],[121.601993,24.004624],[121.598398,24.000487]]]}},{"type":"Feature","properties":{"id":"f84be768fbfd","NAME":"南華二街","PSTART":"中央路","PEND":"吉安路","SW_DIRECT":"2","SW_LENG":1000.0,"SW_WTH":2.0,"SWW_WTH":1.5,"SW_RAMP":14,"VILL_NAME":"吉安鄉"},"geometry":{"type":"Polygon","coordinates":[[[121.558989,23.952323],[121.552142,23.956051],[121.552299,23.956217],[121.559094,23.952466],[121.558989,23.952323]]]}},{"type":"Feature","properties":{"id":"ddb7a6770081","NAME":"慈惠一街、北安街161巷","PSTART":"中央路","PEND":"北安街","SW_DIRECT":"2","SW_LENG":750.0,"SW_WTH":1.5,"SWW_WTH":1.5,"SW_RAMP":8,"VILL_NAME":"吉安鄉"},"geometry":{"type":"Polygon","coordinates":[[[121.577974,23.978914],[121.5799,23.977885],[121.581554,23.97718],[121.581378,23.977062],[121.580838,23.976938],[121.577784,23.978598],[121.577974,23.978914]]]}},{"type":"Feature","properties":{"id":"f26462e748db","NAME":"中央路一段","PSTART":"福興六街","PEND":"福昌路","SW_DIRECT":"3","SW_LENG":1264.0,"SW_WTH":2.2,"SWW_WTH":2.2,"SW_RAMP":10,"VILL_NAME":"吉安鄉"},"geometry":{"type":"Polygon","coordinates":[[[121.564768,23.961056],[121.561496,23.955896],[121.561405,23.955956],[121.564729,23.961104],[121.564768,23.961068],[121.564768,23.961056]]]}},{"type":"Feature","properties":{"id":"905dd30f1a59","NAME":"壽喜街","PSTART":"壽山路","PEND":"公園路28巷","SW_DIRECT":"1","SW_LENG":201.3,"SW_WTH":2.7,"SWW_WTH":2.7,"SW_RAMP":6,"VILL_NAME":"壽豐鄉"},"geometry":{"type":"Polygon","coordinates":[[[121.507622,23.868611],[121.508648,23.870044],[121.508678,23.870034],[121.507631,23.868602],[121.507622,23.868611]]]}},{"type":"Feature","properties":{"id":"3bd5ba2d8be6","NAME":"公園路28巷","PSTART":"壽喜街","PEND":"公園路28巷","SW_DIRECT":"2","SW_LENG":141.1,"SW_WTH":4.0,"SWW_WTH":2.5,"SW_RAMP":3,"VILL_NAME":"壽豐鄉"},"geometry":{"type":"Polygon","coordinates":[[[121.507612,23.868611],[121.506466,23.869319],[121.506495,23.869346],[121.507632,23.868647],[121.507612,23.868611]]]}},{"type":"Feature","properties":{"id":"71c7a3f0bea6","NAME":"公園路28巷","PSTART":"公園路28巷","PEND":"壽喜街","SW_DIRECT":"1","SW_LENG":79.0,"SW_WTH":2.5,"SWW_WTH":2.0,"SW_RAMP":3,"VILL_NAME":"壽豐鄉"},"geometry":{"type":"Polygon","coordinates":[[[121.506368,23.869338],[121.506995,23.868957],[121.506965,23.868948],[121.506368,23.869329],[121.506368,23.869338]]]}},{"type":"Feature","properties":{"id":"519d9e843a6d","NAME":"大學路","PSTART":"大學路","PEND":"大學路","SW_DIRECT":"1","SW_LENG":2000.0,"SW_WTH":2.3,"SWW_WTH":1.6,"SW_RAMP":20,"VILL_NAME":"壽豐鄉"},"geometry":{"type":"Polygon","coordinates":[[[121.552886,23.895205],[121.552911,23.895133],[121.534145,23.887411],[121.53412,23.887483],[121.552886,23.895205]]]}},{"type":"Feature","properties":{"id":"69da9c60017c","NAME":"美崙林園公園","PSTART":"林園一街","PEND":"東興二街","SW_DIRECT":"1","SW_LENG":450.0,"SW_WTH":3.0,"SWW_WTH":3.0,"SW_RAMP":8,"VILL_NAME":"花蓮市"},"geometry":{"type":"Polygon","coordinates":[[[121.630163,24.000421],[121.630163,24.00054],[121.630026,24.001747],[121.631678,24.001931],[121.631906,24.000569],[121.630163,24.000421]]]}},{"type":"Feature","properties":{"id":"16907a70cb9e","NAME":"東興路","PSTART":"林園一街","PEND":"林園三街","SW_DIRECT":"2","SW_LENG":350.0,"SW_WTH":2.0,"SWW_WTH":2.0,"SW_RAMP":8,"VILL_NAME":"花蓮市"},"geometry":{"type":"Polygon","coordinates":[[[121.632489,24.002096],[121.632022,24.005072],[121.632274,24.003512],[121.632489,24.002096]]]}},{"type":"Feature","properties":{"id":"944fa02d3e03","NAME":"東大門夜市人行道","PSTART":"重慶路","PEND":"南濱路","SW_DIRECT":"1","SW_LENG":10000.0,"SW_WTH":2.0,"SWW_WTH":2.0,"SW_RAMP":10,"VILL_NAME":"花蓮市"},"geometry":{"type":"Polygon","coordinates":[[[121.609847,23.97297],[121.611556,23.974193],[121.612899,23.972372],[121.613532,23.971569],[121.612905,23.970807],[121.611707,23.970478],[121.610666,23.970326],[121.609038,23.972435],[121.60986,23.972969],[121.609847,23.97297]]]}},{"type":"Feature","properties":{"id":"488440d13840","NAME":"瑞美路","PSTART":"府前路","PEND":"府後路","SW_DIRECT":"2","SW_LENG":270.0,"SW_WTH":1.5,"SWW_WTH":1.5,"SW_RAMP":6,"VILL_NAME":"花蓮市"},"geometry":{"type":"Polygon","coordinates":[[[121.619137,23.992833],[121.620957,23.992599],[121.621931,23.992452],[121.619137,23.992833]]]}},{"type":"Feature","properties":{"id":"753948e28c42","NAME":"縣府前方道路","PSTART":"瑞美路","PEND":"介壽五街","SW_DIRECT":"2","SW_LENG":270.0,"SW_WTH":1.5,"SWW_WTH":1.5,"SW_RAMP":6,"VILL_NAME":"花蓮市"},"geometry":{"type":"Polygon","coordinates":[[[121.62095,23.992593],[121.620909,23.992229],[121.620775,23.99125],[121.620587,23.990092],[121.62095,23.992593]]]}},{"type":"Feature","properties":{"id":"41f9e21a27b7","NAME":"華西路","PSTART":"花師路33巷","PEND":"華德路","SW_DIRECT":"2","SW_LENG":400.0,"SW_WTH":1.5,"SWW_WTH":1.0,"SW_RAMP":4,"VILL_NAME":"新城鄉"},"geometry":{"type":"Polygon","coordinates":[[[121.615898,24.008352],[121.618907,24.011584],[121.617255,24.009787],[121.615898,24.008352]]]}},{"type":"Feature","properties":{"id":"e263d8f0cd76","NAME":"府前路","PSTART":"瑞美路","PEND":"中美路","SW_DIRECT":"2","SW_LENG":700.0,"SW_WTH":2.5,"SWW_WTH":3.5,"SW_RAMP":14,"VILL_NAME":"花蓮市"},"geometry":{"type":"Polygon","coordinates":[[[121.621945,23.992437],[121.62194,23.99244],[121.621966,23.992433],[121.620882,23.985483],[121.620866,23.985485],[121.621945,23.992437]]]}},{"type":"Feature","properties":{"id":"07215f708b9a","NAME":"中山路","PSTART":"濟慈路","PEND":"達固湖灣大路","SW_DIRECT":"2","SW_LENG":500.0,"SW_WTH":3.5,"SWW_WTH":2.5,"SW_RAMP":6,"VILL_NAME":"花蓮市"},"geometry":{"type":"Polygon","coordinates":[[[121.585825,24.007212],[121.585849,24.007224],[121.590624,24.001126],[121.590609,24.001119],[121.585833,24.007212],[121.585825,24.007212]]]}},{"type":"Feature","properties":{"id":"5de17ff3c751","NAME":"海岸路","PSTART":"民權五街","PEND":"民權八街","SW_DIRECT":"2","SW_LENG":500.0,"SW_WTH":3.5,"SWW_WTH":3.5,"SW_RAMP":6,"VILL_NAME":"花蓮市"},"geometry":{"type":"Polygon","coordinates":[[[121.627165,23.986776],[121.627191,23.986752],[121.62376,23.983412],[121.627165,23.986776]]]}},{"type":"Feature","properties":{"id":"2aff2b6f18a5","NAME":"南濱路","PSTART":"自由街","PEND":"中原路二段","SW_DIRECT":"1","SW_LENG":500.0,"SW_WTH":3.5,"SWW_WTH":2.5,"SW_RAMP":8,"VILL_NAME":"花蓮市"},"geometry":{"type":"Polygon","coordinates":[[[121.607016,23.965021],[121.610884,23.969413],[121.610923,23.969377],[121.607068,23.964991],[121.607029,23.965021],[121.607016,23.965021]]]}},{"type":"Feature","properties":{"id":"00b4cea8d7ff","NAME":"尚志路","PSTART":"國盛四街","PEND":"農兵橋","SW_DIRECT":"2","SW_LENG":500.0,"SW_WTH":3.5,"SWW_WTH":2.5,"SW_RAMP":8,"VILL_NAME":"花蓮市"},"geometry":{"type":"Polygon","coordinates":[[[121.610528,23.991268],[121.610947,23.993457],[121.611596,23.995459],[121.612295,23.997523],[121.612321,23.997517],[121.611258,23.994378],[121.61096,23.993445],[121.610549,23.991252],[121.610528,23.991268]]]}},{"type":"Feature","properties":{"id":"fe753062e4f8","NAME":"中美路","PSTART":"民權三街","PEND":"民權五街","SW_DIRECT":"1","SW_LENG":300.0,"SW_WTH":2.5,"SWW_WTH":2.0,"SW_RAMP":6,"VILL_NAME":"花蓮市"},"geometry":{"type":"Polygon","coordinates":[[[121.61896,23.983229],[121.619828,23.984258],[121.620874,23.985467],[121.620887,23.985455],[121.618976,23.983215],[121.61896,23.983229]]]}},{"type":"Feature","properties":{"id":"b86f87862456","NAME":"慈惠一街","PSTART":"中央路三段","PEND":"中華路","SW_DIRECT":"1","SW_LENG":1300.0,"SW_WTH":2.5,"SWW_WTH":2.0,"SW_RAMP":8,"VILL_NAME":"吉安鄉"},"geometry":{"type":"Polygon","coordinates":[[[121.588409,23.974139],[121.588377,23.974139],[121.587839,23.974631],[121.586744,23.975316],[121.586355,23.975515],[121.58481,23.976046],[121.581766,23.977037],[121.581779,23.977055],[121.583662,23.976433],[121.584843,23.976058],[121.586374,23.975526],[121.586744,23.975334],[121.587859,23.974637],[121.588409,23.974139]]]}},{"type":"Feature","properties":{"id":"f6875243c2ed","NAME":"明義街","PSTART":"民國路","PEND":"中正路","SW_DIRECT":"2","SW_LENG":270.0,"SW_WTH":1.5,"SWW_WTH":1.5,"SW_RAMP":2,"VILL_NAME":"花蓮市"},"geometry":{"type":"Polygon","coordinates":[[[121.604549,23.978061],[121.605932,23.976288],[121.605919,23.9763],[121.604549,23.978061]]]}},{"type":"Feature","properties":{"id":"2344fc0a470d","NAME":"中正路","PSTART":"明義街","PEND":"仁愛街","SW_DIRECT":"1","SW_LENG":230.0,"SW_WTH":1.5,"SWW_WTH":1.5,"SW_RAMP":4,"VILL_NAME":"花蓮市"},"geometry":{"type":"Polygon","coordinates":[[[121.605936,23.97629],[121.605119,23.975746],[121.604235,23.975657],[121.605125,23.975754],[121.605928,23.97629],[121.605936,23.97629]]]}},{"type":"Feature","properties":{"id":"f3712b72320d","NAME":"仁愛街","PSTART":"中正路","PEND":"民國路","SW_DIRECT":"1","SW_LENG":270.0,"SW_WTH":2.0,"SWW_WTH":2.0,"SW_RAMP":4,"VILL_NAME":"花蓮市"},"geometry":{"type":"Polygon","coordinates":[[[121.603086,23.977132],[121.603099,23.977144],[121.604243,23.975676],[121.60423,23.975664],[121.603086,23.977132]]]}},{"type":"Feature","properties":{"id":"289a5520b2c6","NAME":"民國路","PSTART":"仁愛街","PEND":"明義街","SW_DIRECT":"2","SW_LENG":230.0,"SW_WTH":2.0,"SWW_WTH":2.0,"SW_RAMP":2,"VILL_NAME":"花蓮市"},"geometry":{"type":"Polygon","coordinates":[[[121.603075,23.977146],[121.604543,23.978089],[121.60455,23.978074],[121.603075,23.977146]]]}},{"type":"Feature","properties":{"id":"9818d89d8b6b","NAME":"民權五街","PSTART":"中美路","PEND":"海岸路","SW_DIRECT":"2","SW_LENG":360.0,"SW_WTH":1.5,"SWW_WTH":1.5,"SW_RAMP":2,"VILL_NAME":"花蓮市"},"geometry":{"type":"Polygon","coordinates":[[[121.620905,23.985464],[121.621522,23.985041],[121.622055,23.984647],[121.623745,23.983419],[121.623729,23.983407],[121.621503,23.985027],[121.620894,23.985445],[121.620905,23.985464]]]}},{"type":"Feature","properties":{"id":"c29b63df80ab","NAME":"中正路","PSTART":"中山路(台9線)","PEND":"東華大學大門口","SW_DIRECT":"1","SW_LENG":800.0,"SW_WTH":1.5,"SWW_WTH":1.5,"SW_RAMP":6,"VILL_NAME":"壽豐鄉"},"geometry":{"type":"Polygon","coordinates":[[[121.530148,23.907249],[121.530148,23.907225],[121.535295,23.904603],[121.535243,23.90452],[121.530122,23.907166],[121.530148,23.907249]]]}},{"type":"Feature","properties":{"id":"cea43d96111f","NAME":"福昌路","PSTART":"吉安路","PEND":"吉豐路三段","SW_DIRECT":"1","SW_LENG":900.0,"SW_WTH":1.5,"SWW_WTH":1.5,"SW_RAMP":8,"VILL_NAME":"吉安鄉"},"geometry":{"type":"Polygon","coordinates":[[[121.554441,23.959617],[121.56349,23.954741],[121.563485,23.954712],[121.55443,23.9596],[121.554441,23.959617]]]}},{"type":"Feature","properties":{"id":"01bdf0ab3353","NAME":"北埔國小通學步道","PSTART":"民族路","PEND":"民治街","SW_DIRECT":"2","SW_LENG":185.0,"SW_WTH":3.5,"SWW_WTH":2.0,"SW_RAMP":4,"VILL_NAME":"新城鄉"},"geometry":{"type":"Polygon","coordinates":[[[121.604401,24.03268],[121.604979,24.031131],[121.60469,24.031873],[121.604401,24.03268]]]}},{"type":"Feature","properties":{"id":"fd23140e9624","NAME":"光復路","PSTART":"北埔路","PEND":"民有街","SW_DIRECT":"1","SW_LENG":527.0,"SW_WTH":5.0,"SWW_WTH":2.5,"SW_RAMP":14,"VILL_NAME":"新城鄉"},"geometry":{"type":"Polygon","coordinates":[[[121.603478,24.040629],[121.603482,24.040629],[121.603824,24.039557],[121.604934,24.036345],[121.605039,24.036087],[121.605036,24.036082],[121.604921,24.036369],[121.603828,24.039537],[121.603478,24.040629]]]}},{"type":"Feature","properties":{"id":"ad96e40b2029","NAME":"光復路","PSTART":"大漢街","PEND":"民有街","SW_DIRECT":"2","SW_LENG":403.0,"SW_WTH":5.0,"SWW_WTH":3.0,"SW_RAMP":10,"VILL_NAME":"新城鄉"},"geometry":{"type":"Polygon","coordinates":[[[121.603799,24.039542],[121.60462,24.037183],[121.604906,24.036327],[121.605011,24.036074],[121.605006,24.036074],[121.604909,24.036313],[121.604653,24.037068],[121.603795,24.039538],[121.603799,24.039542]]]}},{"type":"Feature","properties":{"id":"13942d712817","NAME":"樹人街","PSTART":"北埔路","PEND":"光復路","SW_DIRECT":"1","SW_LENG":99.0,"SW_WTH":2.6,"SWW_WTH":2.6,"SW_RAMP":3,"VILL_NAME":"新城鄉"},"geometry":{"type":"Polygon","coordinates":[[[121.603097,24.038561],[121.604027,24.038856],[121.604027,24.038851],[121.6031,24.038556],[121.603097,24.038561]]]}},{"type":"Feature","properties":{"id":"a9a4369e3a1c","NAME":"光復路","PSTART":"民有街","PEND":"民權街","SW_DIRECT":"1","SW_LENG":280.0,"SW_WTH":4.8,"SWW_WTH":2.8,"SW_RAMP":11,"VILL_NAME":"新城鄉"},"geometry":{"type":"Polygon","coordinates":[[[121.605042,24.036056],[121.605768,24.033597],[121.605763,24.033595],[121.605042,24.036056]]]}},{"type":"Feature","properties":{"id":"4aa5ec04b52d","NAME":"光復路","PSTART":"民有街","PEND":"機場巷","SW_DIRECT":"2","SW_LENG":1346.0,"SW_WTH":4.8,"SWW_WTH":2.8,"SW_RAMP":43,"VILL_NAME":"新城鄉"},"geometry":{"type":"Polygon","coordinates":[[[121.605018,24.036052],[121.605653,24.033878],[121.606222,24.032115],[121.606425,24.031504],[121.606532,24.031105],[121.606907,24.029769],[121.607172,24.028853],[121.607666,24.027272],[121.607891,24.026585],[121.608471,24.024934],[121.60847,24.024903],[121.608503,24.024635],[121.608503,24.024602],[121.608469,24.024316],[121.608436,24.024352],[121.60847,24.024645],[121.608439,24.024955],[121.608067,24.026038],[121.607511,24.02773],[121.607338,24.028273],[121.606943,24.029608],[121.60669,24.030506],[121.606416,24.031502],[121.60603,24.032684],[121.605537,24.034244],[121.605011,24.036053],[121.605018,24.036052]]]}},{"type":"Feature","properties":{"id":"6e31feee431f","NAME":"中興路","PSTART":"中正一段","PEND":"和平街","SW_DIRECT":"3","SW_LENG":800.0,"SW_WTH":5.0,"SWW_WTH":4.5,"SW_RAMP":15,"VILL_NAME":"光復鄉"},"geometry":{"type":"Polygon","coordinates":[[[121.421695,23.666195],[121.421718,23.666185],[121.420756,23.662769],[121.420731,23.662774],[121.421695,23.666195]]]}},{"type":"Feature","properties":{"id":"d34581e2baa3","NAME":"台九線蘇花公路(和平)","PSTART":"台泥大門","PEND":"和工5路口","SW_DIRECT":"3","SW_LENG":382.1,"SW_WTH":2.9,"SWW_WTH":1.8,"SW_RAMP":null,"VILL_NAME":"秀林鄉"},"geometry":{"type":"Polygon","coordinates":[[[121.750763,24.301911],[121.752228,24.298464],[121.751443,24.300093],[121.750763,24.301911]]]}},{"type":"Feature","properties":{"id":"9b86b8260b61","NAME":"吉安路","PSTART":"中山路三段","PEND":"福興五街","SW_DIRECT":"1","SW_LENG":1400.0,"SW_WTH":2.0,"SWW_WTH":2.0,"SW_RAMP":16,"VILL_NAME":"吉安鄉"},"geometry":{"type":"Polygon","coordinates":[[[121.56722,23.979793],[121.567479,23.979673],[121.559004,23.966622],[121.558667,23.96679],[121.567184,23.979784],[121.56722,23.979793]]]}},{"type":"Feature","properties":{"id":"e21d37bb412f","NAME":"東海十街","PSTART":"東里一街","PEND":"東里四街","SW_DIRECT":"1","SW_LENG":129.0,"SW_WTH":2.5,"SWW_WTH":2.5,"SW_RAMP":4,"VILL_NAME":"吉安鄉"},"geometry":{"type":"Polygon","coordinates":[[[121.592433,23.965658],[121.593509,23.964913],[121.593501,23.964901],[121.592428,23.965651],[121.592433,23.965658]]]}},{"type":"Feature","properties":{"id":"ee6c21a132b0","NAME":"東海十街","PSTART":"東里十一街","PEND":"東海十街156巷","SW_DIRECT":"1","SW_LENG":116.0,"SW_WTH":2.5,"SWW_WTH":2.5,"SW_RAMP":2,"VILL_NAME":"吉安鄉"},"geometry":{"type":"Polygon","coordinates":[[[121.595864,23.963528],[121.596888,23.962891],[121.596883,23.962877],[121.595853,23.963519],[121.595864,23.963528]]]}},{"type":"Feature","properties":{"id":"e521b4d3714c","NAME":"中央路三段","PSTART":"億福橋","PEND":"福興五街","SW_DIRECT":"2","SW_LENG":1850.0,"SW_WTH":2.0,"SWW_WTH":0.0,"SW_RAMP":8,"VILL_NAME":"吉安鄉"},"geometry":{"type":"Polygon","coordinates":[[[121.578783,23.976275],[121.574801,23.975406],[121.573418,23.97436],[121.564802,23.96109],[121.56475,23.961186],[121.571006,23.970862],[121.57344,23.974527],[121.574848,23.975549],[121.578752,23.976395],[121.578752,23.976419],[121.578783,23.976275]]]}},{"type":"Feature","properties":{"id":"986125e248e0","NAME":"花蓮市中興路道路品質提升計畫","PSTART":"中興路-府前路","PEND":"中興路-中美路","SW_DIRECT":"1","SW_LENG":1680.0,"SW_WTH":2.7,"SWW_WTH":2.1,"SW_RAMP":null,"VILL_NAME":"花蓮市"},"geometry":{"type":"Polygon","coordinates":[[[121.621345,23.997151],[121.621775,23.997274],[121.622387,23.997469],[121.622823,23.997581],[121.6232,23.997567],[121.62357,23.997458],[121.628215,23.994137],[121.628156,23.994077],[121.623537,23.997411],[121.623219,23.997507],[121.622803,23.997527],[121.621384,23.997091],[121.621345,23.997151]]]}},{"type":"Feature","properties":{"id":"f943623143f7","NAME":"中山路","PSTART":"林森路","PEND":"重慶路","SW_DIRECT":"1","SW_LENG":960.0,"SW_WTH":3.0,"SWW_WTH":2.0,"SW_RAMP":null,"VILL_NAME":"花蓮市"},"geometry":{"type":"Polygon","coordinates":[[[121.605826,23.981618],[121.611512,23.974297],[121.611512,23.974285],[121.605826,23.981618]]]}},{"type":"Feature","properties":{"id":"d9306a727339","NAME":"中順街","PSTART":"德安一街","PEND":"中正路","SW_DIRECT":"1","SW_LENG":200.0,"SW_WTH":3.4,"SWW_WTH":3.4,"SW_RAMP":null,"VILL_NAME":"花蓮市"},"geometry":{"type":"Polygon","coordinates":[[[121.594727,23.971071],[121.595411,23.970387],[121.595405,23.97039],[121.594727,23.971071]]]}},{"type":"Feature","properties":{"id":"0077d7bfff1c","NAME":"花蓮市美崙地區國中小人行空間改善工程","PSTART":"永安街102巷","PEND":"永安街","SW_DIRECT":"2","SW_LENG":278.0,"SW_WTH":3.0,"SWW_WTH":3.0,"SW_RAMP":null,"VILL_NAME":"花蓮市"},"geometry":{"type":"Polygon","coordinates":[[[121.622325,23.989882],[121.622566,23.991279],[121.622566,23.991273],[121.622325,23.989882]]]}},{"type":"Feature","properties":{"id":"f8d11d998522","NAME":"中山路(街角友善環境改善計畫)工區5","PSTART":"中山路","PEND":"重慶路","SW_DIRECT":"1","SW_LENG":200.0,"SW_WTH":2.5,"SWW_WTH":2.0,"SW_RAMP":17,"VILL_NAME":"花蓮市"},"geometry":{"type":"Polygon","coordinates":[[[121.61144,23.974367],[121.611554,23.974218],[121.61139,23.974104],[121.61126,23.974239],[121.61144,23.974367]]]}},{"type":"Feature","properties":{"id":"6cfd4ec1470c","NAME":"花蓮市街角友善環境改造計畫 工區1","PSTART":"林森路","PEND":"和平路","SW_DIRECT":"2","SW_LENG":120.0,"SW_WTH":1.8,"SWW_WTH":1.8,"SW_RAMP":null,"VILL_NAME":"花蓮市"},"geometry":{"type":"Polygon","coordinates":[[[121.600285,23.978064],[121.6003,23.978076],[121.600339,23.978016],[121.600326,23.978004],[121.600285,23.978064]]]}},{"type":"Feature","properties":{"id":"c6a4e6960f19","NAME":"花蓮市街角友善環境改造計畫 林森路工區2","PSTART":"林森路293巷","PEND":"自由街","SW_DIRECT":"2","SW_LENG":100.0,"SW_WTH":4.1,"SWW_WTH":2.0,"SW_RAMP":6,"VILL_NAME":"花蓮市"},"geometry":{"type":"Polygon","coordinates":[[[121.603154,23.979771],[121.60258,23.979415],[121.602539,23.979456],[121.603063,23.979778],[121.603141,23.979781],[121.603154,23.979771]]]}},{"type":"Feature","properties":{"id":"c268a7aaa1cb","NAME":"林森路","PSTART":"林田山園區大門","PEND":"花蓮消防局第二大隊萬榮分隊","SW_DIRECT":"2","SW_LENG":400.0,"SW_WTH":1.5,"SWW_WTH":1.5,"SW_RAMP":6,"VILL_NAME":"萬榮鄉"},"geometry":{"type":"Polygon","coordinates":[[[121.401485,23.718453],[121.403198,23.718669],[121.404341,23.718935],[121.404788,23.718958],[121.405566,23.718789],[121.405508,23.718753],[121.404749,23.718886],[121.404204,23.718858],[121.40323,23.718621],[121.402776,23.718569],[121.401511,23.718399],[121.401485,23.718453]]]}},{"type":"Feature","properties":{"id":"2cf1fd5a7d15","NAME":"萬榮鄉紅葉村生活路網建置計畫-紅葉","PSTART":"紅葉溫泉廣場","PEND":"紅葉溫泉廣場","SW_DIRECT":"1","SW_LENG":100.0,"SW_WTH":1.5,"SWW_WTH":1.5,"SW_RAMP":1,"VILL_NAME":"萬榮鄉"},"geometry":{"type":"Polygon","coordinates":[[[121.326427,23.490808],[121.326088,23.490923],[121.325756,23.49084],[121.325736,23.490917],[121.32605,23.49099],[121.326451,23.49086],[121.326427,23.490808]]]}},{"type":"Feature","properties":{"id":"10546b4adacd","NAME":"林森路","PSTART":"敦厚路","PEND":"自強路","SW_DIRECT":"1","SW_LENG":200.0,"SW_WTH":3.0,"SWW_WTH":2.5,"SW_RAMP":6,"VILL_NAME":"光復鄉"},"geometry":{"type":"Polygon","coordinates":[[[121.426655,23.667899],[121.427439,23.666224],[121.427436,23.666219],[121.426655,23.667899]]]}},{"type":"Feature","properties":{"id":"a1961e8d9032","NAME":"中原路","PSTART":"榮正街125巷","PEND":"中正路","SW_DIRECT":"2","SW_LENG":400.0,"SW_WTH":2.0,"SWW_WTH":2.0,"SW_RAMP":6,"VILL_NAME":"花蓮市"},"geometry":{"type":"Polygon","coordinates":[[[121.596158,23.972599],[121.596173,23.972607],[121.597752,23.97092],[121.597728,23.970906],[121.596158,23.972599]]]}},{"type":"Feature","properties":{"id":"06a2604bf1f0","NAME":"民生路","PSTART":"中興路","PEND":"中美路","SW_DIRECT":"1","SW_LENG":750.0,"SW_WTH":2.0,"SWW_WTH":2.0,"SW_RAMP":10,"VILL_NAME":"花蓮市"},"geometry":{"type":"Polygon","coordinates":[[[121.63284,23.999508],[121.632847,23.999232],[121.633108,23.997334],[121.633312,23.996217],[121.633676,23.9938],[121.633832,23.992614],[121.633814,23.992611],[121.633446,23.995129],[121.633098,23.997333],[121.632829,23.999239],[121.632828,23.999497],[121.63284,23.999508]]]}},{"type":"Feature","properties":{"id":"f3aa51203bf1","NAME":"民族街","PSTART":"三民街(台11線)","PEND":"民權街","SW_DIRECT":"1","SW_LENG":170.0,"SW_WTH":5.0,"SWW_WTH":5.0,"SW_RAMP":null,"VILL_NAME":"豐濱鄉"},"geometry":{"type":"Polygon","coordinates":[[[121.522284,23.59823],[121.520776,23.597217],[121.521439,23.597697],[121.522284,23.59823]]]}},{"type":"Feature","properties":{"id":"9a4fbb4b8a7a","NAME":"東海一街、長安街","PSTART":"中正路一段","PEND":"東里十一街","SW_DIRECT":"1","SW_LENG":800.0,"SW_WTH":3.0,"SWW_WTH":2.0,"SW_RAMP":8,"VILL_NAME":"吉安鄉"},"geometry":{"type":"Polygon","coordinates":[[[121.594727,23.968879],[121.597731,23.966377],[121.597731,23.966371],[121.597718,23.966371],[121.597346,23.966104],[121.594309,23.968582],[121.594727,23.968879]]]}},{"type":"Feature","properties":{"id":"6e82f82bdf89","NAME":"永興路(南側)","PSTART":"府前路","PEND":"中美路","SW_DIRECT":"1","SW_LENG":500.0,"SW_WTH":3.0,"SWW_WTH":2.0,"SW_RAMP":8,"VILL_NAME":"花蓮市"},"geometry":{"type":"Polygon","coordinates":[[[121.622735,23.993852],[121.622753,23.993877],[121.625836,23.991652],[121.625823,23.991635],[121.622735,23.993852]]]}},{"type":"Feature","properties":{"id":"732244a0a001","NAME":"中興路","PSTART":"新興路","PEND":"府前路","SW_DIRECT":"2","SW_LENG":1000.0,"SW_WTH":3.0,"SWW_WTH":2.0,"SW_RAMP":6,"VILL_NAME":"花蓮市"},"geometry":{"type":"Polygon","coordinates":[[[121.616686,23.995904],[121.621199,23.997183],[121.621202,23.997188],[121.62125,23.997035],[121.616709,23.995739],[121.616686,23.995904]]]}},{"type":"Feature","properties":{"id":"6d2802a67d10","NAME":"華東附小周邊道路","PSTART":"永安街及102巷-民權九街-中美三街-民權八街","PEND":"永安街及102巷-民權九街-中美三街-民權八街","SW_DIRECT":"1","SW_LENG":650.0,"SW_WTH":2.0,"SWW_WTH":2.0,"SW_RAMP":6,"VILL_NAME":"花蓮市"},"geometry":{"type":"Polygon","coordinates":[[[121.623275,23.992021],[121.623285,23.992023],[121.623527,23.991676],[121.623659,23.991412],[121.623803,23.991105],[121.624233,23.99079],[121.624238,23.99074],[121.623324,23.98967],[121.623308,23.989668],[121.623077,23.989814],[121.622765,23.989859],[121.622406,23.98989],[121.62237,23.989928],[121.622528,23.991129],[121.623275,23.992021]]]}},{"type":"Feature","properties":{"id":"69bee0a9945c","NAME":"南濱路一段","PSTART":"南濱路一段28巷","PEND":"東海10街188巷","SW_DIRECT":"1","SW_LENG":1000.0,"SW_WTH":3.0,"SWW_WTH":2.0,"SW_RAMP":6,"VILL_NAME":"吉安鄉"},"geometry":{"type":"Polygon","coordinates":[[[121.604372,23.961389],[121.603551,23.959667],[121.602715,23.957853],[121.602083,23.95651],[121.601909,23.95662],[121.602948,23.958839],[121.60365,23.960367],[121.603681,23.960421],[121.604133,23.961402],[121.604372,23.961389]]]}},{"type":"Feature","properties":{"id":"e2acbd10894c","NAME":"永興路","PSTART":"中美路","PEND":"民德一街","SW_DIRECT":"1","SW_LENG":154.0,"SW_WTH":2.5,"SWW_WTH":2.5,"SW_RAMP":2,"VILL_NAME":"花蓮市"},"geometry":{"type":"Polygon","coordinates":[[[121.626118,23.991426],[121.626413,23.991785],[121.626895,23.991444],[121.626506,23.991145],[121.626118,23.991426]]]}},{"type":"Feature","properties":{"id":"df14a249ed39","NAME":"民德一街","PSTART":"文復路","PEND":"文苑路","SW_DIRECT":"1","SW_LENG":90.0,"SW_WTH":2.0,"SWW_WTH":2.0,"SW_RAMP":2,"VILL_NAME":"花蓮市"},"geometry":{"type":"Polygon","coordinates":[[[121.626604,23.990835],[121.626586,23.990852],[121.627135,23.991485],[121.627148,23.991471],[121.626604,23.990835]]]}},{"type":"Feature","properties":{"id":"433362455251","NAME":"文復路","PSTART":"民德一街","PEND":"海岸路","SW_DIRECT":"1","SW_LENG":390.0,"SW_WTH":3.0,"SWW_WTH":2.0,"SW_RAMP":4,"VILL_NAME":"花蓮市"},"geometry":{"type":"Polygon","coordinates":[[[121.626603,23.990826],[121.627929,23.98988],[121.627824,23.98974],[121.627834,23.989592],[121.629268,23.98864],[121.629227,23.988606],[121.627807,23.989556],[121.626603,23.990826]]]}},{"type":"Feature","properties":{"id":"ac1855e6c4c7","NAME":"文苑路","PSTART":"民德一街","PEND":"海岸路","SW_DIRECT":"2","SW_LENG":513.0,"SW_WTH":3.0,"SWW_WTH":2.0,"SW_RAMP":6,"VILL_NAME":"花蓮市"},"geometry":{"type":"Polygon","coordinates":[[[121.627198,23.991492],[121.627229,23.991523],[121.628559,23.990644],[121.628685,23.990787],[121.631101,23.989036],[121.631059,23.989031],[121.62869,23.990717],[121.628564,23.9906],[121.627226,23.99147],[121.627198,23.991492]]]}},{"type":"Feature","properties":{"id":"fa63499d23b4","NAME":"海岸路","PSTART":"文復路","PEND":"文苑路","SW_DIRECT":"1","SW_LENG":215.0,"SW_WTH":2.5,"SWW_WTH":2.5,"SW_RAMP":4,"VILL_NAME":"花蓮市"},"geometry":{"type":"Polygon","coordinates":[[[121.629272,23.988637],[121.631065,23.989021],[121.631083,23.989004],[121.62929,23.988603],[121.629272,23.988637]]]}},{"type":"Feature","properties":{"id":"b1c0c8a04164","NAME":"中山路","PSTART":"富祥路","PEND":"中央路三段","SW_DIRECT":"2","SW_LENG":140.0,"SW_WTH":3.0,"SWW_WTH":2.0,"SW_RAMP":4,"VILL_NAME":"花蓮市"},"geometry":{"type":"Polygon","coordinates":[[[121.594487,23.995832],[121.594524,23.995886],[121.595386,23.9948],[121.595339,23.994757],[121.594487,23.995832]]]}},{"type":"Feature","properties":{"id":"1ee7f0ec0262","NAME":"富祥路","PSTART":"中山路","PEND":"國富十街","SW_DIRECT":"1","SW_LENG":150.0,"SW_WTH":2.0,"SWW_WTH":2.0,"SW_RAMP":2,"VILL_NAME":"花蓮市"},"geometry":{"type":"Polygon","coordinates":[[[121.595383,23.994804],[121.595395,23.994788],[121.594488,23.993929],[121.594465,23.993943],[121.595383,23.994804]]]}},{"type":"Feature","properties":{"id":"730c77d1a40d","NAME":"中央路三段","PSTART":"中山路","PEND":"慈濟醫院","SW_DIRECT":"2","SW_LENG":150.0,"SW_WTH":3.0,"SWW_WTH":2.0,"SW_RAMP":3,"VILL_NAME":"花蓮市"},"geometry":{"type":"Polygon","coordinates":[[[121.594516,23.99588],[121.59349,23.99472],[121.593457,23.994738],[121.594496,23.995904],[121.594516,23.99588]]]}},{"type":"Feature","properties":{"id":"5eb21185c760","NAME":"花蓮縣富里鄉東竹國小通學步道","PSTART":"台九線","PEND":"富田路","SW_DIRECT":"1","SW_LENG":153.0,"SW_WTH":1.8,"SWW_WTH":1.8,"SW_RAMP":6,"VILL_NAME":"富里鄉"},"geometry":{"type":"Polygon","coordinates":[[[121.280093,23.215276],[121.280109,23.215295],[121.28023,23.215194],[121.280434,23.215041],[121.28086,23.214737],[121.281395,23.214466],[121.281462,23.214416],[121.281449,23.214406],[121.281389,23.214457],[121.28086,23.214725],[121.280752,23.214797],[121.280093,23.215276]]]}},{"type":"Feature","properties":{"id":"fdd7f99401ae","NAME":"中興路","PSTART":"中正路","PEND":"林森路","SW_DIRECT":"3","SW_LENG":685.0,"SW_WTH":5.0,"SWW_WTH":4.5,"SW_RAMP":null,"VILL_NAME":"光復鄉"},"geometry":{"type":"Polygon","coordinates":[[[121.423305,23.671725],[121.423338,23.672162],[121.423311,23.671725],[121.423311,23.671735],[121.423305,23.671725]]]}},{"type":"Feature","properties":{"id":"f107d5b07fd3","NAME":"德安六街","PSTART":"德安六街96巷","PEND":"中正路","SW_DIRECT":"2","SW_LENG":500.0,"SW_WTH":2.5,"SWW_WTH":1.5,"SW_RAMP":8,"VILL_NAME":"花蓮市"},"geometry":{"type":"Polygon","coordinates":[[[121.594539,23.968953],[121.594518,23.968931],[121.590194,23.972576],[121.590221,23.972593],[121.594539,23.968953]]]}},{"type":"Feature","properties":{"id":"2df578c5f141","NAME":"海岸路","PSTART":"花師","PEND":"華西(停車場)","SW_DIRECT":"2","SW_LENG":1000.0,"SW_WTH":2.5,"SWW_WTH":2.5,"SW_RAMP":8,"VILL_NAME":"花蓮市"},"geometry":{"type":"Polygon","coordinates":[[[121.629769,24.023803],[121.629785,24.023825],[121.632478,24.021767],[121.634155,24.0205],[121.635525,24.019474],[121.636915,24.018423],[121.638441,24.017254],[121.638438,24.017195],[121.638358,24.017301],[121.635552,24.019427],[121.63493,24.01989],[121.633283,24.02113],[121.630939,24.022879],[121.629769,24.023803]]]}},{"type":"Feature","properties":{"id":"7b2139f793a8","NAME":"府前路","PSTART":"華西路","PEND":"北興路","SW_DIRECT":"2","SW_LENG":333.0,"SW_WTH":2.5,"SWW_WTH":1.5,"SW_RAMP":null,"VILL_NAME":"花蓮市"},"geometry":{"type":"Polygon","coordinates":[[[121.616002,24.008285],[121.61808,24.006587],[121.618418,24.006342],[121.618349,24.006342],[121.616718,24.007655],[121.615972,24.008248],[121.616002,24.008285]]]}},{"type":"Feature","properties":{"id":"010fd6d5d986","NAME":"康樂一街","PSTART":"康樂路","PEND":"康樂一街119巷13弄","SW_DIRECT":"2","SW_LENG":300.0,"SW_WTH":2.5,"SWW_WTH":1.5,"SW_RAMP":8,"VILL_NAME":"新城鄉"},"geometry":{"type":"Polygon","coordinates":[[[121.60535,24.051945],[121.606503,24.052283],[121.608126,24.052817],[121.608185,24.052732],[121.606911,24.052291],[121.605374,24.05183],[121.60535,24.051945]]]}},{"type":"Feature","properties":{"id":"96428b028a3d","NAME":"海岸路","PSTART":"民權五街","PEND":"民權路","SW_DIRECT":"2","SW_LENG":395.0,"SW_WTH":2.5,"SWW_WTH":2.5,"SW_RAMP":2,"VILL_NAME":"花蓮市"},"geometry":{"type":"Polygon","coordinates":[[[121.623573,23.983357],[121.623582,23.983344],[121.623139,23.983028],[121.62216,23.982506],[121.620816,23.98183],[121.6208,23.981838],[121.62214,23.982509],[121.623123,23.983032],[121.623573,23.983357]]]}},{"type":"Feature","properties":{"id":"d911e6b5cae7","NAME":"吉安路一段249巷","PSTART":"吉安路","PEND":"慶豐13街","SW_DIRECT":"2","SW_LENG":548.0,"SW_WTH":3.0,"SWW_WTH":2.0,"SW_RAMP":4,"VILL_NAME":"吉安鄉"},"geometry":{"type":"Polygon","coordinates":[[[121.569619,23.983459],[121.569574,23.983389],[121.567222,23.984658],[121.564985,23.985887],[121.56502,23.985956],[121.567311,23.984716],[121.567381,23.984669],[121.569619,23.983459]]]}},{"type":"Feature","properties":{"id":"7f91da94fcb5","NAME":"慶豐四街307巷","PSTART":"吉安路","PEND":"慶豐13街","SW_DIRECT":"1","SW_LENG":548.0,"SW_WTH":3.0,"SWW_WTH":2.0,"SW_RAMP":4,"VILL_NAME":"吉安鄉"},"geometry":{"type":"Polygon","coordinates":[[[121.56947,23.983223],[121.56488,23.985726],[121.56711,23.984519],[121.56947,23.983223]]]}},{"type":"Feature","properties":{"id":"f253cfad2506","NAME":"大學路二段(北側)","PSTART":"東華大學校門","PEND":"花35線","SW_DIRECT":"1","SW_LENG":1480.0,"SW_WTH":3.0,"SWW_WTH":2.0,"SW_RAMP":10,"VILL_NAME":"壽豐鄉"},"geometry":{"type":"Polygon","coordinates":[[[121.535325,23.888121],[121.54353,23.891484],[121.546076,23.89254],[121.548516,23.893536],[121.551073,23.894593],[121.552829,23.895276],[121.552845,23.895247],[121.547356,23.893016],[121.535363,23.88806],[121.535325,23.888121]]]}},{"type":"Feature","properties":{"id":"c0a6868f0a4e","NAME":"南濱路一段","PSTART":"東海10街188巷","PEND":"知卡宣大道","SW_DIRECT":"1","SW_LENG":3626.0,"SW_WTH":4.0,"SWW_WTH":2.0,"SW_RAMP":33,"VILL_NAME":"吉安鄉"},"geometry":{"type":"Polygon","coordinates":[[[121.601909,23.956612],[121.602079,23.956504],[121.601638,23.955504],[121.600126,23.952234],[121.598925,23.949662],[121.597896,23.947392],[121.597474,23.946507],[121.596195,23.943745],[121.595111,23.941416],[121.594918,23.941458],[121.595487,23.942672],[121.596285,23.944415],[121.597078,23.946163],[121.600233,23.952988],[121.601783,23.956321],[121.601909,23.956612]]]}},{"type":"Feature","properties":{"id":"10cc1be3d1cf","NAME":"南濱路一段","PSTART":"知卡宣大道","PEND":"海岸路","SW_DIRECT":"1","SW_LENG":3370.0,"SW_WTH":4.0,"SWW_WTH":2.0,"SW_RAMP":null,"VILL_NAME":"吉安鄉"},"geometry":{"type":"Polygon","coordinates":[[[121.594906,23.941437],[121.595104,23.941383],[121.594734,23.940559],[121.594423,23.939785],[121.59437,23.939314],[121.594534,23.936319],[121.594658,23.933919],[121.594759,23.932743],[121.59477,23.931919],[121.594759,23.931743],[121.594631,23.931468],[121.594316,23.930759],[121.592873,23.928669],[121.591942,23.92725],[121.591792,23.927348],[121.592908,23.928986],[121.594305,23.93108],[121.594445,23.931433],[121.594509,23.931678],[121.594565,23.931983],[121.594576,23.932356],[121.594511,23.933641],[121.59449,23.933994],[121.594325,23.936549],[121.594149,23.939045],[121.594149,23.939339],[121.594203,23.939722],[121.594459,23.94051],[121.594802,23.941177],[121.594906,23.941437]]]}},{"type":"Feature","properties":{"id":"0ebe864dd427","NAME":"吉祥十二街","PSTART":"吉祥七街","PEND":"吉祥四街","SW_DIRECT":"1","SW_LENG":258.0,"SW_WTH":1.5,"SWW_WTH":1.5,"SW_RAMP":2,"VILL_NAME":"吉安鄉"},"geometry":{"type":"Polygon","coordinates":[[[121.582166,23.976382],[121.582563,23.976451],[121.584644,23.975824],[121.584623,23.975765],[121.582563,23.976372],[121.582241,23.976333],[121.582166,23.976382]]]}},{"type":"Feature","properties":{"id":"4d996e228182","NAME":"吉祥一街","PSTART":"吉祥四街","PEND":"中華路二段","SW_DIRECT":"1","SW_LENG":365.0,"SW_WTH":2.0,"SWW_WTH":2.0,"SW_RAMP":2,"VILL_NAME":"吉安鄉"},"geometry":{"type":"Polygon","coordinates":[[[121.584816,23.975814],[121.586221,23.975245],[121.587702,23.974343],[121.587959,23.974128],[121.587874,23.974128],[121.587359,23.9745],[121.586425,23.975069],[121.586017,23.975304],[121.584773,23.975765],[121.584816,23.975814]]]}},{"type":"Feature","properties":{"id":"e90f49f4e363","NAME":"荳蘭一街","PSTART":"中華路二段","PEND":"荳蘭一街底","SW_DIRECT":"1","SW_LENG":190.0,"SW_WTH":2.0,"SWW_WTH":2.0,"SW_RAMP":2,"VILL_NAME":"吉安鄉"},"geometry":{"type":"Polygon","coordinates":[[[121.588152,23.973981],[121.588705,23.97353],[121.589199,23.973079],[121.589622,23.972726],[121.58959,23.972716],[121.588759,23.973427],[121.588694,23.9735],[121.588131,23.973971],[121.588152,23.973981]]]}},{"type":"Feature","properties":{"id":"c375e90db208","NAME":"仁里一街","PSTART":"南埔十六街","PEND":"中正路一段","SW_DIRECT":"1","SW_LENG":620.0,"SW_WTH":1.5,"SWW_WTH":0.0,"SW_RAMP":4,"VILL_NAME":"吉安鄉"},"geometry":{"type":"Polygon","coordinates":[[[121.589783,23.972584],[121.591709,23.970902],[121.593404,23.969471],[121.594209,23.968745],[121.594144,23.968745],[121.589756,23.972559],[121.589783,23.972584]]]}},{"type":"Feature","properties":{"id":"c60d2a4c6a7e","NAME":"東海一街","PSTART":"中正路一段","PEND":"南濱路","SW_DIRECT":"1","SW_LENG":1290.0,"SW_WTH":2.0,"SWW_WTH":0.0,"SW_RAMP":4,"VILL_NAME":"吉安鄉"},"geometry":{"type":"Polygon","coordinates":[[[121.594337,23.968584],[121.597341,23.966113],[121.599466,23.96476],[121.60174,23.963897],[121.604015,23.963486],[121.60541,23.963329],[121.605281,23.96327],[121.603285,23.963545],[121.601848,23.96378],[121.599852,23.964505],[121.598672,23.965152],[121.597277,23.966035],[121.594273,23.968505],[121.594337,23.968584]]]}},{"type":"Feature","properties":{"id":"4cdcb7a6582e","NAME":"長安街","PSTART":"中正路","PEND":"中原路","SW_DIRECT":"1","SW_LENG":1200.0,"SW_WTH":2.2,"SWW_WTH":1.5,"SW_RAMP":5,"VILL_NAME":"花蓮市"},"geometry":{"type":"Polygon","coordinates":[[[121.603888,23.963965],[121.601946,23.964348],[121.601946,23.964357],[121.603888,23.963965]]]}},{"type":"Feature","properties":{"id":"56c7b20dbdbe","NAME":"中正路","PSTART":"中華路","PEND":"德安六街","SW_DIRECT":"1","SW_LENG":1200.0,"SW_WTH":2.0,"SWW_WTH":2.0,"SW_RAMP":12,"VILL_NAME":"花蓮市"},"geometry":{"type":"Polygon","coordinates":[[[121.604875,23.975578],[121.594812,23.968893],[121.594747,23.968951],[121.604875,23.975578]]]}},{"type":"Feature","properties":{"id":"07265394f8ae","NAME":"中華路","PSTART":"中正路","PEND":"德安六街","SW_DIRECT":"1","SW_LENG":1000.0,"SW_WTH":2.0,"SWW_WTH":1.5,"SW_RAMP":6,"VILL_NAME":"花蓮市"},"geometry":{"type":"Polygon","coordinates":[[[121.604575,23.975696],[121.588567,23.974049],[121.588439,23.974206],[121.604575,23.975696]]]}},{"type":"Feature","properties":{"id":"4d30f4bbd932","NAME":"崇德部落台9線","PSTART":"167K+79","PEND":"166K+49","SW_DIRECT":"1","SW_LENG":1300.0,"SW_WTH":2.5,"SWW_WTH":2.5,"SW_RAMP":21,"VILL_NAME":"秀林鄉"},"geometry":{"type":"Polygon","coordinates":[[[118.754783,0.001099],[118.754783,0.001099],[118.754783,0.001099],[118.754783,0.001099]]]}},{"type":"Feature","properties":{"id":"24da82876615","NAME":"忠孝街12巷","PSTART":"忠孝街12巷","PEND":"中山路29巷","SW_DIRECT":"2","SW_LENG":416.5,"SW_WTH":3.2,"SWW_WTH":1.7,"SW_RAMP":12,"VILL_NAME":"壽豐鄉"},"geometry":{"type":"Polygon","coordinates":[[[121.492943,23.847744],[121.492976,23.847735],[121.492836,23.847573],[121.492616,23.847455],[121.491275,23.84692],[121.491146,23.846587],[121.492664,23.845767],[121.492648,23.845738],[121.492584,23.845767],[121.491114,23.846572],[121.491259,23.846935],[121.491624,23.847097],[121.492632,23.847494],[121.492815,23.847587],[121.492943,23.847744]]]}},{"type":"Feature","properties":{"id":"237f69d25f33","NAME":"慈恩路","PSTART":"嘉里路(台九線)","PEND":"機場巷","SW_DIRECT":"2","SW_LENG":759.76,"SW_WTH":2.4,"SWW_WTH":1.2,"SW_RAMP":6,"VILL_NAME":"新城鄉"},"geometry":{"type":"Polygon","coordinates":[[[121.608729,24.024313],[121.610703,24.018865],[121.610703,24.018512],[121.610531,24.01813],[121.610241,24.017993],[121.610204,24.018072],[121.610472,24.018184],[121.610638,24.018542],[121.610617,24.018861],[121.608693,24.024302],[121.608729,24.024313]]]}},{"type":"Feature","properties":{"id":"f3d57dea1b08","NAME":"花蓮縣富里鄉學田國小通學步道","PSTART":"民權路","PEND":"光明路","SW_DIRECT":"2","SW_LENG":440.0,"SW_WTH":1.2,"SWW_WTH":1.2,"SW_RAMP":14,"VILL_NAME":"富里鄉"},"geometry":{"type":"Polygon","coordinates":[[[121.226707,23.152849],[121.227716,23.154541],[121.2269,23.154955],[121.226906,23.154975],[121.227727,23.154556],[121.228156,23.155315],[121.227474,23.15565],[121.227485,23.155665],[121.228177,23.15532],[121.226723,23.152834],[121.226707,23.152849]]]}},{"type":"Feature","properties":{"id":"33d28fd5ff0a","NAME":"花蓮縣富里鄉學田國小通學步道_標線型","PSTART":"民權路","PEND":"光明路","SW_DIRECT":"2","SW_LENG":321.8,"SW_WTH":1.0,"SWW_WTH":1.0,"SW_RAMP":null,"VILL_NAME":"富里鄉"},"geometry":{"type":"Polygon","coordinates":[[[121.228201,23.155389],[121.22969,23.157924],[121.229701,23.157919],[121.228212,23.155384],[121.228201,23.155389]]]}},{"type":"Feature","properties":{"id":"e251ab2e38cf","NAME":"花蓮縣富里鄉東里國小通學步道","PSTART":"台九線","PEND":"道化路","SW_DIRECT":"1","SW_LENG":221.0,"SW_WTH":1.5,"SWW_WTH":1.5,"SW_RAMP":4,"VILL_NAME":"富里鄉"},"geometry":{"type":"Polygon","coordinates":[[[121.303559,23.2679],[121.303556,23.267493],[121.303932,23.266993],[121.303366,23.266136],[121.303353,23.266143],[121.303916,23.266991],[121.303543,23.267486],[121.303543,23.267895],[121.303559,23.2679]]]}},{"type":"Feature","properties":{"id":"d1d9a2b73641","NAME":"花蓮縣富里鄉東里國小通學步道_標線型","PSTART":"福安路","PEND":"湧泉路","SW_DIRECT":"1","SW_LENG":360.9,"SW_WTH":1.0,"SWW_WTH":1.0,"SW_RAMP":null,"VILL_NAME":"富里鄉"},"geometry":{"type":"Polygon","coordinates":[[[121.30456,23.268282],[121.304568,23.268277],[121.303991,23.266983],[121.305045,23.265618],[121.305037,23.265613],[121.30398,23.266983],[121.30456,23.268282]]]}},{"type":"Feature","properties":{"id":"32b64e8415d4","NAME":"自強路人行道","PSTART":"中華路與自強路路口","PEND":"自強路底","SW_DIRECT":"2","SW_LENG":170.0,"SW_WTH":2.0,"SWW_WTH":2.0,"SW_RAMP":1,"VILL_NAME":"玉里鎮"},"geometry":{"type":"Polygon","coordinates":[[[121.341746,23.316476],[121.34151,23.31566],[121.34109,23.31509],[121.341746,23.316476]]]}},{"type":"Feature","properties":{"id":"60f9e25aeda6","NAME":"林政街","PSTART":"和平路","PEND":"榮正街","SW_DIRECT":"1","SW_LENG":546.0,"SW_WTH":4.0,"SWW_WTH":4.0,"SW_RAMP":20,"VILL_NAME":"花蓮市"},"geometry":{"type":"Polygon","coordinates":[[[121.594421,23.976509],[121.596406,23.97895],[121.596524,23.978886],[121.594518,23.976425],[121.594421,23.976509]]]}},{"type":"Feature","properties":{"id":"5c691cdf901c","NAME":"新興路","PSTART":"瑞美路","PEND":"尚志路","SW_DIRECT":"1","SW_LENG":1000.0,"SW_WTH":3.0,"SWW_WTH":2.0,"SW_RAMP":16,"VILL_NAME":"花蓮市"},"geometry":{"type":"Polygon","coordinates":[[[121.617018,23.993149],[121.616847,23.993139],[121.616342,23.997031],[121.616278,23.997256],[121.615033,23.999657],[121.614937,23.999814],[121.614787,23.999991],[121.613843,24.00099],[121.613692,24.001108],[121.613542,24.001147],[121.613499,24.001118],[121.613574,24.001324],[121.613864,24.001186],[121.613993,24.001088],[121.615001,23.999981],[121.615902,23.998344],[121.61645,23.997207],[121.616514,23.99709],[121.61675,23.995129],[121.617018,23.993149]]]}},{"type":"Feature","properties":{"id":"fb2e073b58b1","NAME":"中美九街","PSTART":"化道路","PEND":"東興三街","SW_DIRECT":"2","SW_LENG":780.0,"SW_WTH":3.6,"SWW_WTH":2.6,"SW_RAMP":6,"VILL_NAME":"花蓮市"},"geometry":{"type":"Polygon","coordinates":[[[121.626707,23.997307],[121.626589,23.997415],[121.627791,23.998728],[121.628091,23.998806],[121.628155,23.998806],[121.629539,23.999042],[121.629572,23.998885],[121.628155,23.99865],[121.627769,23.998493],[121.626707,23.997307]]]}},{"type":"Feature","properties":{"id":"25693d9f89e9","NAME":"豐田中山路","PSTART":"中山路","PEND":"中山路29巷","SW_DIRECT":"2","SW_LENG":900.0,"SW_WTH":1.5,"SWW_WTH":1.5,"SW_RAMP":22,"VILL_NAME":"壽豐鄉"},"geometry":{"type":"Polygon","coordinates":[[[121.497117,23.850524],[121.496303,23.84973],[121.495551,23.848729],[121.495039,23.847991],[121.494961,23.847802],[121.494738,23.847201],[121.494462,23.846749],[121.49344,23.845299],[121.493435,23.845314],[121.49446,23.846759],[121.494731,23.847217],[121.494951,23.847817],[121.495029,23.847994],[121.495555,23.84875],[121.496298,23.849741],[121.497108,23.850528],[121.497117,23.850524]]]}},{"type":"Feature","properties":{"id":"6bfe26f6a173","NAME":"中正路","PSTART":"台9縣與花6線路口","PEND":"台9線與中山路路口","SW_DIRECT":"1","SW_LENG":500.0,"SW_WTH":2.5,"SWW_WTH":2.0,"SW_RAMP":17,"VILL_NAME":"新城鄉"},"geometry":{"type":"Polygon","coordinates":[[[121.642859,24.119691],[121.646389,24.121904],[121.646947,24.122394],[121.64722,24.122139],[121.643004,24.119476],[121.642859,24.119691]]]}}]}