{"type":"FeatureCollection","county":"嘉義市","features":[{"type":"Feature","properties":{"id":"42505bb31061","name":"嘉義市立大業實驗國民中學","level":"國中","basis":"both","data_ym":"202508"},"geometry":{"type":"Polygon","coordinates":[[[120.454628,23.461842],[120.454536,23.461842],[120.454519,23.461437],[120.453872,23.46158],[120.453896,23.460919],[120.453578,23.460913],[120.45357,23.460966],[120.453564,23.461093],[120.453414,23.461095],[120.453413,23.461112],[120.4523,23.461103],[120.452299,23.461123],[120.452176,23.461123],[120.452163,23.461211],[120.452088,23.461198],[120.45198,23.461729],[120.45203,23.461743],[120.452036,23.461778],[120.452067,23.461795],[120.452098,23.461838],[120.45225,23.462025],[120.452592,23.462029],[120.452594,23.4621],[120.452748,23.462099],[120.452747,23.462128],[120.452818,23.462131],[120.452801,23.462323],[120.453134,23.462372],[120.453146,23.462346],[120.45328,23.462365],[120.453366,23.462391],[120.453434,23.462394],[120.453512,23.462419],[120.453649,23.462441],[120.453713,23.462467],[120.453721,23.462453],[120.453951,23.462526],[120.45396,23.462448],[120.454048,23.46245],[120.454041,23.462517],[120.454222,23.462544],[120.454223,23.462525],[120.454549,23.462606],[120.45456,23.462514],[120.454509,23.462497],[120.454526,23.462286],[120.454605,23.46229],[120.454628,23.461842]]]}},{"type":"Feature","properties":{"id":"daf7b7c76d95","name":"國立嘉義大學","level":"大專","basis":"both","data_ym":"202508"},"geometry":{"type":"Polygon","coordinates":[[[120.488008,23.475207],[120.488176,23.475033],[120.488225,23.475065],[120.488072,23.475232],[120.488301,23.475174],[120.488437,23.475144],[120.488419,23.475064],[120.488465,23.475068],[120.488616,23.475059],[120.488619,23.474998],[120.488759,23.475004],[120.488766,23.474921],[120.489025,23.47492],[120.489092,23.474479],[120.488976,23.474315],[120.488863,23.47429],[120.488443,23.474232],[120.488445,23.474192],[120.488466,23.4741],[120.488516,23.474056],[120.48857,23.474031],[120.488618,23.474018],[120.488677,23.474011],[120.488737,23.47401],[120.488822,23.474017],[120.488878,23.474031],[120.488933,23.47406],[120.489013,23.474121],[120.489091,23.474168],[120.489143,23.474175],[120.489189,23.474165],[120.489208,23.474153],[120.489244,23.474119],[120.489251,23.474101],[120.489251,23.474057],[120.489242,23.4738],[120.48925,23.473735],[120.489329,23.473457],[120.489366,23.473365],[120.489475,23.47313],[120.48954,23.473026],[120.48969,23.472812],[120.489704,23.472786],[120.489705,23.472759],[120.48969,23.472735],[120.489517,23.472534],[120.489392,23.472382],[120.489355,23.472331],[120.489327,23.47228],[120.489322,23.472261],[120.489297,23.471867],[120.48932,23.471648],[120.489263,23.471565],[120.489145,23.471642],[120.489035,23.471708],[120.489044,23.471741],[120.488988,23.471759],[120.488894,23.471777],[120.488802,23.471781],[120.48865,23.47176],[120.488573,23.471736],[120.488464,23.47168],[120.488411,23.47164],[120.487996,23.471242],[120.487929,23.471185],[120.487804,23.471096],[120.48791,23.47095],[120.487092,23.470602],[120.487128,23.470533],[120.487138,23.470323],[120.487134,23.470236],[120.487215,23.470119],[120.487156,23.470082],[120.487113,23.470064],[120.487057,23.47007],[120.486914,23.470283],[120.486855,23.470341],[120.486754,23.470366],[120.486704,23.470398],[120.486699,23.470373],[120.486673,23.470321],[120.486623,23.470253],[120.486568,23.47019],[120.486538,23.47015],[120.486498,23.470052],[120.486397,23.469847],[120.486346,23.469783],[120.486234,23.469666],[120.486232,23.469654],[120.48624,23.469631],[120.4863,23.469582],[120.486363,23.46951],[120.486446,23.469401],[120.486501,23.469312],[120.486581,23.469154],[120.486594,23.469107],[120.4866,23.469065],[120.486591,23.468757],[120.486594,23.468706],[120.486614,23.468608],[120.486635,23.46857],[120.486675,23.468524],[120.486918,23.468385],[120.487005,23.468321],[120.48704,23.468279],[120.48712,23.468147],[120.487163,23.468098],[120.487212,23.468052],[120.487255,23.468028],[120.487275,23.467799],[120.487282,23.467664],[120.487228,23.467004],[120.487219,23.466908],[120.487215,23.466915],[120.487187,23.466545],[120.487143,23.466086],[120.487112,23.465566],[120.487069,23.465126],[120.487025,23.464925],[120.486817,23.464171],[120.486787,23.464118],[120.486777,23.46411],[120.486749,23.4641],[120.486706,23.464099],[120.486487,23.464132],[120.486221,23.464153],[120.486175,23.464147],[120.486118,23.464125],[120.486055,23.464089],[120.485928,23.463991],[120.485645,23.463746],[120.485514,23.463646],[120.484849,23.46333],[120.484663,23.463246],[120.484434,23.46317],[120.484308,23.463134],[120.484201,23.46313],[120.48416,23.463134],[120.484082,23.46315],[120.483994,23.463179],[120.483836,23.463252],[120.483699,23.463283],[120.483322,23.463353],[120.483287,23.463324],[120.483247,23.463311],[120.483179,23.463302],[120.482731,23.463292],[120.482583,23.463283],[120.482467,23.46326],[120.48234,23.463218],[120.482263,23.463186],[120.482119,23.463111],[120.481906,23.462993],[120.481604,23.462838],[120.481458,23.462785],[120.481389,23.462765],[120.481245,23.462739],[120.481139,23.462731],[120.480945,23.462731],[120.480391,23.462766],[120.479967,23.462779],[120.479927,23.462786],[120.479574,23.462786],[120.479496,23.462803],[120.479048,23.462879],[120.478939,23.462913],[120.478796,23.462959],[120.478684,23.463005],[120.478621,23.463046],[120.478545,23.463106],[120.478461,23.463173],[120.478379,23.46325],[120.478267,23.463401],[120.478237,23.46346],[120.478215,23.463536],[120.478197,23.463637],[120.478174,23.463838],[120.478188,23.46393],[120.478194,23.463943],[120.478218,23.463971],[120.478273,23.464008],[120.478557,23.464143],[120.478623,23.464169],[120.478676,23.464176],[120.478724,23.464173],[120.478802,23.46416],[120.479187,23.464065],[120.479342,23.464035],[120.479528,23.464009],[120.479696,23.464],[120.479781,23.464006],[120.479878,23.464021],[120.47997,23.464047],[120.480097,23.464099],[120.480378,23.464245],[120.480508,23.464318],[120.480585,23.464375],[120.480662,23.464437],[120.480742,23.464517],[120.480801,23.464585],[120.480847,23.464647],[120.480875,23.464707],[120.480933,23.464789],[120.48099,23.464854],[120.481046,23.464996],[120.481068,23.465021],[120.480994,23.465091],[120.480961,23.465085],[120.480939,23.465087],[120.48051,23.46516],[120.480492,23.465168],[120.48046,23.465198],[120.480456,23.465225],[120.480458,23.465247],[120.480464,23.465266],[120.480479,23.465287],[120.481089,23.465796],[120.481723,23.466336],[120.481812,23.466422],[120.481846,23.466467],[120.481914,23.466618],[120.481935,23.466674],[120.48194,23.466707],[120.481938,23.466821],[120.481926,23.466912],[120.4819,23.466985],[120.481774,23.467242],[120.481718,23.467394],[120.481664,23.467635],[120.481635,23.467832],[120.481634,23.467905],[120.481639,23.467987],[120.481808,23.468762],[120.48184,23.468862],[120.481873,23.468932],[120.481919,23.468997],[120.481956,23.46904],[120.482024,23.469094],[120.482287,23.469281],[120.482414,23.469391],[120.482734,23.469686],[120.482819,23.469785],[120.482944,23.46996],[120.483012,23.470036],[120.483109,23.470128],[120.48316,23.470187],[120.483199,23.47024],[120.483238,23.470313],[120.483348,23.470619],[120.483372,23.470702],[120.483384,23.470769],[120.483406,23.471003],[120.483423,23.47111],[120.483453,23.471208],[120.483522,23.471391],[120.483708,23.47179],[120.483809,23.471991],[120.483837,23.472078],[120.483852,23.472142],[120.483853,23.47217],[120.483847,23.472223],[120.483815,23.472366],[120.483811,23.472457],[120.483821,23.472513],[120.483848,23.472568],[120.483909,23.472643],[120.483978,23.472697],[120.484065,23.472753],[120.484176,23.472856],[120.484217,23.472913],[120.484258,23.472981],[120.484297,23.473082],[120.484342,23.47318],[120.484383,23.47325],[120.484434,23.473312],[120.484491,23.473363],[120.48456,23.4734],[120.48464,23.47343],[120.484895,23.4735],[120.48498,23.473529],[120.485045,23.473562],[120.485084,23.473591],[120.485101,23.473615],[120.485119,23.473654],[120.485127,23.473737],[120.485135,23.473891],[120.485146,23.473962],[120.485167,23.474023],[120.485201,23.47408],[120.485235,23.474113],[120.485273,23.474127],[120.485357,23.474146],[120.485486,23.474163],[120.485595,23.474186],[120.485633,23.474203],[120.485669,23.474231],[120.485715,23.474278],[120.485744,23.474333],[120.485751,23.474414],[120.485749,23.47455],[120.485753,23.474591],[120.485761,23.474645],[120.485778,23.474697],[120.485811,23.474753],[120.485878,23.474825],[120.485959,23.47491],[120.486037,23.47497],[120.486109,23.475008],[120.486151,23.475021],[120.486203,23.475026],[120.486283,23.475019],[120.486371,23.474997],[120.486645,23.474895],[120.48671,23.474882],[120.486799,23.474885],[120.48684,23.474892],[120.486893,23.474909],[120.48697,23.474949],[120.487074,23.475006],[120.487391,23.475212],[120.487471,23.475254],[120.487548,23.475279],[120.487589,23.475284],[120.487742,23.475288],[120.487821,23.475286],[120.487881,23.475278],[120.487967,23.475259],[120.487983,23.475253],[120.487993,23.475246],[120.488008,23.475207]]]}},{"type":"Feature","properties":{"id":"9633915e6d15","name":"崇仁醫護管理專科學校嘉義校區1","level":"其他","basis":"none","data_ym":"202508"},"geometry":{"type":"Polygon","coordinates":[[[120.482501,23.479081],[120.48249,23.479042],[120.482296,23.479072],[120.481649,23.479206],[120.481504,23.479314],[120.481522,23.479488],[120.481603,23.479642],[120.482242,23.479525],[120.482494,23.479449],[120.482454,23.479088],[120.482501,23.479081]]]}},{"type":"Feature","properties":{"id":"ec7a3afeea63","name":"崇仁醫護管理專科學校嘉義校區","level":"大專","basis":"branch","data_ym":"202508"},"geometry":{"type":"Polygon","coordinates":[[[120.483454,23.478978],[120.483609,23.478943],[120.483615,23.478977],[120.483642,23.478975],[120.484006,23.478871],[120.484009,23.478545],[120.483988,23.47848],[120.483941,23.478416],[120.483837,23.4783],[120.483847,23.478188],[120.483806,23.47813],[120.483759,23.47816],[120.483567,23.477854],[120.483408,23.477678],[120.483364,23.477653],[120.483303,23.477643],[120.483227,23.477677],[120.483147,23.477782],[120.48306,23.477909],[120.482819,23.478113],[120.482634,23.478191],[120.482451,23.478236],[120.482363,23.478233],[120.482358,23.478251],[120.482329,23.478303],[120.482198,23.478491],[120.482181,23.478531],[120.482177,23.478562],[120.482181,23.478633],[120.482197,23.478674],[120.482228,23.47871],[120.482277,23.478739],[120.482365,23.478779],[120.482448,23.478826],[120.482514,23.478868],[120.482552,23.478907],[120.482601,23.479051],[120.482621,23.479168],[120.482618,23.479221],[120.482635,23.47939],[120.482829,23.479294],[120.483396,23.478998],[120.483454,23.478978]]]}},{"type":"Feature","properties":{"id":"7dfbebf64af2","name":"國立嘉義大學1","level":"大專","basis":"both","data_ym":"202508"},"geometry":{"type":"Polygon","coordinates":[[[120.486238,23.464064],[120.486699,23.464021],[120.486769,23.464022],[120.486927,23.463813],[120.486871,23.46372],[120.486523,23.463003],[120.48645,23.462984],[120.486351,23.462972],[120.486316,23.462971],[120.486274,23.462978],[120.486252,23.462992],[120.486231,23.463016],[120.486203,23.463075],[120.486196,23.463128],[120.486191,23.463305],[120.486188,23.463336],[120.486175,23.463378],[120.486077,23.4635],[120.486024,23.463543],[120.485998,23.463557],[120.48588,23.463584],[120.485789,23.463585],[120.485397,23.463511],[120.485593,23.463599],[120.485807,23.463789],[120.486092,23.464021],[120.486147,23.464049],[120.486191,23.464061],[120.486238,23.464064]]]}},{"type":"Feature","properties":{"id":"db0e062c98b5","name":"嘉義市西區港坪國民小學","level":"國小","basis":"both","data_ym":"202410"},"geometry":{"type":"Polygon","coordinates":[[[120.42473,23.478713],[120.423808,23.478741],[120.423332,23.478749],[120.422753,23.478766],[120.422771,23.478809],[120.422754,23.478815],[120.422822,23.478977],[120.42284,23.478971],[120.423358,23.480201],[120.423385,23.480188],[120.423403,23.480189],[120.423425,23.480201],[120.424671,23.479477],[120.42478,23.479406],[120.424719,23.479236],[120.424693,23.479131],[120.42469,23.479097],[120.424687,23.478952],[120.424693,23.478883],[120.424702,23.478824],[120.42473,23.478713]]]}},{"type":"Feature","properties":{"id":"ce298b0df1a0","name":"國立嘉義特殊教育學校","level":"特殊","basis":"both","data_ym":"202410"},"geometry":{"type":"Polygon","coordinates":[[[120.423358,23.480201],[120.42284,23.478971],[120.422822,23.478977],[120.422754,23.478815],[120.422771,23.478809],[120.422753,23.478766],[120.422126,23.478792],[120.421514,23.478805],[120.42035,23.47884],[120.42033,23.479062],[120.420322,23.479238],[120.420324,23.479395],[120.420345,23.479586],[120.420362,23.479705],[120.420389,23.479852],[120.420428,23.479989],[120.420489,23.480171],[120.420519,23.480246],[120.420624,23.480463],[120.420698,23.480589],[120.420926,23.480941],[120.420933,23.480995],[120.421219,23.481424],[120.421246,23.481424],[120.423358,23.480201]]]}},{"type":"Feature","properties":{"id":"2e6d427a3a42","name":"嘉義市西區北園國民小學","level":"國小","basis":"both","data_ym":"202410"},"geometry":{"type":"Polygon","coordinates":[[[120.425924,23.495953],[120.426598,23.495599],[120.426589,23.49512],[120.426592,23.495102],[120.426577,23.495108],[120.426489,23.494889],[120.426373,23.494724],[120.426288,23.494597],[120.426292,23.494594],[120.426139,23.494373],[120.426131,23.49437],[120.426121,23.494357],[120.426109,23.494363],[120.426042,23.494342],[120.425818,23.494471],[120.4254,23.494495],[120.425045,23.494509],[120.42501,23.494535],[120.425007,23.49506],[120.425073,23.495289],[120.425308,23.496033],[120.425323,23.496028],[120.425328,23.49604],[120.42537,23.496056],[120.425809,23.49592],[120.425924,23.495953]]]}},{"type":"Feature","properties":{"id":"81aedb5a8e5a","name":"嘉義市立北園國民中學","level":"國中","basis":"both","data_ym":"202410"},"geometry":{"type":"Polygon","coordinates":[[[120.426593,23.495095],[120.426589,23.49512],[120.426598,23.495599],[120.425924,23.495953],[120.426084,23.496231],[120.426456,23.496705],[120.426513,23.496761],[120.426876,23.496493],[120.427223,23.496232],[120.427254,23.496145],[120.427431,23.495866],[120.427769,23.495649],[120.42803,23.495398],[120.428058,23.495252],[120.428024,23.495067],[120.428028,23.495052],[120.428235,23.494914],[120.428076,23.494536],[120.428001,23.494341],[120.426777,23.494788],[120.426867,23.495011],[120.426666,23.49508],[120.426563,23.494864],[120.426515,23.494884],[120.426593,23.495095]]]}},{"type":"Feature","properties":{"id":"c327bffa0690","name":"國立嘉義大學附設實驗國民小學","level":"國小","basis":"name","data_ym":"202410"},"geometry":{"type":"Polygon","coordinates":[[[120.455355,23.484665],[120.455272,23.485201],[120.455241,23.485199],[120.455202,23.485576],[120.45517,23.485792],[120.455444,23.485829],[120.455395,23.486183],[120.45534,23.486526],[120.456213,23.486632],[120.456282,23.485984],[120.456259,23.485982],[120.456278,23.485828],[120.456336,23.485833],[120.456337,23.485799],[120.456396,23.485803],[120.456399,23.485766],[120.456294,23.485753],[120.456315,23.485605],[120.456414,23.485613],[120.456423,23.485516],[120.456386,23.485516],[120.45639,23.485432],[120.456424,23.485432],[120.456424,23.485414],[120.457099,23.485423],[120.457216,23.484607],[120.456486,23.484577],[120.456212,23.48455],[120.456104,23.484736],[120.455903,23.484717],[120.455901,23.484728],[120.455565,23.484694],[120.455566,23.484685],[120.455355,23.484665]]]}},{"type":"Feature","properties":{"id":"d1e1b871b3bb","name":"嘉義市私立輔仁高級中學","level":"高中職","basis":"both","data_ym":"202410"},"geometry":{"type":"Polygon","coordinates":[[[120.453578,23.460913],[120.453896,23.460919],[120.453872,23.46158],[120.454519,23.461437],[120.454536,23.461842],[120.454677,23.461843],[120.454677,23.461837],[120.454757,23.461841],[120.454758,23.461815],[120.454841,23.461815],[120.454842,23.461847],[120.455012,23.461853],[120.455012,23.461826],[120.455169,23.461818],[120.455186,23.461499],[120.455936,23.461518],[120.455944,23.461467],[120.456749,23.46147],[120.456975,23.461079],[120.45708,23.460872],[120.4572,23.460559],[120.457278,23.460341],[120.457515,23.459561],[120.457257,23.459388],[120.457237,23.459386],[120.457211,23.459396],[120.456334,23.459596],[120.45509,23.459826],[120.454768,23.459908],[120.454358,23.460004],[120.453907,23.460117],[120.453707,23.46015],[120.453724,23.460274],[120.4537,23.460425],[120.453609,23.460432],[120.453634,23.460474],[120.453593,23.460878],[120.453578,23.460913]]]}},{"type":"Feature","properties":{"id":"982ffda6b1bd","name":"嘉義市西區僑平國民小學","level":"國小","basis":"both","data_ym":"202410"},"geometry":{"type":"Polygon","coordinates":[[[120.432911,23.484386],[120.432933,23.48418],[120.432939,23.484181],[120.432941,23.48416],[120.431064,23.48397],[120.43104,23.483996],[120.430931,23.484932],[120.430963,23.484993],[120.432005,23.485108],[120.432837,23.485195],[120.432887,23.484705],[120.432877,23.484686],[120.432889,23.484677],[120.432918,23.484387],[120.432911,23.484386]]]}},{"type":"Feature","properties":{"id":"92465ba12c24","name":"嘉義市西區世賢國民小學","level":"國小","basis":"both","data_ym":"202410"},"geometry":{"type":"Polygon","coordinates":[[[120.428918,23.487986],[120.428906,23.487984],[120.428364,23.488103],[120.42779,23.488222],[120.427727,23.488249],[120.427712,23.488262],[120.427703,23.488288],[120.427675,23.488426],[120.427655,23.488486],[120.427602,23.488593],[120.427547,23.488682],[120.427503,23.488739],[120.427412,23.488836],[120.42741,23.488846],[120.427414,23.488856],[120.428094,23.489588],[120.4288,23.489629],[120.428944,23.488034],[120.428939,23.488007],[120.428918,23.487986]]]}},{"type":"Feature","properties":{"id":"e356401d9c4d","name":"國立華南高級商業職業學校","level":"高中職","basis":"name","data_ym":"202410"},"geometry":{"type":"Polygon","coordinates":[[[120.460184,23.47881],[120.460347,23.478808],[120.460357,23.478743],[120.460479,23.477888],[120.460333,23.477882],[120.460337,23.477818],[120.460123,23.477801],[120.459918,23.477779],[120.459909,23.477836],[120.459336,23.47779],[120.459334,23.477805],[120.459055,23.477787],[120.459053,23.477798],[120.458915,23.477789],[120.45891,23.477857],[120.458796,23.47785],[120.458795,23.477861],[120.458621,23.477858],[120.458618,23.477884],[120.458605,23.477898],[120.458542,23.477909],[120.458546,23.477935],[120.458472,23.477951],[120.458291,23.477951],[120.458275,23.477979],[120.458233,23.477986],[120.45809,23.47901],[120.458102,23.479051],[120.4593,23.479198],[120.459891,23.479266],[120.459946,23.479203],[120.460046,23.47912],[120.460159,23.479008],[120.460193,23.478944],[120.460187,23.4789],[120.460184,23.47881]]]}},{"type":"Feature","properties":{"id":"be42692af7ef","name":"國立嘉義大學林森校區","level":"大專","basis":"branch","data_ym":"202410"},"geometry":{"type":"Polygon","coordinates":[[[120.458872,23.487171],[120.458242,23.487091],[120.458232,23.487211],[120.45819,23.487369],[120.458126,23.487523],[120.45788,23.487954],[120.457644,23.488388],[120.457614,23.488424],[120.457405,23.488872],[120.458214,23.489214],[120.459147,23.489583],[120.45921,23.489421],[120.459908,23.487833],[120.460024,23.487591],[120.460034,23.487551],[120.460019,23.487509],[120.459945,23.487474],[120.45966,23.487375],[120.459398,23.487293],[120.459213,23.487244],[120.459036,23.487203],[120.458872,23.487171]]]}},{"type":"Feature","properties":{"id":"4e9c70e7c727","name":"嘉義市立玉山國民中學","level":"國中","basis":"both","data_ym":"202410"},"geometry":{"type":"Polygon","coordinates":[[[120.424808,23.469751],[120.424881,23.469478],[120.424891,23.469479],[120.424905,23.469417],[120.424982,23.46943],[120.42498,23.469444],[120.425097,23.469463],[120.425099,23.46945],[120.425233,23.46948],[120.426181,23.468746],[120.425215,23.467646],[120.425115,23.467638],[120.424512,23.468106],[120.423357,23.468987],[120.424808,23.469751]]]}},{"type":"Feature","properties":{"id":"fe83a11a0a9a","name":"嘉義市西區育人國民小學","level":"國小","basis":"both","data_ym":"202410"},"geometry":{"type":"Polygon","coordinates":[[[120.416838,23.472553],[120.416853,23.471936],[120.416382,23.472032],[120.41636,23.472115],[120.416035,23.472139],[120.416078,23.471776],[120.415755,23.47167],[120.414964,23.47158],[120.414934,23.472834],[120.415742,23.472795],[120.416796,23.472735],[120.416785,23.472591],[120.416838,23.472553]]]}},{"type":"Feature","properties":{"id":"e26fb5257d83","name":"嘉義市東區興安國民小學","level":"國小","basis":"both","data_ym":"202410"},"geometry":{"type":"Polygon","coordinates":[[[120.455212,23.459737],[120.455937,23.459596],[120.456256,23.459542],[120.456265,23.45954],[120.456263,23.459527],[120.456687,23.459452],[120.457101,23.459348],[120.457099,23.459309],[120.456877,23.459203],[120.455685,23.458593],[120.454469,23.458608],[120.454451,23.458623],[120.454459,23.459],[120.454467,23.459037],[120.454251,23.459113],[120.454236,23.459133],[120.4543,23.459402],[120.454397,23.45976],[120.454717,23.459697],[120.454734,23.4597],[120.454741,23.459742],[120.454766,23.459837],[120.455212,23.459737]]]}},{"type":"Feature","properties":{"id":"d5154a97d8ca","name":"宏仁學校財團法人嘉義市宏仁高級中學","level":"高中職","basis":"both","data_ym":"202410"},"geometry":{"type":"Polygon","coordinates":[[[120.445678,23.506339],[120.44576,23.506327],[120.44635,23.50642],[120.446496,23.505901],[120.446786,23.505876],[120.446793,23.50573],[120.446773,23.505706],[120.446762,23.505703],[120.446227,23.505657],[120.445815,23.505611],[120.445457,23.505537],[120.445219,23.505512],[120.445013,23.505471],[120.445002,23.505701],[120.445019,23.505774],[120.445002,23.506093],[120.444968,23.506357],[120.444933,23.507484],[120.445021,23.507564],[120.445154,23.507636],[120.445618,23.507655],[120.445678,23.506339]]]}},{"type":"Feature","properties":{"id":"aa67a4fc0bfa","name":"國立嘉義高級商業職業學校","level":"高中職","basis":"name","data_ym":"202411"},"geometry":{"type":"Polygon","coordinates":[[[120.463306,23.482542],[120.463473,23.481304],[120.463421,23.481227],[120.462609,23.481132],[120.462608,23.481256],[120.462613,23.481411],[120.462378,23.481434],[120.462192,23.481461],[120.461997,23.481471],[120.461754,23.481465],[120.461423,23.481433],[120.461424,23.481414],[120.461306,23.481393],[120.461185,23.482284],[120.461194,23.482297],[120.462028,23.482401],[120.462597,23.482468],[120.463306,23.482542]]]}},{"type":"Feature","properties":{"id":"e874ff104a13","name":"嘉義市西區大同國民小學","level":"國小","basis":"both","data_ym":"202411"},"geometry":{"type":"Polygon","coordinates":[[[120.446257,23.472336],[120.446335,23.471454],[120.446369,23.471457],[120.446386,23.47129],[120.446375,23.471288],[120.4464,23.471049],[120.446391,23.471048],[120.446459,23.470477],[120.446382,23.470471],[120.44638,23.470476],[120.446306,23.470472],[120.446306,23.470462],[120.446159,23.470455],[120.446143,23.470465],[120.446127,23.470464],[120.446108,23.470449],[120.445892,23.47043],[120.445875,23.470441],[120.445857,23.47044],[120.44584,23.470424],[120.445705,23.470412],[120.44569,23.470422],[120.445667,23.470421],[120.445655,23.470408],[120.445459,23.47039],[120.445444,23.470401],[120.445427,23.470399],[120.445409,23.470385],[120.44534,23.47038],[120.445322,23.470393],[120.445214,23.470384],[120.445195,23.470394],[120.445177,23.470393],[120.445172,23.470441],[120.445184,23.470454],[120.445182,23.470476],[120.445164,23.470487],[120.445147,23.470654],[120.445159,23.470667],[120.445157,23.470693],[120.445144,23.470703],[120.445119,23.470951],[120.445141,23.470954],[120.445136,23.471007],[120.445122,23.471007],[120.4451,23.471274],[120.445083,23.471272],[120.44498,23.472189],[120.445005,23.472222],[120.445292,23.472244],[120.445497,23.472266],[120.445501,23.472254],[120.445827,23.472283],[120.445825,23.472295],[120.446257,23.472336]]]}},{"type":"Feature","properties":{"id":"b1266be0264a","name":"嘉義市東區民族國民小學","level":"國小","basis":"both","data_ym":"201703"},"geometry":{"type":"Polygon","coordinates":[[[120.454247,23.475966],[120.45422,23.476165],[120.454073,23.476161],[120.454065,23.476242],[120.455282,23.476335],[120.455393,23.476318],[120.455545,23.476238],[120.455611,23.476181],[120.45568,23.47614],[120.455755,23.476116],[120.455864,23.476097],[120.455977,23.474607],[120.45585,23.474594],[120.455849,23.474604],[120.455019,23.474514],[120.454612,23.474462],[120.454577,23.474953],[120.454613,23.474956],[120.454605,23.475008],[120.454573,23.475005],[120.454554,23.475311],[120.454536,23.475509],[120.454435,23.475507],[120.454387,23.475979],[120.454247,23.475966]]]}},{"type":"Feature","properties":{"id":"87c27e8a908b","name":"嘉義市西區博愛國民小學","level":"國小","basis":"both","data_ym":"201408"},"geometry":{"type":"Polygon","coordinates":[[[120.444153,23.489751],[120.443231,23.489689],[120.443014,23.491557],[120.444026,23.491638],[120.444822,23.491708],[120.44482,23.491057],[120.445033,23.49054],[120.444169,23.490337],[120.444245,23.489793],[120.444149,23.489773],[120.444153,23.489751]]]}},{"type":"Feature","properties":{"id":"01a84a797772","name":"嘉義市立北興國民中學","level":"國中","basis":"both","data_ym":"201205"},"geometry":{"type":"Polygon","coordinates":[[[120.456215,23.491528],[120.456407,23.490566],[120.45409,23.490312],[120.454045,23.490715],[120.45391,23.490723],[120.453907,23.490754],[120.453753,23.490748],[120.453695,23.490739],[120.453694,23.490745],[120.453665,23.490744],[120.453276,23.490684],[120.45326,23.490807],[120.453259,23.490855],[120.453425,23.49095],[120.454143,23.491338],[120.454334,23.491433],[120.454513,23.49151],[120.455225,23.491903],[120.455331,23.491943],[120.455433,23.491968],[120.455521,23.491978],[120.45574,23.491979],[120.456029,23.491968],[120.456069,23.491962],[120.456129,23.491936],[120.456166,23.491914],[120.456215,23.491528]]]}},{"type":"Feature","properties":{"id":"35a91a077ba1","name":"嘉義市東區嘉北國民小學","level":"國小","basis":"both","data_ym":"201408"},"geometry":{"type":"Polygon","coordinates":[[[120.455992,23.4927],[120.454438,23.492664],[120.454407,23.492679],[120.454391,23.492699],[120.454372,23.493522],[120.454372,23.493617],[120.454386,23.493648],[120.45441,23.493663],[120.454457,23.493666],[120.455878,23.493708],[120.455913,23.493715],[120.456007,23.493755],[120.456179,23.493844],[120.456207,23.493824],[120.456238,23.493787],[120.456322,23.493621],[120.456364,23.493432],[120.456362,23.492752],[120.455992,23.4927]]]}},{"type":"Feature","properties":{"id":"0a565df0a7f4","name":"嘉義市東區蘭潭國民小學","level":"國小","basis":"both","data_ym":"202009"},"geometry":{"type":"Polygon","coordinates":[[[120.471447,23.473539],[120.469704,23.474844],[120.469749,23.474899],[120.469861,23.474971],[120.469928,23.474998],[120.470062,23.475025],[120.470485,23.47507],[120.47053,23.475095],[120.470705,23.47524],[120.470649,23.475288],[120.470862,23.475464],[120.470876,23.475495],[120.470919,23.475551],[120.471004,23.475491],[120.471128,23.475635],[120.471547,23.475298],[120.471827,23.475013],[120.471942,23.474914],[120.472054,23.474832],[120.472163,23.474762],[120.472251,23.474716],[120.472337,23.474683],[120.472083,23.474392],[120.472008,23.474401],[120.471416,23.473831],[120.471516,23.473744],[120.471447,23.473539]]]}},{"type":"Feature","properties":{"id":"1ef9dc073475","name":"國立嘉義高級中學","level":"高中職","basis":"both","data_ym":"202207"},"geometry":{"type":"Polygon","coordinates":[[[120.465788,23.478955],[120.465829,23.478708],[120.465873,23.478399],[120.465954,23.477768],[120.466,23.477362],[120.465974,23.47736],[120.465971,23.477391],[120.465902,23.477383],[120.465905,23.477351],[120.465896,23.47735],[120.465905,23.477255],[120.465871,23.477253],[120.465843,23.477178],[120.465863,23.4771],[120.465115,23.476939],[120.464684,23.476874],[120.464618,23.476868],[120.464382,23.476863],[120.464234,23.476872],[120.46402,23.476894],[120.462606,23.477062],[120.462639,23.477139],[120.462642,23.477181],[120.462622,23.47721],[120.462759,23.477433],[120.462851,23.477469],[120.462948,23.477647],[120.463031,23.47784],[120.463076,23.477914],[120.463154,23.478023],[120.463107,23.478053],[120.463131,23.478119],[120.463297,23.478119],[120.463574,23.478129],[120.463551,23.478626],[120.463285,23.47861],[120.463185,23.478612],[120.463125,23.478617],[120.462979,23.478654],[120.463012,23.478728],[120.463074,23.478709],[120.463085,23.478736],[120.463135,23.478775],[120.463152,23.478838],[120.46317,23.478948],[120.463246,23.478946],[120.463264,23.479001],[120.463469,23.479008],[120.463446,23.479253],[120.463397,23.479574],[120.463428,23.479643],[120.46344,23.479653],[120.463834,23.479716],[120.464374,23.479787],[120.465506,23.479922],[120.465559,23.47989],[120.465673,23.479499],[120.465715,23.479403],[120.465734,23.479314],[120.465753,23.4792],[120.465788,23.478955]]]}},{"type":"Feature","properties":{"id":"6899e46f5f0f","name":"嘉義市私立嘉華高級中學","level":"高中職","basis":"both","data_ym":"202207"},"geometry":{"type":"Polygon","coordinates":[[[120.476849,23.483605],[120.476962,23.483519],[120.477031,23.483481],[120.477092,23.483461],[120.477154,23.483448],[120.477223,23.483441],[120.477323,23.483443],[120.477651,23.483461],[120.47773,23.48345],[120.477806,23.483419],[120.47811,23.483251],[120.478206,23.483208],[120.478276,23.483185],[120.478358,23.483167],[120.478549,23.483136],[120.479046,23.483082],[120.479159,23.483057],[120.47944,23.482971],[120.479696,23.482872],[120.479768,23.482832],[120.479864,23.482763],[120.480178,23.482515],[120.480333,23.482418],[120.480514,23.48232],[120.480632,23.482263],[120.480556,23.481804],[120.480284,23.481954],[120.480146,23.482047],[120.48008,23.48208],[120.479719,23.482238],[120.479361,23.482344],[120.478519,23.482528],[120.478343,23.482602],[120.478271,23.482652],[120.478192,23.482698],[120.478007,23.482782],[120.477968,23.482784],[120.477559,23.482758],[120.477548,23.482755],[120.477367,23.482543],[120.477315,23.482504],[120.477242,23.482475],[120.476924,23.482384],[120.476883,23.482551],[120.476789,23.482537],[120.476735,23.482542],[120.476632,23.483111],[120.47661,23.483106],[120.476586,23.483244],[120.476638,23.483545],[120.47665,23.483544],[120.476654,23.483578],[120.476709,23.483573],[120.476711,23.483616],[120.476849,23.483605]]]}},{"type":"Feature","properties":{"id":"d31173836102","name":"嘉義市立蘭潭國民中學","level":"國中","basis":"both","data_ym":"201808"},"geometry":{"type":"Polygon","coordinates":[[[120.48306,23.483939],[120.483098,23.48387],[120.483113,23.483876],[120.483129,23.48382],[120.483134,23.483764],[120.483137,23.483619],[120.48313,23.483546],[120.483116,23.483487],[120.483092,23.483422],[120.483044,23.483308],[120.482979,23.483181],[120.482849,23.482998],[120.482707,23.482736],[120.482673,23.482687],[120.482475,23.482516],[120.482454,23.48249],[120.482389,23.482369],[120.482295,23.482105],[120.482172,23.481805],[120.482163,23.481785],[120.482154,23.481779],[120.482118,23.481766],[120.482093,23.481766],[120.482069,23.481774],[120.481879,23.481927],[120.481787,23.481989],[120.481691,23.482045],[120.481591,23.482095],[120.481278,23.482228],[120.480786,23.482448],[120.480927,23.482738],[120.481012,23.482893],[120.481199,23.483203],[120.481365,23.483436],[120.481376,23.483429],[120.481434,23.48353],[120.481567,23.48383],[120.481647,23.484046],[120.481838,23.484532],[120.482056,23.484437],[120.482491,23.484192],[120.482558,23.484169],[120.482858,23.484118],[120.482935,23.484085],[120.483001,23.484019],[120.48306,23.483939]]]}},{"type":"Feature","properties":{"id":"941bc0559130","name":"嘉義市立嘉義國民中學","level":"國中","basis":"both","data_ym":"201408"},"geometry":{"type":"Polygon","coordinates":[[[120.467057,23.487845],[120.466898,23.487814],[120.466917,23.487743],[120.466766,23.487722],[120.466804,23.487179],[120.466548,23.487145],[120.466025,23.487144],[120.465813,23.487117],[120.465824,23.487051],[120.465595,23.487024],[120.465532,23.487012],[120.465503,23.486994],[120.465486,23.487009],[120.465128,23.486962],[120.464951,23.486902],[120.464817,23.486883],[120.464788,23.486889],[120.464763,23.486904],[120.464725,23.48692],[120.464709,23.486923],[120.464159,23.486881],[120.464109,23.486884],[120.464097,23.486889],[120.464086,23.486907],[120.464069,23.487008],[120.464013,23.487433],[120.464202,23.487453],[120.464152,23.487841],[120.46414,23.488058],[120.464099,23.488333],[120.464385,23.488364],[120.464619,23.488401],[120.465021,23.488439],[120.46554,23.488506],[120.465824,23.488537],[120.466009,23.488517],[120.466223,23.488486],[120.466456,23.488432],[120.466542,23.488399],[120.466623,23.488355],[120.466793,23.488219],[120.466872,23.488137],[120.467019,23.48793],[120.46705,23.487872],[120.467057,23.487845]]]}},{"type":"Feature","properties":{"id":"af0a6502f653","name":"嘉義市私立興華高級中學","level":"高中職","basis":"both","data_ym":"201205"},"geometry":{"type":"Polygon","coordinates":[[[120.46536,23.489814],[120.465392,23.489676],[120.465333,23.489659],[120.465341,23.489638],[120.465017,23.489533],[120.463687,23.488956],[120.463641,23.488962],[120.463608,23.48898],[120.463273,23.489779],[120.463734,23.489764],[120.464076,23.489737],[120.464118,23.489744],[120.46446,23.48974],[120.465004,23.489756],[120.465003,23.489725],[120.465106,23.489736],[120.465119,23.489775],[120.46536,23.489814]]]}},{"type":"Feature","properties":{"id":"935ba6553cd8","name":"嘉義市東區林森國民小學","level":"國小","basis":"both","data_ym":"201408"},"geometry":{"type":"Polygon","coordinates":[[[120.467093,23.489811],[120.467132,23.489722],[120.467171,23.489651],[120.467017,23.489511],[120.467002,23.489505],[120.467097,23.489302],[120.467164,23.489316],[120.467362,23.489405],[120.467432,23.489249],[120.467406,23.489229],[120.466717,23.488998],[120.4665,23.48892],[120.466213,23.488775],[120.466037,23.488696],[120.465906,23.488644],[120.465843,23.488626],[120.465771,23.488616],[120.465426,23.488578],[120.46537,23.488954],[120.465435,23.488994],[120.465449,23.489079],[120.465664,23.489177],[120.465537,23.489517],[120.465879,23.489634],[120.466441,23.489841],[120.466472,23.489773],[120.466586,23.489795],[120.466843,23.489834],[120.467067,23.489914],[120.467093,23.489811]]]}},{"type":"Feature","properties":{"id":"e4715ce0ea30","name":"嘉義市東區精忠國民小學","level":"國小","basis":"both","data_ym":"201608"},"geometry":{"type":"Polygon","coordinates":[[[120.480018,23.490727],[120.479808,23.490712],[120.479724,23.490735],[120.47972,23.490768],[120.479713,23.490768],[120.479704,23.490838],[120.479735,23.492495],[120.479953,23.492556],[120.480029,23.492581],[120.480028,23.492587],[120.480056,23.492596],[120.480017,23.492755],[120.480104,23.492773],[120.480149,23.492608],[120.480221,23.491874],[120.480318,23.491255],[120.480313,23.491226],[120.480285,23.491198],[120.480255,23.491187],[120.480126,23.491186],[120.480116,23.490901],[120.480106,23.490768],[120.480099,23.490757],[120.480082,23.490744],[120.480018,23.490727]]]}},{"type":"Feature","properties":{"id":"44a5db5eb319","name":"嘉義市東區文雅國民小學","level":"國小","basis":"both","data_ym":"201702"},"geometry":{"type":"Polygon","coordinates":[[[120.487447,23.484801],[120.488194,23.484623],[120.487956,23.483751],[120.487538,23.483842],[120.487261,23.483865],[120.487028,23.483873],[120.486761,23.483866],[120.486639,23.483858],[120.486455,23.483836],[120.486418,23.484257],[120.486376,23.484801],[120.4864,23.48482],[120.486416,23.484839],[120.48667,23.484678],[120.486771,23.485116],[120.487447,23.484801]]]}},{"type":"Feature","properties":{"id":"e72d4403aa7e","name":"嘉義市西區志航國民小學","level":"國小","basis":"both","data_ym":"202009"},"geometry":{"type":"Polygon","coordinates":[[[120.445649,23.463175],[120.446305,23.463104],[120.446397,23.463107],[120.44649,23.463096],[120.446524,23.463076],[120.446629,23.463052],[120.446735,23.46302],[120.446884,23.463006],[120.44706,23.463016],[120.447049,23.462903],[120.44694,23.462294],[120.445035,23.462136],[120.444319,23.462081],[120.444548,23.462672],[120.444668,23.462885],[120.444807,23.462891],[120.444807,23.462902],[120.444848,23.462905],[120.445005,23.462906],[120.445003,23.462895],[120.445069,23.462895],[120.445076,23.462891],[120.44516,23.462898],[120.44516,23.462907],[120.445175,23.462907],[120.445177,23.462915],[120.445377,23.462924],[120.445459,23.462906],[120.445504,23.462909],[120.445547,23.46292],[120.445601,23.462963],[120.445628,23.463046],[120.445619,23.463051],[120.445649,23.463175]]]}},{"type":"Feature","properties":{"id":"5590900f5d5d","name":"嘉義市西區興嘉國民小學","level":"國小","basis":"both","data_ym":"201408"},"geometry":{"type":"Polygon","coordinates":[[[120.438601,23.463505],[120.438209,23.463506],[120.438288,23.462586],[120.437525,23.462517],[120.437488,23.462836],[120.437368,23.464103],[120.437252,23.465203],[120.43726,23.465231],[120.437277,23.465246],[120.437302,23.465256],[120.437567,23.465279],[120.437886,23.465298],[120.437896,23.465193],[120.438015,23.465201],[120.438003,23.465306],[120.438417,23.465334],[120.438601,23.463505]]]}},{"type":"Feature","properties":{"id":"3a2a8d8f6e1b","name":"嘉義市立民生國民中學","level":"國中","basis":"both","data_ym":"201408"},"geometry":{"type":"Polygon","coordinates":[[[120.440423,23.463502],[120.438601,23.463505],[120.438417,23.465334],[120.439045,23.465381],[120.43938,23.465391],[120.440207,23.465437],[120.440321,23.464443],[120.440423,23.463502]]]}},{"type":"Feature","properties":{"id":"516bae7b9608","name":"國立嘉義大學新民校區","level":"大專","basis":"branch","data_ym":"202009"},"geometry":{"type":"Polygon","coordinates":[[[120.440817,23.465596],[120.442493,23.465382],[120.443471,23.465405],[120.443546,23.465399],[120.445279,23.46511],[120.444721,23.463738],[120.444062,23.462096],[120.444053,23.462084],[120.444007,23.462058],[120.44339,23.462005],[120.443005,23.461968],[120.441522,23.461843],[120.441032,23.461803],[120.440988,23.461808],[120.440911,23.461869],[120.440898,23.461887],[120.4409,23.46191],[120.44085,23.46238],[120.440723,23.4634],[120.440695,23.46343],[120.440505,23.465127],[120.440459,23.465581],[120.440735,23.465599],[120.440817,23.465596]]]}},{"type":"Feature","properties":{"id":"892879a89a35","name":"嘉義市西區垂楊國民小學","level":"國小","basis":"both","data_ym":"201608"},"geometry":{"type":"Polygon","coordinates":[[[120.439557,23.470898],[120.438221,23.47077],[120.43819,23.470788],[120.43817,23.470814],[120.438161,23.470846],[120.438121,23.471272],[120.438046,23.472514],[120.438111,23.472557],[120.438737,23.472609],[120.439344,23.472669],[120.439402,23.472618],[120.439596,23.470919],[120.439557,23.470898]]]}},{"type":"Feature","properties":{"id":"9ffc29d7b237","name":"國立嘉義女子高級中學","level":"高中職","basis":"name","data_ym":"201205"},"geometry":{"type":"Polygon","coordinates":[[[120.450542,23.471899],[120.449396,23.471785],[120.449368,23.471796],[120.449194,23.473493],[120.449199,23.473564],[120.451811,23.473802],[120.451887,23.473067],[120.451997,23.472061],[120.451971,23.472031],[120.450542,23.471899]]]}},{"type":"Feature","properties":{"id":"a97da38abad6","name":"嘉義市東區崇文國民小學","level":"國小","basis":"both","data_ym":"201205"},"geometry":{"type":"Polygon","coordinates":[[[120.452525,23.472082],[120.452113,23.472047],[120.452079,23.472299],[120.452031,23.472742],[120.452006,23.472917],[120.451967,23.473333],[120.451913,23.473811],[120.4537,23.47397],[120.45388,23.472215],[120.452525,23.472082]]]}},{"type":"Feature","properties":{"id":"16a8817c5f67","name":"嘉義市私立立仁高級中學","level":"高中職","basis":"both","data_ym":"201408"},"geometry":{"type":"Polygon","coordinates":[[[120.460904,23.46279],[120.4611,23.462578],[120.461215,23.462494],[120.461246,23.462265],[120.461448,23.462131],[120.460156,23.461455],[120.459825,23.461658],[120.459663,23.461808],[120.459704,23.461839],[120.459262,23.462324],[120.459181,23.462456],[120.459101,23.462622],[120.459107,23.462675],[120.4592,23.462659],[120.459113,23.463117],[120.460096,23.463459],[120.460298,23.463251],[120.460506,23.463237],[120.460626,23.463197],[120.460711,23.463104],[120.460814,23.462922],[120.460904,23.46279]]]}},{"type":"Feature","properties":{"id":"28965e7d08f9","name":"嘉義市立南興國民中學","level":"國中","basis":"both","data_ym":"202009"},"geometry":{"type":"Polygon","coordinates":[[[120.462759,23.46824],[120.462626,23.467517],[120.462611,23.467503],[120.462609,23.467438],[120.462628,23.46741],[120.462596,23.467384],[120.462599,23.467308],[120.462603,23.467285],[120.462035,23.466913],[120.461897,23.467074],[120.461544,23.467464],[120.461517,23.467618],[120.461557,23.468172],[120.461419,23.468182],[120.461254,23.468186],[120.46126,23.468374],[120.461274,23.468422],[120.46156,23.468439],[120.461749,23.468454],[120.462792,23.468556],[120.462759,23.46824]]]}},{"type":"Feature","properties":{"id":"0d07ca77c4f3","name":"嘉義市私立東吳高級工業家事職業學校","level":"高中職","basis":"name","data_ym":"202009"},"geometry":{"type":"Polygon","coordinates":[[[120.461651,23.469962],[120.461674,23.46977],[120.461879,23.469782],[120.46188,23.469778],[120.461944,23.469783],[120.461944,23.469786],[120.462054,23.469793],[120.462142,23.468704],[120.460562,23.468554],[120.460241,23.468915],[120.460622,23.469205],[120.460805,23.469377],[120.460884,23.469445],[120.461273,23.469759],[120.461295,23.469759],[120.461277,23.469925],[120.461651,23.469962]]]}},{"type":"Feature","properties":{"id":"3e359b72f4ae","name":"嘉義市東區宣信國民小學","level":"國小","basis":"both","data_ym":"202207"},"geometry":{"type":"Polygon","coordinates":[[[120.46011,23.471442],[120.460624,23.470876],[120.460643,23.470707],[120.460525,23.470697],[120.460533,23.470602],[120.46046,23.470594],[120.460466,23.470541],[120.460428,23.470537],[120.460477,23.470095],[120.460501,23.470097],[120.460508,23.470044],[120.460484,23.470041],[120.460488,23.470004],[120.45958,23.469917],[120.459409,23.469909],[120.459379,23.469913],[120.459351,23.469923],[120.459323,23.46995],[120.458719,23.470605],[120.458237,23.471145],[120.458221,23.471174],[120.458212,23.471222],[120.45821,23.471276],[120.459454,23.471392],[120.459674,23.471417],[120.46011,23.471442]]]}},{"type":"Feature","properties":{"id":"d49cd68c9728","name":"國立嘉義高級家事職業學校","level":"高中職","basis":"name","data_ym":"201702"},"geometry":{"type":"Polygon","coordinates":[[[120.459159,23.473333],[120.459421,23.473354],[120.459462,23.472993],[120.459477,23.472994],[120.4595,23.472777],[120.459506,23.472706],[120.459502,23.472706],[120.45952,23.472506],[120.459567,23.472077],[120.459596,23.47208],[120.459607,23.471978],[120.459536,23.471969],[120.459567,23.471625],[120.458223,23.471503],[120.458194,23.471542],[120.457987,23.473435],[120.459143,23.473538],[120.459159,23.473333]]]}},{"type":"Feature","properties":{"id":"604f43cde4bc","name":"國立嘉義高級工業職業學校","level":"高中職","basis":"name","data_ym":"202207"},"geometry":{"type":"Polygon","coordinates":[[[120.466112,23.473314],[120.46627,23.473071],[120.466847,23.472142],[120.467362,23.471289],[120.467486,23.471107],[120.467621,23.470885],[120.467659,23.470809],[120.466935,23.470415],[120.465874,23.469849],[120.465569,23.469683],[120.463947,23.472289],[120.464648,23.472673],[120.46465,23.472669],[120.464696,23.472695],[120.464691,23.472701],[120.464852,23.47279],[120.464922,23.472871],[120.465012,23.472965],[120.465143,23.473094],[120.46514,23.473096],[120.46528,23.47325],[120.465355,23.47331],[120.465423,23.473346],[120.465379,23.473422],[120.465445,23.473459],[120.465678,23.473767],[120.465726,23.473812],[120.465745,23.473846],[120.465757,23.473831],[120.465781,23.473812],[120.465902,23.473615],[120.466053,23.473382],[120.466112,23.473314]]]}},{"type":"Feature","properties":{"id":"be2b98ec591f","name":"嘉義市立南興國民中學第二校區探索體驗學校","level":"其他","basis":"none","data_ym":"201611"},"geometry":{"type":"Polygon","coordinates":[[[120.471447,23.473539],[120.471528,23.473465],[120.471681,23.473432],[120.472039,23.473453],[120.471981,23.472754],[120.469985,23.472047],[120.469196,23.471647],[120.468657,23.471383],[120.468491,23.471731],[120.468263,23.472173],[120.468147,23.472389],[120.467881,23.472818],[120.467889,23.472851],[120.467913,23.472886],[120.468099,23.472994],[120.468186,23.473056],[120.468252,23.473108],[120.468384,23.47323],[120.468447,23.473297],[120.468559,23.473445],[120.468616,23.473535],[120.468664,23.473623],[120.468697,23.473697],[120.468739,23.473807],[120.468856,23.474193],[120.469011,23.474124],[120.46912,23.474086],[120.469136,23.474084],[120.469171,23.474089],[120.469233,23.47416],[120.469384,23.474379],[120.469516,23.474588],[120.469618,23.474738],[120.469704,23.474844],[120.471447,23.473539]]]}},{"type":"Feature","properties":{"id":"45cd10d99c81","name":"嘉義市私立仁義高級中學1","level":"高中職","basis":"name","data_ym":"201608"},"geometry":{"type":"Polygon","coordinates":[[[120.485705,23.45928],[120.485622,23.459195],[120.48583,23.458799],[120.485506,23.458549],[120.4852,23.458295],[120.485542,23.458185],[120.48531,23.45774],[120.484786,23.458086],[120.484778,23.458108],[120.48478,23.458121],[120.484868,23.45833],[120.485007,23.458641],[120.485106,23.458827],[120.485215,23.458962],[120.485282,23.459079],[120.485325,23.459178],[120.485357,23.459207],[120.485403,23.459229],[120.485602,23.459267],[120.485705,23.45928]]]}}]}