{"type":"FeatureCollection","county":"基隆市","features":[{"type":"Feature","properties":{"id":"494f492f7fb5","name":"國立基隆女子高級中學","level":"高中職","basis":"name","data_ym":"202508"},"geometry":{"type":"Polygon","coordinates":[[[121.760212,25.129659],[121.760111,25.129279],[121.760156,25.129284],[121.760179,25.129082],[121.760163,25.12908],[121.760175,25.12901],[121.760259,25.128975],[121.760226,25.128907],[121.760252,25.128898],[121.760199,25.128786],[121.76017,25.1288],[121.760118,25.128734],[121.760064,25.12871],[121.76002,25.128701],[121.76002,25.128652],[121.759501,25.128618],[121.758943,25.128562],[121.758763,25.128558],[121.758712,25.128558],[121.758709,25.12863],[121.758658,25.12911],[121.75864,25.129175],[121.758653,25.129182],[121.758619,25.12926],[121.758479,25.129222],[121.758391,25.129246],[121.75837,25.129261],[121.758393,25.129547],[121.758427,25.129551],[121.758624,25.12961],[121.758658,25.129626],[121.758682,25.129646],[121.7587,25.129673],[121.758716,25.129723],[121.758755,25.129819],[121.758899,25.130044],[121.758946,25.13013],[121.758971,25.130197],[121.758981,25.130249],[121.758981,25.130308],[121.758971,25.130367],[121.758971,25.130413],[121.759009,25.130531],[121.75904,25.130587],[121.759089,25.130641],[121.759134,25.130673],[121.759336,25.130769],[121.759555,25.130943],[121.759612,25.130971],[121.759622,25.130972],[121.759608,25.130964],[121.759536,25.130863],[121.759508,25.130773],[121.759507,25.13075],[121.759525,25.130689],[121.75955,25.130638],[121.759586,25.130581],[121.759635,25.130516],[121.759678,25.130475],[121.759709,25.130465],[121.759836,25.130453],[121.760432,25.130326],[121.760298,25.129866],[121.760212,25.129659]]]}},{"type":"Feature","properties":{"id":"5738e28432d6","name":"國立基隆特殊教育學校","level":"特殊","basis":"both","data_ym":"202508"},"geometry":{"type":"Polygon","coordinates":[[[121.687348,25.083928],[121.687378,25.08383],[121.687391,25.083832],[121.687548,25.083027],[121.687416,25.083007],[121.687503,25.082598],[121.68687,25.082538],[121.686629,25.082508],[121.686568,25.08285],[121.686392,25.083658],[121.686291,25.084015],[121.687213,25.084617],[121.687311,25.084165],[121.687325,25.084036],[121.687348,25.083928]]]}},{"type":"Feature","properties":{"id":"263e50ade5dd","name":"國立基隆高級中學","level":"高中職","basis":"both","data_ym":"202508"},"geometry":{"type":"Polygon","coordinates":[[[121.732438,25.10815],[121.732832,25.107804],[121.732848,25.107819],[121.733055,25.107642],[121.733144,25.107558],[121.733278,25.107443],[121.733433,25.10732],[121.733658,25.107111],[121.733822,25.106927],[121.733869,25.106838],[121.733728,25.106724],[121.733929,25.106488],[121.733835,25.106391],[121.733585,25.10616],[121.733332,25.106406],[121.732882,25.106074],[121.732647,25.105886],[121.732142,25.106326],[121.732085,25.106275],[121.732033,25.106303],[121.73184,25.106481],[121.731807,25.106563],[121.731388,25.106924],[121.731458,25.107335],[121.731786,25.107302],[121.731796,25.107425],[121.731957,25.107593],[121.731968,25.107652],[121.731961,25.107686],[121.731915,25.107747],[121.731982,25.107814],[121.731662,25.108099],[121.731746,25.10816],[121.732043,25.108453],[121.73213,25.108393],[121.732438,25.10815]]]}},{"type":"Feature","properties":{"id":"2402a27623e2","name":"國立基隆高級海事職業學校","level":"高中職","basis":"name","data_ym":"202508"},"geometry":{"type":"Polygon","coordinates":[[[121.771837,25.149419],[121.771881,25.149389],[121.771942,25.149236],[121.771915,25.149176],[121.77188,25.149057],[121.771869,25.148878],[121.771837,25.148743],[121.771769,25.148547],[121.771777,25.148442],[121.771796,25.148344],[121.771827,25.148279],[121.771994,25.148275],[121.772051,25.148296],[121.772122,25.148331],[121.771993,25.148524],[121.772316,25.148713],[121.772386,25.148696],[121.772409,25.148685],[121.772445,25.148658],[121.772677,25.148392],[121.77307,25.148007],[121.773093,25.147841],[121.77311,25.147758],[121.773139,25.147695],[121.773356,25.147463],[121.773612,25.147475],[121.773617,25.147293],[121.773436,25.147229],[121.773124,25.147214],[121.772997,25.147264],[121.772822,25.147149],[121.772786,25.146835],[121.772651,25.146648],[121.772627,25.146599],[121.77265,25.146382],[121.772587,25.146241],[121.772519,25.146181],[121.77217,25.145962],[121.772125,25.145957],[121.77171,25.146492],[121.771492,25.146746],[121.771296,25.14696],[121.770844,25.147404],[121.770922,25.147544],[121.771075,25.147608],[121.771276,25.147829],[121.771326,25.147945],[121.771467,25.148184],[121.77158,25.148546],[121.771458,25.148576],[121.771712,25.149237],[121.771755,25.14931],[121.771807,25.149429],[121.771837,25.149419]]]}},{"type":"Feature","properties":{"id":"eae6a08835c2","name":"國立基隆高級商工職業學校","level":"高中職","basis":"name","data_ym":"202310"},"geometry":{"type":"Polygon","coordinates":[[[121.716952,25.093244],[121.71688,25.093351],[121.716701,25.093597],[121.716567,25.093775],[121.71619,25.094292],[121.716386,25.09443],[121.716971,25.094797],[121.717434,25.095068],[121.717472,25.095063],[121.717539,25.094986],[121.717575,25.095004],[121.717608,25.094955],[121.717653,25.094904],[121.717696,25.094862],[121.717744,25.094826],[121.717849,25.094769],[121.717932,25.094745],[121.718035,25.094733],[121.718123,25.094733],[121.718335,25.094744],[121.718544,25.094741],[121.718544,25.094755],[121.71861,25.094752],[121.718694,25.094741],[121.718711,25.094734],[121.718602,25.094634],[121.718745,25.094506],[121.718779,25.094295],[121.718811,25.094197],[121.718819,25.094052],[121.718728,25.093853],[121.718371,25.093321],[121.718315,25.093287],[121.718224,25.093267],[121.718069,25.09332],[121.718006,25.093427],[121.717881,25.093597],[121.717756,25.093727],[121.717458,25.093663],[121.717328,25.093603],[121.717171,25.093516],[121.71711,25.093471],[121.717108,25.093438],[121.717052,25.09336],[121.716952,25.093244]]]}},{"type":"Feature","properties":{"id":"fba08ed31144","name":"國立臺灣海洋大學","level":"大專","basis":"both","data_ym":"202310"},"geometry":{"type":"Polygon","coordinates":[[[121.77188,25.149057],[121.771915,25.149176],[121.771942,25.149236],[121.771881,25.149389],[121.771837,25.149419],[121.771834,25.149443],[121.77186,25.149506],[121.77219,25.149868],[121.772234,25.149926],[121.772276,25.15],[121.772289,25.150034],[121.772299,25.150076],[121.772304,25.150129],[121.772294,25.150355],[121.7723,25.15041],[121.772307,25.150416],[121.772292,25.150648],[121.772293,25.150733],[121.772297,25.150748],[121.772349,25.150812],[121.772393,25.150855],[121.772435,25.150886],[121.772478,25.150907],[121.772506,25.150915],[121.772845,25.150967],[121.772851,25.150951],[121.773154,25.150989],[121.773229,25.150995],[121.773241,25.150979],[121.77347,25.150952],[121.773472,25.150973],[121.773892,25.150937],[121.774633,25.150853],[121.775467,25.150765],[121.775469,25.150785],[121.775538,25.15078],[121.77565,25.150784],[121.775901,25.150853],[121.776091,25.150923],[121.776181,25.15097],[121.7762,25.150962],[121.776209,25.150953],[121.776224,25.15092],[121.776225,25.150889],[121.776211,25.150854],[121.776087,25.150704],[121.776032,25.150614],[121.776166,25.150523],[121.77625,25.150644],[121.77626,25.150652],[121.776432,25.150594],[121.776946,25.150394],[121.77722,25.150294],[121.778057,25.149961],[121.778546,25.149812],[121.778753,25.149773],[121.779022,25.149739],[121.779253,25.149736],[121.779344,25.14973],[121.779349,25.149722],[121.779363,25.149658],[121.779376,25.149425],[121.779381,25.148991],[121.779344,25.148899],[121.779337,25.148874],[121.779338,25.148851],[121.779413,25.148741],[121.779442,25.14868],[121.779392,25.148627],[121.779255,25.14851],[121.779187,25.148445],[121.779056,25.148286],[121.778954,25.148277],[121.778894,25.148331],[121.778822,25.148405],[121.778365,25.148752],[121.778102,25.148981],[121.77794,25.148986],[121.777531,25.149023],[121.777144,25.149089],[121.776738,25.149172],[121.77634,25.149271],[121.776149,25.149358],[121.775936,25.149468],[121.775869,25.149376],[121.775719,25.149218],[121.775513,25.149312],[121.775361,25.149111],[121.775696,25.148831],[121.775791,25.148669],[121.775656,25.148571],[121.775733,25.148333],[121.775768,25.148251],[121.775658,25.148068],[121.775565,25.148108],[121.775531,25.14808],[121.77552,25.148076],[121.775531,25.148051],[121.775492,25.148036],[121.775387,25.148287],[121.775318,25.148429],[121.775275,25.148507],[121.775169,25.148668],[121.774998,25.148797],[121.774756,25.148952],[121.774677,25.148992],[121.774601,25.148997],[121.774285,25.148963],[121.774201,25.148905],[121.774111,25.148754],[121.773944,25.14838],[121.773786,25.148408],[121.773751,25.148761],[121.773866,25.148883],[121.772793,25.149589],[121.772613,25.149581],[121.772426,25.149614],[121.77188,25.149057]]]}},{"type":"Feature","properties":{"id":"e4f53f0e7be3","name":"國立臺灣海洋大學1","level":"大專","basis":"both","data_ym":"202508"},"geometry":{"type":"Polygon","coordinates":[[[121.775738,25.152584],[121.776445,25.152069],[121.776505,25.152155],[121.776515,25.152191],[121.776585,25.152135],[121.776373,25.151877],[121.775933,25.151372],[121.775913,25.151341],[121.775856,25.151116],[121.775825,25.151029],[121.775834,25.151007],[121.775685,25.15096],[121.775592,25.150945],[121.775589,25.150975],[121.775496,25.150976],[121.775448,25.150987],[121.77541,25.151007],[121.775381,25.151041],[121.775169,25.151483],[121.775196,25.151516],[121.775033,25.151809],[121.775172,25.151963],[121.775145,25.152149],[121.775223,25.152165],[121.775241,25.152035],[121.775387,25.152204],[121.775623,25.152035],[121.775746,25.152174],[121.775532,25.152329],[121.77555,25.152348],[121.775537,25.152358],[121.775738,25.152584]]]}},{"type":"Feature","properties":{"id":"2e4835a2af60","name":"國立臺灣海洋大學2","level":"大專","basis":"both","data_ym":"201805"},"geometry":{"type":"Polygon","coordinates":[[[121.776948,25.151225],[121.777165,25.151188],[121.779327,25.150584],[121.780008,25.150388],[121.78022,25.150307],[121.781239,25.149838],[121.781233,25.149819],[121.78122,25.149803],[121.78043,25.149924],[121.780089,25.149928],[121.779839,25.149925],[121.779787,25.149919],[121.779671,25.149897],[121.779417,25.149827],[121.77928,25.14981],[121.779166,25.149809],[121.778912,25.149828],[121.77859,25.149885],[121.77828,25.149974],[121.777983,25.150079],[121.776832,25.150524],[121.776322,25.150716],[121.776314,25.150726],[121.776312,25.150741],[121.776324,25.150774],[121.776481,25.150978],[121.77657,25.151102],[121.77663,25.151168],[121.776679,25.151212],[121.776699,25.151221],[121.776713,25.151209],[121.776796,25.151224],[121.776875,25.151229],[121.776948,25.151225]]]}},{"type":"Feature","properties":{"id":"e66b65dad460","name":"國立臺灣海洋大學3","level":"大專","basis":"both","data_ym":"202508"},"geometry":{"type":"Polygon","coordinates":[[[121.783348,25.14968],[121.783349,25.149576],[121.782951,25.149583],[121.78223,25.149584],[121.78208,25.149593],[121.782016,25.149605],[121.781944,25.149643],[121.781793,25.149743],[121.781495,25.149923],[121.78094,25.150179],[121.780724,25.150284],[121.780361,25.150448],[121.780035,25.150571],[121.779564,25.150704],[121.779482,25.150724],[121.779341,25.150765],[121.779208,25.150795],[121.778663,25.150953],[121.778678,25.151002],[121.778857,25.151039],[121.778891,25.151075],[121.779024,25.151104],[121.779831,25.151977],[121.780107,25.152054],[121.780125,25.152055],[121.780426,25.151952],[121.782667,25.151164],[121.782744,25.151141],[121.783422,25.150369],[121.783451,25.149687],[121.783348,25.14968]]]}},{"type":"Feature","properties":{"id":"2152babf90ba","name":"基隆市七堵區七堵國民小學","level":"國小","basis":"both","data_ym":"202508"},"geometry":{"type":"Polygon","coordinates":[[[121.714078,25.097892],[121.713229,25.097583],[121.713193,25.097666],[121.713185,25.097663],[121.713019,25.098043],[121.712884,25.098334],[121.712747,25.098652],[121.71366,25.098969],[121.713691,25.098953],[121.713889,25.098515],[121.713868,25.098508],[121.713951,25.098334],[121.714116,25.097966],[121.714055,25.097941],[121.714078,25.097892]]]}},{"type":"Feature","properties":{"id":"0961a7392f80","name":"基隆市七堵區五堵國民小學","level":"國小","basis":"both","data_ym":"202508"},"geometry":{"type":"Polygon","coordinates":[[[121.694451,25.080617],[121.694835,25.080609],[121.695067,25.080613],[121.695077,25.080322],[121.695067,25.080321],[121.695069,25.080182],[121.695057,25.080181],[121.695067,25.079981],[121.695067,25.079634],[121.694881,25.079578],[121.694722,25.079554],[121.694564,25.079552],[121.694332,25.079556],[121.694332,25.079592],[121.694204,25.079595],[121.694185,25.079582],[121.694184,25.079575],[121.69325,25.079604],[121.693218,25.079608],[121.693207,25.079619],[121.693203,25.079645],[121.693296,25.079915],[121.693729,25.0806],[121.694356,25.080542],[121.694446,25.080541],[121.694451,25.080617]]]}},{"type":"Feature","properties":{"id":"0224078a980c","name":"基隆市七堵區尚仁國民小學","level":"國小","basis":"both","data_ym":"202508"},"geometry":{"type":"Polygon","coordinates":[[[121.72795,25.11093],[121.727686,25.110895],[121.727459,25.110958],[121.727462,25.110979],[121.727446,25.111072],[121.727449,25.111193],[121.727466,25.111305],[121.727633,25.111745],[121.727685,25.111927],[121.727698,25.111953],[121.72772,25.111975],[121.727774,25.11201],[121.72792,25.112075],[121.72798,25.11192],[121.728181,25.111735],[121.728113,25.111666],[121.728513,25.111302],[121.728498,25.111286],[121.728571,25.111212],[121.728587,25.111205],[121.728535,25.111141],[121.728471,25.111087],[121.728413,25.111052],[121.728354,25.111025],[121.72795,25.11093]]]}},{"type":"Feature","properties":{"id":"b7fb0cb79986","name":"基隆市七堵區長興國民小學","level":"國小","basis":"both","data_ym":"202310"},"geometry":{"type":"Polygon","coordinates":[[[121.714147,25.092732],[121.7141,25.091422],[121.713703,25.091431],[121.712535,25.091189],[121.71212,25.091094],[121.712088,25.091222],[121.712081,25.091235],[121.711966,25.091302],[121.712087,25.091468],[121.712131,25.091513],[121.712808,25.091907],[121.713653,25.09247],[121.713943,25.092674],[121.71411,25.092759],[121.714122,25.09276],[121.71413,25.092756],[121.714147,25.092732]]]}},{"type":"Feature","properties":{"id":"fcbef8904051","name":"基隆市七堵區堵南國民小學","level":"國小","basis":"both","data_ym":"202508"},"geometry":{"type":"Polygon","coordinates":[[[121.692676,25.084514],[121.692686,25.084481],[121.69271,25.084486],[121.692962,25.083278],[121.693015,25.083001],[121.69302,25.082831],[121.693011,25.082734],[121.692991,25.082664],[121.69292,25.082501],[121.692846,25.082374],[121.692765,25.082285],[121.692654,25.082191],[121.692428,25.082032],[121.69172,25.081578],[121.691557,25.081762],[121.691436,25.081856],[121.691293,25.08194],[121.691246,25.081989],[121.691507,25.082155],[121.691634,25.082328],[121.69167,25.08237],[121.691692,25.082405],[121.691786,25.082393],[121.691874,25.082437],[121.691898,25.08246],[121.691904,25.0825],[121.691901,25.08252],[121.691892,25.082545],[121.69187,25.082579],[121.692058,25.083259],[121.692043,25.083262],[121.692143,25.083561],[121.692186,25.083746],[121.692304,25.084033],[121.692402,25.084259],[121.692406,25.08429],[121.692457,25.084408],[121.692471,25.084425],[121.69259,25.084445],[121.692576,25.084491],[121.692564,25.084498],[121.692676,25.084514]]]}},{"type":"Feature","properties":{"id":"0f3282c5a185","name":"基隆市七堵區復興國民小學","level":"國小","basis":"both","data_ym":"202310"},"geometry":{"type":"Polygon","coordinates":[[[121.665622,25.107284],[121.665419,25.107027],[121.665393,25.107039],[121.665373,25.107005],[121.665351,25.107015],[121.665305,25.106924],[121.665266,25.106945],[121.665097,25.107065],[121.665151,25.10716],[121.665026,25.107579],[121.665492,25.107725],[121.665571,25.1075],[121.665667,25.107493],[121.665642,25.107319],[121.665622,25.107284]]]}},{"type":"Feature","properties":{"id":"41bdb2db8640","name":"基隆市七堵區華興國民小學","level":"國小","basis":"both","data_ym":"202508"},"geometry":{"type":"Polygon","coordinates":[[[121.70811,25.087906],[121.708187,25.087881],[121.708199,25.087903],[121.708654,25.087508],[121.709014,25.087188],[121.708929,25.087062],[121.708595,25.087004],[121.708525,25.08686],[121.708535,25.086687],[121.708454,25.086669],[121.708411,25.086664],[121.70819,25.086769],[121.708174,25.08674],[121.708032,25.086816],[121.708358,25.087344],[121.707379,25.087582],[121.707514,25.087868],[121.707965,25.087759],[121.708011,25.087784],[121.708091,25.087869],[121.70811,25.087906]]]}},{"type":"Feature","properties":{"id":"70543200e855","name":"基隆市七堵區瑪陵國民小學","level":"國小","basis":"both","data_ym":"202310"},"geometry":{"type":"Polygon","coordinates":[[[121.690141,25.109888],[121.689909,25.109772],[121.689889,25.109801],[121.689857,25.10982],[121.689804,25.109833],[121.689204,25.109788],[121.68911,25.109809],[121.689057,25.109812],[121.688854,25.109803],[121.688797,25.109866],[121.688784,25.10989],[121.688734,25.110293],[121.689192,25.110339],[121.689171,25.110542],[121.68943,25.110568],[121.689485,25.110515],[121.68953,25.110419],[121.689548,25.110395],[121.689747,25.11022],[121.689929,25.110053],[121.690141,25.109888]]]}},{"type":"Feature","properties":{"id":"fb7cdc1785ed","name":"基隆市中山區中山國民小學","level":"國小","basis":"both","data_ym":"202310"},"geometry":{"type":"Polygon","coordinates":[[[121.736584,25.146396],[121.736662,25.146277],[121.737185,25.146408],[121.737315,25.146419],[121.737339,25.146395],[121.737356,25.14633],[121.737315,25.146299],[121.73732,25.14627],[121.737389,25.146238],[121.737373,25.146218],[121.737376,25.146143],[121.737356,25.146093],[121.737325,25.145953],[121.737107,25.145796],[121.736446,25.145649],[121.736387,25.145681],[121.736354,25.145802],[121.736217,25.145763],[121.736207,25.145795],[121.73594,25.14575],[121.735974,25.145863],[121.735928,25.145874],[121.735883,25.145724],[121.735868,25.145654],[121.735574,25.145781],[121.735588,25.145872],[121.735587,25.14599],[121.735601,25.145997],[121.735594,25.146041],[121.735535,25.146228],[121.735488,25.146344],[121.73552,25.146523],[121.735696,25.146583],[121.735727,25.146605],[121.736017,25.146695],[121.73622,25.146736],[121.736426,25.146705],[121.736531,25.14652],[121.736584,25.146396]]]}},{"type":"Feature","properties":{"id":"9a7402e9cef3","name":"基隆市中山區中和國民小學","level":"國小","basis":"both","data_ym":"201901"},"geometry":{"type":"Polygon","coordinates":[[[121.720753,25.146314],[121.720743,25.146247],[121.7207,25.146227],[121.720582,25.146193],[121.720562,25.146241],[121.720466,25.146233],[121.72042,25.146286],[121.720384,25.146274],[121.720293,25.1463],[121.720195,25.146266],[121.720178,25.146266],[121.720117,25.146334],[121.719792,25.14662],[121.719735,25.146815],[121.720374,25.146817],[121.720569,25.146806],[121.720667,25.14652],[121.720753,25.146314]]]}},{"type":"Feature","properties":{"id":"310a51a5dfb9","name":"基隆市中山區中華國民小學","level":"國小","basis":"both","data_ym":"202310"},"geometry":{"type":"Polygon","coordinates":[[[121.738682,25.148537],[121.738705,25.149005],[121.738436,25.149038],[121.73847,25.149095],[121.738434,25.149116],[121.738427,25.149105],[121.738334,25.149158],[121.738368,25.149223],[121.738272,25.149349],[121.738279,25.149353],[121.738248,25.149422],[121.738285,25.14956],[121.738338,25.149699],[121.738364,25.149739],[121.738568,25.149666],[121.738625,25.14972],[121.738719,25.149823],[121.738765,25.149864],[121.738915,25.149777],[121.7389,25.149702],[121.738917,25.149644],[121.738981,25.149569],[121.739022,25.149395],[121.739074,25.14921],[121.739094,25.14921],[121.739125,25.149197],[121.739067,25.149039],[121.739043,25.149035],[121.739012,25.148985],[121.739009,25.148967],[121.738965,25.148906],[121.738895,25.148791],[121.738888,25.148746],[121.738895,25.148625],[121.738893,25.148615],[121.738854,25.148617],[121.738849,25.148541],[121.73886,25.148529],[121.738826,25.148494],[121.738761,25.148515],[121.738762,25.148537],[121.738682,25.148537]]]}},{"type":"Feature","properties":{"id":"3b0d587cd228","name":"基隆市中山區仙洞國民小學","level":"國小","basis":"both","data_ym":"202508"},"geometry":{"type":"Polygon","coordinates":[[[121.746885,25.147389],[121.74698,25.147388],[121.746981,25.147318],[121.746944,25.147317],[121.746981,25.147239],[121.74706,25.147237],[121.74706,25.147207],[121.747127,25.147207],[121.747117,25.147128],[121.746986,25.147132],[121.74698,25.146935],[121.746921,25.146936],[121.746938,25.146812],[121.746996,25.146821],[121.747032,25.146837],[121.747087,25.146843],[121.747152,25.146548],[121.746569,25.146487],[121.746412,25.146476],[121.746239,25.146691],[121.74609,25.146687],[121.746087,25.147055],[121.746245,25.147061],[121.746251,25.147072],[121.746255,25.147265],[121.746273,25.147366],[121.746276,25.147436],[121.746885,25.147436],[121.746885,25.147389]]]}},{"type":"Feature","properties":{"id":"e2dbaf5903c3","name":"基隆市中山區港西國民小學","level":"國小","basis":"both","data_ym":"202508"},"geometry":{"type":"Polygon","coordinates":[[[121.739727,25.136766],[121.739946,25.136742],[121.740076,25.136719],[121.740197,25.136735],[121.74025,25.136735],[121.740518,25.136662],[121.740425,25.136472],[121.740315,25.1365],[121.740078,25.136159],[121.739893,25.136267],[121.73973,25.136237],[121.739591,25.136047],[121.739513,25.136076],[121.739418,25.136122],[121.739178,25.136185],[121.739129,25.136221],[121.739199,25.136312],[121.73953,25.136845],[121.739629,25.136794],[121.739727,25.136766]]]}},{"type":"Feature","properties":{"id":"f2c490d6e430","name":"基隆市中山區德和國民小學","level":"國小","basis":"both","data_ym":"201901"},"geometry":{"type":"Polygon","coordinates":[[[121.73137,25.155317],[121.731229,25.155212],[121.730751,25.154968],[121.729878,25.154494],[121.72978,25.154434],[121.729652,25.154567],[121.729703,25.154707],[121.729376,25.155178],[121.729441,25.155342],[121.729558,25.155297],[121.729562,25.155314],[121.729686,25.155306],[121.729924,25.155311],[121.729992,25.155358],[121.730381,25.155338],[121.730706,25.155395],[121.730758,25.155311],[121.731014,25.155447],[121.731052,25.155454],[121.731076,25.155449],[121.73137,25.155317]]]}},{"type":"Feature","properties":{"id":"a5123aabafac","name":"基隆市中正區八斗國民小學","level":"國小","basis":"both","data_ym":"202508"},"geometry":{"type":"Polygon","coordinates":[[[121.798563,25.138396],[121.798782,25.13823],[121.798723,25.138046],[121.798583,25.138082],[121.798301,25.138085],[121.798004,25.138031],[121.79763,25.1379],[121.797498,25.13784],[121.79741,25.137847],[121.797307,25.137906],[121.797122,25.137984],[121.797102,25.137986],[121.79704,25.13804],[121.797003,25.138084],[121.796916,25.138154],[121.796814,25.138329],[121.796863,25.138386],[121.796624,25.138569],[121.796848,25.138809],[121.79711,25.138586],[121.797407,25.138895],[121.797621,25.138748],[121.797651,25.138803],[121.797746,25.138751],[121.79783,25.138855],[121.798069,25.138716],[121.798563,25.138396]]]}},{"type":"Feature","properties":{"id":"e105efcbdb37","name":"基隆市中正區中正國民小學","level":"國小","basis":"both","data_ym":"202310"},"geometry":{"type":"Polygon","coordinates":[[[121.750982,25.135114],[121.750784,25.135133],[121.750591,25.135514],[121.750451,25.135462],[121.750412,25.13547],[121.750329,25.135612],[121.750203,25.135849],[121.750273,25.135888],[121.750328,25.135881],[121.750454,25.135985],[121.750501,25.13603],[121.750619,25.136157],[121.75071,25.136224],[121.750635,25.136384],[121.750853,25.136246],[121.751005,25.136135],[121.751025,25.136108],[121.751069,25.136001],[121.751027,25.135974],[121.751098,25.135902],[121.751165,25.135819],[121.751233,25.135745],[121.751435,25.135381],[121.751461,25.135393],[121.751554,25.135239],[121.751581,25.135177],[121.751558,25.135162],[121.751522,25.135094],[121.751319,25.135011],[121.750982,25.135114]]]}},{"type":"Feature","properties":{"id":"1d768f87f7dd","name":"基隆市中正區正濱國民小學","level":"國小","basis":"both","data_ym":"202508"},"geometry":{"type":"Polygon","coordinates":[[[121.770874,25.147377],[121.771296,25.14696],[121.771247,25.146908],[121.77113,25.146747],[121.771393,25.146551],[121.771522,25.146501],[121.771736,25.14612],[121.771822,25.145641],[121.77182,25.145629],[121.771776,25.145607],[121.771683,25.145589],[121.771571,25.145617],[121.771349,25.145696],[121.771331,25.145729],[121.771028,25.145777],[121.770942,25.145785],[121.77069,25.145996],[121.770422,25.145786],[121.770036,25.146214],[121.770059,25.146233],[121.770049,25.146243],[121.770025,25.146223],[121.770016,25.146231],[121.770205,25.146401],[121.770286,25.146481],[121.770444,25.146684],[121.770835,25.147385],[121.77085,25.147386],[121.770874,25.147377]]]}},{"type":"Feature","properties":{"id":"e45b0836a10e","name":"基隆市中正區和平國民小學","level":"國小","basis":"both","data_ym":"202508"},"geometry":{"type":"Polygon","coordinates":[[[121.766144,25.157704],[121.76613,25.157581],[121.766426,25.157609],[121.76649,25.15748],[121.766259,25.157351],[121.766132,25.157223],[121.766047,25.157104],[121.766037,25.157049],[121.766136,25.15651],[121.766189,25.156509],[121.766222,25.15632],[121.766115,25.156291],[121.76628,25.156099],[121.766477,25.155941],[121.766406,25.155867],[121.766288,25.155661],[121.766243,25.155605],[121.766045,25.155604],[121.766,25.155595],[121.765998,25.155642],[121.766024,25.155644],[121.765994,25.155698],[121.765836,25.155842],[121.76574,25.155919],[121.765716,25.155905],[121.765658,25.155984],[121.765643,25.156044],[121.76566,25.156076],[121.765747,25.156154],[121.765872,25.156325],[121.765783,25.156654],[121.765709,25.15664],[121.765618,25.15667],[121.765565,25.157095],[121.765808,25.157121],[121.765858,25.157154],[121.765909,25.157238],[121.765826,25.157507],[121.765932,25.157535],[121.766124,25.158142],[121.766171,25.158186],[121.766358,25.158112],[121.766144,25.157704]]]}},{"type":"Feature","properties":{"id":"9a7342c36ee9","name":"基隆市中正區忠孝國民小學","level":"國小","basis":"both","data_ym":"201901"},"geometry":{"type":"Polygon","coordinates":[[[121.766977,25.149319],[121.766993,25.14925],[121.767005,25.149234],[121.767021,25.149221],[121.767057,25.149203],[121.767232,25.149141],[121.767275,25.149121],[121.767287,25.149096],[121.767292,25.149017],[121.767331,25.149018],[121.767323,25.149131],[121.767386,25.149135],[121.767422,25.149064],[121.767502,25.149026],[121.767518,25.148658],[121.767347,25.148602],[121.766688,25.148602],[121.766677,25.149322],[121.766845,25.149341],[121.766853,25.149276],[121.766894,25.149271],[121.766934,25.149305],[121.766974,25.149355],[121.766977,25.149319]]]}},{"type":"Feature","properties":{"id":"63e245849e98","name":"基隆市仁愛區仁愛國民小學","level":"國小","basis":"both","data_ym":"202508"},"geometry":{"type":"Polygon","coordinates":[[[121.746519,25.127696],[121.746521,25.127314],[121.746531,25.127314],[121.746535,25.127192],[121.746525,25.127192],[121.746521,25.126476],[121.74655,25.126469],[121.746557,25.126189],[121.746233,25.126177],[121.745926,25.126173],[121.745911,25.126181],[121.745886,25.126205],[121.745878,25.126717],[121.745851,25.126797],[121.745768,25.126846],[121.745762,25.127181],[121.74571,25.127231],[121.745681,25.127273],[121.745671,25.127329],[121.745664,25.127504],[121.745745,25.127514],[121.745757,25.127987],[121.745921,25.127994],[121.745953,25.128006],[121.746115,25.127926],[121.746203,25.127871],[121.746519,25.127696]]]}},{"type":"Feature","properties":{"id":"228d1e32eb6c","name":"基隆市仁愛區成功國民小學","level":"國小","basis":"both","data_ym":"202508"},"geometry":{"type":"Polygon","coordinates":[[[121.738383,25.125233],[121.738362,25.12523],[121.738225,25.125376],[121.73821,25.125428],[121.737794,25.125864],[121.738343,25.126696],[121.738403,25.126713],[121.739243,25.126245],[121.739048,25.125933],[121.738923,25.12577],[121.738654,25.1255],[121.738658,25.125496],[121.7385,25.125339],[121.738383,25.125233]]]}},{"type":"Feature","properties":{"id":"d10d5bf6ae80","name":"基隆市仁愛區信義國民小學","level":"國小","basis":"both","data_ym":"202508"},"geometry":{"type":"Polygon","coordinates":[[[121.746633,25.127618],[121.746882,25.127474],[121.746897,25.127477],[121.746973,25.127429],[121.746983,25.127439],[121.747138,25.127356],[121.747208,25.127334],[121.747229,25.126488],[121.747217,25.126262],[121.747215,25.125982],[121.747045,25.125933],[121.746684,25.125802],[121.746633,25.126023],[121.746645,25.126025],[121.746652,25.126093],[121.746633,25.12612],[121.746628,25.126478],[121.746628,25.127374],[121.746617,25.127393],[121.746611,25.127597],[121.746633,25.127618]]]}},{"type":"Feature","properties":{"id":"21e233e971ae","name":"基隆市仁愛區南榮國民小學","level":"國小","basis":"both","data_ym":"202508"},"geometry":{"type":"Polygon","coordinates":[[[121.744601,25.119545],[121.744928,25.119397],[121.744757,25.119068],[121.744625,25.119109],[121.744537,25.118912],[121.744419,25.118672],[121.744378,25.118691],[121.74428,25.118496],[121.744265,25.118464],[121.744279,25.118458],[121.744249,25.118403],[121.744268,25.118395],[121.744206,25.118261],[121.743847,25.118402],[121.743884,25.118483],[121.743878,25.118582],[121.743866,25.118587],[121.743804,25.118953],[121.743769,25.119114],[121.743684,25.119332],[121.743618,25.119518],[121.743667,25.11953],[121.743702,25.119522],[121.743999,25.119492],[121.744098,25.119453],[121.744104,25.119467],[121.744115,25.119474],[121.744254,25.119481],[121.744393,25.119502],[121.744601,25.119545]]]}},{"type":"Feature","properties":{"id":"81dee3346caa","name":"基隆市立八斗高級中學","level":"高中職","basis":"both","data_ym":"202508"},"geometry":{"type":"Polygon","coordinates":[[[121.788591,25.14004],[121.788592,25.140013],[121.788308,25.140038],[121.788154,25.139236],[121.787908,25.139288],[121.787895,25.139235],[121.787704,25.13931],[121.787594,25.13936],[121.787154,25.139538],[121.787048,25.139585],[121.786807,25.139737],[121.786815,25.140194],[121.786836,25.140585],[121.786862,25.140845],[121.787694,25.140808],[121.78865,25.140792],[121.788591,25.14004]]]}},{"type":"Feature","properties":{"id":"e754db9002a5","name":"基隆市立中山高級中學","level":"高中職","basis":"both","data_ym":"202310"},"geometry":{"type":"Polygon","coordinates":[[[121.72978,25.154434],[121.729878,25.154494],[121.730751,25.154968],[121.731229,25.155212],[121.73137,25.155317],[121.731612,25.155197],[121.731747,25.155139],[121.731861,25.155008],[121.732121,25.154663],[121.732243,25.154465],[121.731978,25.154266],[121.73161,25.153982],[121.731478,25.153895],[121.730944,25.153591],[121.730932,25.15361],[121.730478,25.153592],[121.73039,25.153705],[121.729908,25.154134],[121.72978,25.154434]]]}},{"type":"Feature","properties":{"id":"b572835aaf36","name":"基隆市立中山高級中學附設國中大德分校","level":"大專","basis":"branch","data_ym":"202508"},"geometry":{"type":"Polygon","coordinates":[[[121.734457,25.14096],[121.735301,25.140657],[121.735467,25.14071],[121.735507,25.140669],[121.735472,25.140534],[121.73554,25.140288],[121.736045,25.139876],[121.735991,25.139763],[121.735883,25.139712],[121.735751,25.139699],[121.73523,25.139911],[121.734751,25.140041],[121.734503,25.140137],[121.734256,25.140246],[121.734171,25.140287],[121.734128,25.140314],[121.734106,25.140336],[121.734041,25.140385],[121.733774,25.14068],[121.73385,25.14073],[121.733912,25.140717],[121.734015,25.140748],[121.734163,25.140809],[121.734457,25.14096]]]}},{"type":"Feature","properties":{"id":"e7efdecaf9d1","name":"基隆市立中正國民中學","level":"國中","basis":"both","data_ym":"202508"},"geometry":{"type":"Polygon","coordinates":[[[121.752842,25.133816],[121.752886,25.13385],[121.75294,25.133977],[121.752948,25.134021],[121.752978,25.134014],[121.753083,25.134187],[121.753122,25.13424],[121.753199,25.134319],[121.753252,25.134368],[121.753318,25.13441],[121.753371,25.134436],[121.753416,25.13445],[121.75347,25.13446],[121.753535,25.134464],[121.753607,25.134479],[121.753694,25.134537],[121.753779,25.134581],[121.754012,25.134657],[121.753992,25.134717],[121.753666,25.134648],[121.753495,25.134623],[121.753156,25.134625],[121.753151,25.134718],[121.753153,25.134915],[121.75317,25.134944],[121.753158,25.134951],[121.753197,25.135003],[121.753142,25.135036],[121.753147,25.135044],[121.753125,25.135055],[121.753038,25.134925],[121.752885,25.134997],[121.752808,25.135039],[121.752636,25.135143],[121.752514,25.135309],[121.752202,25.135756],[121.752149,25.135839],[121.752579,25.136482],[121.752846,25.136336],[121.753242,25.136573],[121.753329,25.13657],[121.753499,25.136541],[121.753332,25.136251],[121.753167,25.136004],[121.754169,25.135468],[121.75422,25.135268],[121.754154,25.135164],[121.754304,25.134998],[121.754406,25.134839],[121.754408,25.134766],[121.754345,25.134675],[121.754317,25.134651],[121.754202,25.134665],[121.754164,25.134651],[121.754027,25.13462],[121.753948,25.134592],[121.753653,25.134447],[121.75359,25.134421],[121.753546,25.134412],[121.753421,25.134401],[121.753367,25.134381],[121.7533,25.134342],[121.753254,25.134304],[121.753191,25.134236],[121.753133,25.134154],[121.75309,25.134075],[121.753062,25.134],[121.753042,25.133902],[121.753036,25.133812],[121.752842,25.133816]]]}},{"type":"Feature","properties":{"id":"08fc6f4f18f7","name":"基隆市立正濱國民中學","level":"國中","basis":"both","data_ym":"202508"},"geometry":{"type":"Polygon","coordinates":[[[121.764136,25.146943],[121.764564,25.146788],[121.764747,25.147098],[121.76529,25.146884],[121.765592,25.146737],[121.765595,25.146674],[121.765467,25.146407],[121.765218,25.14596],[121.764861,25.145905],[121.764538,25.14585],[121.764461,25.145786],[121.764366,25.145815],[121.764343,25.145907],[121.764253,25.145931],[121.764245,25.145968],[121.763816,25.146159],[121.763837,25.146202],[121.763581,25.146306],[121.763485,25.146328],[121.763494,25.146389],[121.763428,25.146394],[121.76329,25.146396],[121.763252,25.146392],[121.763222,25.146384],[121.763136,25.146337],[121.763068,25.14629],[121.762944,25.146192],[121.762917,25.146177],[121.762901,25.146174],[121.762886,25.14618],[121.762871,25.146196],[121.762859,25.146221],[121.762852,25.146257],[121.762851,25.146293],[121.762857,25.146335],[121.762953,25.146715],[121.762995,25.146901],[121.76301,25.146981],[121.763012,25.147016],[121.763007,25.147039],[121.763015,25.147049],[121.763139,25.147078],[121.763221,25.147086],[121.763261,25.147086],[121.763296,25.147081],[121.763422,25.147043],[121.763932,25.146908],[121.763992,25.147146],[121.764056,25.147358],[121.764175,25.147343],[121.764136,25.146943]]]}},{"type":"Feature","properties":{"id":"81c06387af7c","name":"基隆市立安樂高級中學","level":"高中職","basis":"both","data_ym":"202508"},"geometry":{"type":"Polygon","coordinates":[[[121.730753,25.136023],[121.730881,25.135849],[121.730918,25.135789],[121.730822,25.135699],[121.730895,25.135576],[121.730844,25.135548],[121.730926,25.13539],[121.730934,25.135367],[121.730937,25.135313],[121.730946,25.135297],[121.730966,25.135274],[121.730989,25.135256],[121.731036,25.135232],[121.731114,25.13508],[121.730861,25.134969],[121.731017,25.134731],[121.730955,25.1347],[121.73094,25.134679],[121.730938,25.134658],[121.730959,25.134576],[121.73096,25.134548],[121.730956,25.134533],[121.730605,25.134147],[121.730534,25.134209],[121.730573,25.134252],[121.730046,25.134715],[121.72946,25.134572],[121.729429,25.134672],[121.729413,25.134705],[121.729176,25.135084],[121.729104,25.135211],[121.728985,25.135387],[121.728837,25.135642],[121.72897,25.135697],[121.729092,25.135717],[121.729191,25.13572],[121.729277,25.135758],[121.729401,25.135748],[121.729562,25.135791],[121.730129,25.135989],[121.730182,25.135985],[121.730471,25.135886],[121.730753,25.136023]]]}},{"type":"Feature","properties":{"id":"c57e01f8daf8","name":"基隆市立成功國民中學","level":"國中","basis":"both","data_ym":"202508"},"geometry":{"type":"Polygon","coordinates":[[[121.751224,25.132287],[121.751,25.132323],[121.750974,25.132268],[121.750701,25.13221],[121.750529,25.132211],[121.750454,25.132236],[121.750423,25.132276],[121.750318,25.132442],[121.751099,25.132718],[121.75123,25.132737],[121.751584,25.13275],[121.751711,25.132749],[121.751861,25.132733],[121.75201,25.132728],[121.752003,25.132812],[121.752069,25.132822],[121.752236,25.132581],[121.752371,25.132552],[121.752287,25.132212],[121.751771,25.132267],[121.751762,25.132202],[121.751429,25.132269],[121.751252,25.132288],[121.751224,25.132287]]]}},{"type":"Feature","properties":{"id":"5ee5d0ae79c8","name":"基隆市立百福國民中學","level":"國中","basis":"both","data_ym":"202508"},"geometry":{"type":"Polygon","coordinates":[[[121.698521,25.082012],[121.698006,25.082004],[121.69796,25.082176],[121.697632,25.083868],[121.697905,25.083916],[121.697881,25.084042],[121.698615,25.084171],[121.698625,25.08417],[121.698774,25.083698],[121.698766,25.083675],[121.698776,25.083628],[121.698861,25.083335],[121.698881,25.083327],[121.69895,25.083081],[121.699082,25.082556],[121.699094,25.082462],[121.699043,25.082307],[121.698974,25.082194],[121.698924,25.08215],[121.698835,25.082081],[121.698768,25.082049],[121.69871,25.08203],[121.698521,25.082012]]]}},{"type":"Feature","properties":{"id":"3d07fbf7ae00","name":"基隆市立明德國民中學","level":"國中","basis":"both","data_ym":"202508"},"geometry":{"type":"Polygon","coordinates":[[[121.716948,25.09325],[121.716757,25.09311],[121.71664,25.093067],[121.71628,25.092848],[121.716217,25.092845],[121.716191,25.092857],[121.716143,25.09293],[121.716099,25.092971],[121.716017,25.092944],[121.715887,25.09296],[121.715435,25.092925],[121.715328,25.093053],[121.715136,25.093306],[121.715187,25.093341],[121.715415,25.093463],[121.715505,25.093541],[121.715499,25.09367],[121.715552,25.093763],[121.715588,25.093806],[121.715634,25.093781],[121.716162,25.0942],[121.716124,25.094244],[121.71619,25.094292],[121.716567,25.093775],[121.716701,25.093597],[121.71688,25.093351],[121.716948,25.09325]]]}},{"type":"Feature","properties":{"id":"a7423705d481","name":"基隆市立武崙國民中學","level":"國中","basis":"both","data_ym":"202508"},"geometry":{"type":"Polygon","coordinates":[[[121.706186,25.137862],[121.706198,25.137836],[121.70625,25.137866],[121.706235,25.137898],[121.706184,25.137946],[121.70612,25.137972],[121.705815,25.138016],[121.705774,25.13804],[121.705752,25.138063],[121.705741,25.138083],[121.705735,25.138119],[121.705797,25.138109],[121.706399,25.137952],[121.70677,25.137591],[121.706727,25.137502],[121.706515,25.137208],[121.70593,25.136941],[121.705864,25.136834],[121.705475,25.136737],[121.705105,25.136781],[121.704869,25.136844],[121.705089,25.13738],[121.705058,25.137496],[121.704784,25.137623],[121.705026,25.138336],[121.705449,25.138183],[121.705618,25.138144],[121.705618,25.138127],[121.705623,25.138111],[121.705644,25.138072],[121.705707,25.138003],[121.70577,25.13797],[121.705829,25.137956],[121.706078,25.137924],[121.706144,25.137902],[121.706186,25.137862]]]}},{"type":"Feature","properties":{"id":"5cd8745af6aa","name":"基隆市立信義國民中學","level":"國中","basis":"both","data_ym":"202508"},"geometry":{"type":"Polygon","coordinates":[[[121.769555,25.130446],[121.769686,25.129898],[121.769467,25.12975],[121.769303,25.129355],[121.769239,25.129246],[121.769206,25.129157],[121.769088,25.129067],[121.769102,25.129035],[121.768887,25.128983],[121.76866,25.128889],[121.768627,25.128924],[121.7686,25.128942],[121.76857,25.128952],[121.768537,25.128956],[121.768512,25.128942],[121.768497,25.128956],[121.768429,25.128907],[121.768435,25.128899],[121.768395,25.128874],[121.768394,25.128855],[121.768387,25.12884],[121.76834,25.128824],[121.768189,25.128952],[121.768042,25.129102],[121.768203,25.129215],[121.76796,25.129499],[121.767956,25.129502],[121.767872,25.12944],[121.767949,25.129347],[121.76784,25.129259],[121.767642,25.129452],[121.767643,25.129491],[121.767654,25.129506],[121.767775,25.129603],[121.768043,25.129796],[121.768066,25.129818],[121.768096,25.129882],[121.768119,25.129899],[121.768156,25.129862],[121.768652,25.130223],[121.768692,25.130192],[121.768719,25.130188],[121.768743,25.130191],[121.769009,25.130319],[121.76904,25.130323],[121.769138,25.130312],[121.769161,25.130258],[121.769314,25.13028],[121.769446,25.130336],[121.769458,25.130412],[121.769555,25.130446]]]}},{"type":"Feature","properties":{"id":"1622668c2437","name":"基隆市立南榮國民中學","level":"國中","basis":"both","data_ym":"202310"},"geometry":{"type":"Polygon","coordinates":[[[121.746928,25.12093],[121.746748,25.11972],[121.746698,25.119337],[121.746562,25.119265],[121.746593,25.119155],[121.746504,25.11914],[121.746507,25.119178],[121.746436,25.119182],[121.745776,25.119173],[121.745305,25.119112],[121.745287,25.119236],[121.745799,25.119403],[121.745794,25.119682],[121.745472,25.119887],[121.745468,25.120375],[121.745405,25.120558],[121.745379,25.120608],[121.745462,25.120629],[121.745452,25.120676],[121.745207,25.120592],[121.744904,25.120462],[121.74486,25.120804],[121.745523,25.121029],[121.746928,25.12093]]]}},{"type":"Feature","properties":{"id":"edb2cdfe56a5","name":"基隆市立建德國民中學","level":"國中","basis":"both","data_ym":"202508"},"geometry":{"type":"Polygon","coordinates":[[[121.722166,25.125386],[121.721041,25.125478],[121.721081,25.125911],[121.721148,25.126195],[121.720969,25.126592],[121.720983,25.126786],[121.720993,25.126848],[121.720904,25.126859],[121.721065,25.127285],[121.721566,25.127586],[121.721668,25.128526],[121.721658,25.128537],[121.721698,25.128843],[121.721872,25.128806],[121.722187,25.128749],[121.722208,25.128726],[121.72222,25.128559],[121.722297,25.128424],[121.722389,25.128321],[121.722372,25.128176],[121.72234,25.128078],[121.722291,25.128003],[121.722243,25.127912],[121.722211,25.127837],[121.722194,25.127773],[121.722154,25.12746],[121.721992,25.126439],[121.72197,25.126264],[121.721968,25.126189],[121.721972,25.126108],[121.721983,25.126009],[121.721996,25.125931],[121.722024,25.125825],[121.722083,25.125629],[121.72213,25.125482],[121.722166,25.125386]]]}},{"type":"Feature","properties":{"id":"e3444ee621ea","name":"基隆市立暖暖高級中學","level":"高中職","basis":"both","data_ym":"202508"},"geometry":{"type":"Polygon","coordinates":[[[121.737326,25.109083],[121.737427,25.108922],[121.737439,25.10891],[121.737925,25.108618],[121.738311,25.108351],[121.738335,25.108274],[121.73876,25.107889],[121.738876,25.107763],[121.739131,25.107544],[121.738535,25.107084],[121.737954,25.107592],[121.737815,25.107532],[121.737844,25.107482],[121.737774,25.10745],[121.737661,25.107612],[121.736788,25.108139],[121.736981,25.108444],[121.736642,25.108743],[121.736624,25.108755],[121.736778,25.109006],[121.737032,25.108975],[121.73722,25.109021],[121.737326,25.109083]]]}},{"type":"Feature","properties":{"id":"330c0ac5b3fa","name":"基隆市立碇內國民中學","level":"國中","basis":"both","data_ym":"202508"},"geometry":{"type":"Polygon","coordinates":[[[121.749695,25.095294],[121.749544,25.095292],[121.749278,25.095317],[121.748979,25.095355],[121.748867,25.095375],[121.748844,25.095391],[121.748855,25.096058],[121.748851,25.096283],[121.748863,25.097236],[121.748881,25.097254],[121.749332,25.097256],[121.749564,25.097242],[121.749636,25.097222],[121.749793,25.097162],[121.749842,25.09708],[121.749892,25.096942],[121.750108,25.096289],[121.75033,25.095527],[121.750328,25.095464],[121.75032,25.095435],[121.750299,25.095408],[121.750272,25.09539],[121.749695,25.095294]]]}},{"type":"Feature","properties":{"id":"7afb844071a6","name":"基隆市立銘傳國民中學","level":"國中","basis":"both","data_ym":"202508"},"geometry":{"type":"Polygon","coordinates":[[[121.750961,25.123758],[121.75093,25.123303],[121.750834,25.123313],[121.750793,25.123241],[121.750746,25.123007],[121.750736,25.122914],[121.75047,25.122913],[121.750267,25.122365],[121.749854,25.12252],[121.749851,25.122526],[121.749975,25.122674],[121.749979,25.122967],[121.749907,25.122983],[121.749748,25.123309],[121.749687,25.123334],[121.749438,25.123394],[121.749553,25.123921],[121.750426,25.123823],[121.750816,25.123772],[121.750961,25.123758]]]}},{"type":"Feature","properties":{"id":"b2cedd853946","name":"基隆市安樂區安樂國民小學","level":"國小","basis":"both","data_ym":"202110"},"geometry":{"type":"Polygon","coordinates":[[[121.731351,25.13222],[121.731413,25.132196],[121.731544,25.132166],[121.73161,25.132162],[121.731711,25.132121],[121.73181,25.132094],[121.731873,25.132071],[121.731936,25.132025],[121.732009,25.131995],[121.732088,25.132132],[121.732116,25.132133],[121.732322,25.132102],[121.732452,25.132102],[121.732537,25.132126],[121.732416,25.131846],[121.73243,25.131825],[121.73245,25.13181],[121.732443,25.131789],[121.732569,25.131745],[121.732975,25.131591],[121.733013,25.131571],[121.733021,25.131557],[121.733021,25.131531],[121.732856,25.131192],[121.73284,25.13118],[121.732815,25.131176],[121.732404,25.131318],[121.73227,25.131427],[121.732231,25.131452],[121.732096,25.131508],[121.732032,25.131553],[121.73192,25.13158],[121.731857,25.131567],[121.731646,25.131283],[121.73154,25.131243],[121.731513,25.131228],[121.731446,25.131253],[121.731357,25.131281],[121.731248,25.131277],[121.731157,25.131203],[121.731036,25.131161],[121.730906,25.131127],[121.730771,25.13116],[121.730667,25.131195],[121.730645,25.131232],[121.730659,25.131278],[121.730729,25.131434],[121.730724,25.131467],[121.730713,25.131486],[121.730674,25.131506],[121.730568,25.131546],[121.730508,25.13158],[121.730481,25.131606],[121.730579,25.131781],[121.730316,25.131893],[121.730305,25.131923],[121.730329,25.132057],[121.730459,25.132312],[121.730844,25.132188],[121.730964,25.132391],[121.731351,25.13222]]]}},{"type":"Feature","properties":{"id":"94ae5945d03e","name":"基隆市安樂區西定國民小學","level":"國小","basis":"both","data_ym":"202508"},"geometry":{"type":"Polygon","coordinates":[[[121.731817,25.137027],[121.732224,25.136607],[121.73226,25.136638],[121.73234,25.136563],[121.732438,25.136459],[121.732493,25.136357],[121.732501,25.136334],[121.732096,25.136102],[121.731919,25.136042],[121.731698,25.136381],[121.731651,25.136354],[121.73156,25.136438],[121.731529,25.136487],[121.731465,25.136531],[121.73135,25.13653],[121.731189,25.136538],[121.731146,25.136544],[121.731071,25.136568],[121.731053,25.136619],[121.731015,25.136971],[121.731036,25.136992],[121.731184,25.137048],[121.731461,25.137192],[121.731561,25.137337],[121.731817,25.137027]]]}},{"type":"Feature","properties":{"id":"70f840d4eabd","name":"基隆市安樂區武崙國民小學","level":"國小","basis":"both","data_ym":"202508"},"geometry":{"type":"Polygon","coordinates":[[[121.706514,25.139615],[121.707652,25.138909],[121.707665,25.138921],[121.707802,25.138825],[121.707737,25.138767],[121.707818,25.138661],[121.707878,25.138541],[121.707817,25.1385],[121.707839,25.138478],[121.70784,25.13847],[121.70771,25.138395],[121.707492,25.138212],[121.707249,25.138098],[121.707261,25.138071],[121.707175,25.138],[121.706876,25.138074],[121.706476,25.138207],[121.70641,25.138083],[121.706352,25.138107],[121.705856,25.138242],[121.705836,25.138277],[121.706159,25.138915],[121.706238,25.139058],[121.706333,25.139257],[121.706514,25.139615]]]}},{"type":"Feature","properties":{"id":"04b13ba3aeae","name":"基隆市安樂區長樂國民小學","level":"國小","basis":"both","data_ym":"202508"},"geometry":{"type":"Polygon","coordinates":[[[121.711926,25.126178],[121.711917,25.126019],[121.711951,25.125995],[121.711958,25.126004],[121.712119,25.125876],[121.712187,25.125766],[121.7123,25.125618],[121.712207,25.125564],[121.712222,25.125541],[121.712026,25.125398],[121.711889,25.125395],[121.711652,25.125506],[121.711266,25.124899],[121.711023,25.124623],[121.710707,25.124429],[121.710283,25.124636],[121.710369,25.124944],[121.710346,25.125068],[121.710333,25.125268],[121.710613,25.125885],[121.71073,25.12599],[121.71088,25.126093],[121.71112,25.126247],[121.711293,25.126265],[121.711396,25.126224],[121.71129,25.12615],[121.711336,25.126126],[121.711372,25.126094],[121.71141,25.126139],[121.711429,25.126152],[121.711602,25.126215],[121.711658,25.126245],[121.711844,25.126387],[121.711912,25.126252],[121.711926,25.126178]]]}},{"type":"Feature","properties":{"id":"ffabfecd4071","name":"基隆市安樂區建德國民小學","level":"國小","basis":"both","data_ym":"202508"},"geometry":{"type":"Polygon","coordinates":[[[121.722166,25.125386],[121.72219,25.125333],[121.722218,25.125285],[121.722341,25.12512],[121.722381,25.125047],[121.72241,25.124965],[121.722439,25.12481],[121.722462,25.124735],[121.722486,25.124707],[121.722608,25.124613],[121.722724,25.124327],[121.722677,25.124269],[121.722564,25.124218],[121.722454,25.12423],[121.722389,25.124122],[121.722345,25.124145],[121.721957,25.123692],[121.721852,25.123695],[121.721726,25.123886],[121.721687,25.123935],[121.721579,25.124005],[121.721392,25.124086],[121.721201,25.124158],[121.721066,25.124199],[121.720918,25.124274],[121.72092,25.124335],[121.720917,25.124359],[121.720816,25.124615],[121.720754,25.124761],[121.720673,25.124841],[121.720652,25.124893],[121.720684,25.124921],[121.72073,25.125196],[121.720745,25.125396],[121.720911,25.125388],[121.720953,25.125426],[121.720953,25.125484],[121.722166,25.125386]]]}},{"type":"Feature","properties":{"id":"3e25da4c2102","name":"基隆市安樂區隆聖國民小學","level":"國小","basis":"both","data_ym":"202508"},"geometry":{"type":"Polygon","coordinates":[[[121.694358,25.155852],[121.693871,25.155598],[121.693814,25.155693],[121.693689,25.155642],[121.693656,25.155705],[121.693464,25.155626],[121.693143,25.15571],[121.692581,25.156522],[121.692844,25.15666],[121.693204,25.156828],[121.693808,25.156739],[121.694176,25.156677],[121.694272,25.156634],[121.694386,25.15643],[121.69438,25.156402],[121.694416,25.156332],[121.694445,25.156314],[121.69462,25.155983],[121.694613,25.155974],[121.694358,25.155852]]]}},{"type":"Feature","properties":{"id":"3f39b9c11308","name":"基隆市私立二信高級中學","level":"高中職","basis":"both","data_ym":"202508"},"geometry":{"type":"Polygon","coordinates":[[[121.771211,25.144759],[121.771472,25.144712],[121.771529,25.144714],[121.77162,25.144739],[121.771651,25.14474],[121.772179,25.144687],[121.772333,25.144648],[121.772506,25.144594],[121.772613,25.144519],[121.772677,25.144255],[121.772693,25.144149],[121.772588,25.143928],[121.772546,25.143851],[121.772199,25.143335],[121.772052,25.143409],[121.772025,25.143387],[121.771995,25.143378],[121.771721,25.143329],[121.771663,25.143329],[121.771669,25.143346],[121.7716,25.143368],[121.771589,25.143361],[121.771567,25.143362],[121.77153,25.143374],[121.771339,25.143462],[121.771019,25.143631],[121.771006,25.143691],[121.771009,25.143726],[121.771015,25.143746],[121.771063,25.143804],[121.770644,25.143973],[121.770573,25.144041],[121.770264,25.144121],[121.770205,25.144147],[121.770165,25.144176],[121.770153,25.144193],[121.770144,25.144245],[121.770154,25.144284],[121.770186,25.14435],[121.770252,25.144415],[121.770278,25.144456],[121.770373,25.144672],[121.770374,25.14471],[121.770352,25.144796],[121.770352,25.144864],[121.770368,25.144891],[121.770424,25.144943],[121.770504,25.144961],[121.77072,25.144964],[121.770801,25.144955],[121.770843,25.144945],[121.770892,25.144915],[121.7711,25.144806],[121.771211,25.144759]]]}},{"type":"Feature","properties":{"id":"65f856f81d42","name":"基隆市私立二信高級中學附設國小","level":"國小","basis":"name","data_ym":"202508"},"geometry":{"type":"Polygon","coordinates":[[[121.717748,25.129037],[121.71781,25.128435],[121.717845,25.128448],[121.717851,25.128416],[121.717833,25.128414],[121.717853,25.128259],[121.717924,25.128133],[121.71801,25.127542],[121.717935,25.127533],[121.717941,25.127482],[121.717867,25.127474],[121.717826,25.127809],[121.717748,25.127797],[121.71769,25.128281],[121.717603,25.128271],[121.717564,25.128728],[121.717548,25.128726],[121.717515,25.129016],[121.717748,25.129037]]]}},{"type":"Feature","properties":{"id":"93486bf6ef5c","name":"基隆市私立光隆高級家事商業職業學校","level":"高中職","basis":"name","data_ym":"202310"},"geometry":{"type":"Polygon","coordinates":[[[121.750241,25.131046],[121.750171,25.130616],[121.750156,25.130477],[121.750141,25.130478],[121.750108,25.130205],[121.750065,25.129799],[121.749391,25.12987],[121.74945,25.130282],[121.749449,25.130456],[121.749444,25.130511],[121.749417,25.130663],[121.749428,25.130676],[121.749497,25.130713],[121.749619,25.130811],[121.749675,25.130871],[121.749698,25.130933],[121.74981,25.13092],[121.749873,25.131347],[121.7498,25.13135],[121.749822,25.131384],[121.749836,25.131396],[121.750291,25.131314],[121.750241,25.131046]]]}},{"type":"Feature","properties":{"id":"8417d979b2a2","name":"基隆市私立培德高級工業家事職業學校","level":"高中職","basis":"name","data_ym":"202508"},"geometry":{"type":"Polygon","coordinates":[[[121.771168,25.130264],[121.771198,25.130259],[121.77193,25.130273],[121.771947,25.130098],[121.77193,25.130037],[121.771887,25.129791],[121.771884,25.129678],[121.771953,25.129638],[121.772062,25.1296],[121.772054,25.129576],[121.772419,25.129403],[121.772419,25.129391],[121.772411,25.129386],[121.772269,25.129438],[121.772168,25.129463],[121.77209,25.129473],[121.771973,25.129474],[121.771822,25.129465],[121.771342,25.129423],[121.770848,25.129374],[121.770801,25.129363],[121.770771,25.12994],[121.770138,25.130035],[121.770147,25.130063],[121.769879,25.130524],[121.769762,25.130734],[121.769763,25.130761],[121.769778,25.130792],[121.769824,25.130825],[121.769924,25.130925],[121.770321,25.131174],[121.770569,25.131264],[121.770674,25.13127],[121.770745,25.131237],[121.770898,25.131062],[121.771168,25.130264]]]}},{"type":"Feature","properties":{"id":"91c350c1a5af","name":"基隆市私立輔大聖心高級中學","level":"高中職","basis":"both","data_ym":"202508"},"geometry":{"type":"Polygon","coordinates":[[[121.734881,25.135485],[121.734637,25.135344],[121.734601,25.13539],[121.734449,25.135293],[121.73442,25.135378],[121.734408,25.135386],[121.733845,25.135199],[121.733686,25.135354],[121.733552,25.1355],[121.73315,25.135903],[121.733667,25.13661],[121.733521,25.136821],[121.733586,25.136854],[121.733635,25.136949],[121.733801,25.137309],[121.734867,25.137133],[121.734994,25.136606],[121.735141,25.13568],[121.735142,25.135652],[121.734956,25.135632],[121.734883,25.135631],[121.734881,25.135485]]]}},{"type":"Feature","properties":{"id":"75ff4de9dbb0","name":"基隆市信義區中興國民小學","level":"國小","basis":"both","data_ym":"202508"},"geometry":{"type":"Polygon","coordinates":[[[121.757283,25.129952],[121.757192,25.12996],[121.757191,25.129942],[121.756681,25.129998],[121.756679,25.130111],[121.756708,25.130291],[121.756708,25.130295],[121.756673,25.130302],[121.756694,25.130552],[121.756726,25.130629],[121.756855,25.130708],[121.756888,25.130911],[121.75691,25.131157],[121.756922,25.131211],[121.756983,25.131267],[121.757002,25.131366],[121.757037,25.131439],[121.757156,25.131498],[121.757266,25.131498],[121.757269,25.131462],[121.757314,25.13143],[121.757325,25.131396],[121.757338,25.131394],[121.757337,25.131389],[121.757334,25.13139],[121.757322,25.131235],[121.757306,25.13118],[121.757298,25.131056],[121.757309,25.131055],[121.757289,25.130918],[121.75728,25.130819],[121.757273,25.130685],[121.757279,25.130474],[121.757292,25.130454],[121.757293,25.130442],[121.757303,25.13042],[121.757334,25.130368],[121.757337,25.130297],[121.757283,25.129952]]]}},{"type":"Feature","properties":{"id":"0fd56378e10f","name":"基隆市信義區東光國民小學","level":"國小","basis":"both","data_ym":"202508"},"geometry":{"type":"Polygon","coordinates":[[[121.763431,25.12935],[121.763398,25.129186],[121.763476,25.129163],[121.763465,25.129039],[121.763427,25.128959],[121.763415,25.128959],[121.763412,25.128909],[121.763437,25.128906],[121.763425,25.128823],[121.763434,25.128822],[121.763431,25.128802],[121.76324,25.128792],[121.763325,25.128467],[121.762937,25.128369],[121.762799,25.128346],[121.762711,25.128365],[121.762733,25.128431],[121.762776,25.128631],[121.762766,25.128693],[121.762713,25.128688],[121.762697,25.128792],[121.762751,25.1288],[121.76274,25.128868],[121.762792,25.128875],[121.762867,25.12919],[121.76291,25.129559],[121.762928,25.12967],[121.762952,25.129729],[121.762966,25.129798],[121.762968,25.129854],[121.763383,25.129487],[121.763377,25.129479],[121.763458,25.129427],[121.763431,25.12935]]]}},{"type":"Feature","properties":{"id":"183d6b7825a7","name":"基隆市信義區東信國民小學","level":"國小","basis":"both","data_ym":"201901"},"geometry":{"type":"Polygon","coordinates":[[[121.760718,25.132467],[121.760766,25.132443],[121.76078,25.132444],[121.760804,25.132464],[121.760817,25.132466],[121.76083,25.132465],[121.760854,25.132454],[121.76088,25.132436],[121.760975,25.132437],[121.761018,25.132389],[121.761383,25.132395],[121.761336,25.131948],[121.761387,25.131928],[121.761344,25.131742],[121.761329,25.131652],[121.761285,25.131605],[121.76123,25.131517],[121.761193,25.131513],[121.761117,25.131492],[121.761055,25.131455],[121.760994,25.131398],[121.76067,25.131028],[121.76061,25.13097],[121.760571,25.130939],[121.760518,25.130904],[121.760482,25.130892],[121.760454,25.13089],[121.760109,25.130898],[121.759974,25.130906],[121.75988,25.130928],[121.759775,25.131013],[121.759736,25.131067],[121.759716,25.131107],[121.759704,25.131144],[121.759696,25.131193],[121.759694,25.131244],[121.759697,25.13128],[121.759703,25.131301],[121.759741,25.131355],[121.759783,25.131397],[121.759865,25.131464],[121.76021,25.131694],[121.760308,25.131766],[121.760364,25.131813],[121.760407,25.131869],[121.760435,25.131921],[121.760451,25.131963],[121.760459,25.132004],[121.760465,25.132133],[121.760475,25.132167],[121.760497,25.132206],[121.760659,25.132455],[121.760673,25.132468],[121.760692,25.132471],[121.760718,25.132467]]]}},{"type":"Feature","properties":{"id":"809054460f2a","name":"基隆市信義區深美國民小學","level":"國小","basis":"both","data_ym":"201901"},"geometry":{"type":"Polygon","coordinates":[[[121.779035,25.137383],[121.778725,25.136828],[121.778573,25.136878],[121.777138,25.13714],[121.777312,25.138015],[121.779194,25.137685],[121.779035,25.137383]]]}},{"type":"Feature","properties":{"id":"e60deacda7cc","name":"基隆市信義區深澳國民小學","level":"國小","basis":"both","data_ym":"202508"},"geometry":{"type":"Polygon","coordinates":[[[121.784092,25.128616],[121.78409,25.128362],[121.784074,25.128246],[121.783716,25.128294],[121.783701,25.128459],[121.783636,25.128458],[121.783645,25.128284],[121.783656,25.128142],[121.78369,25.12791],[121.783721,25.127777],[121.783719,25.127769],[121.783703,25.127753],[121.783636,25.127773],[121.783577,25.127868],[121.783571,25.127939],[121.783445,25.12818],[121.783357,25.128308],[121.78335,25.128443],[121.78311,25.128438],[121.783065,25.128481],[121.78302,25.12851],[121.782978,25.128529],[121.782976,25.128566],[121.782784,25.128554],[121.782548,25.128545],[121.782476,25.128551],[121.782414,25.128577],[121.782358,25.128619],[121.782278,25.128741],[121.782205,25.128916],[121.782175,25.12902],[121.78217,25.129079],[121.782176,25.129251],[121.782211,25.129474],[121.783871,25.129459],[121.783917,25.128629],[121.784092,25.128616]]]}},{"type":"Feature","properties":{"id":"09e7b17d43f5","name":"基隆市暖暖區八堵國民小學","level":"國小","basis":"both","data_ym":"202310"},"geometry":{"type":"Polygon","coordinates":[[[121.732482,25.108944],[121.732597,25.108837],[121.732643,25.108873],[121.732825,25.108738],[121.733082,25.108579],[121.733097,25.108567],[121.733071,25.108543],[121.733179,25.108458],[121.733054,25.108345],[121.73304,25.108358],[121.732768,25.108091],[121.732691,25.108159],[121.732695,25.108162],[121.732496,25.108334],[121.732323,25.108471],[121.732226,25.108528],[121.732258,25.108569],[121.732199,25.108623],[121.732334,25.108762],[121.732482,25.108944]]]}},{"type":"Feature","properties":{"id":"5b2c371f8cbb","name":"基隆市暖暖區暖江國民小學","level":"國小","basis":"both","data_ym":"202508"},"geometry":{"type":"Polygon","coordinates":[[[121.73818,25.105455],[121.738063,25.105235],[121.737922,25.10531],[121.737471,25.10547],[121.737512,25.105587],[121.737585,25.105738],[121.737645,25.105823],[121.737701,25.105864],[121.737792,25.105917],[121.737789,25.105921],[121.737843,25.105956],[121.738346,25.105846],[121.7384,25.105745],[121.738295,25.105618],[121.738253,25.105509],[121.73818,25.105455]]]}},{"type":"Feature","properties":{"id":"6a9411a21f7e","name":"基隆市暖暖區暖西國民小學","level":"國小","basis":"both","data_ym":"202508"},"geometry":{"type":"Polygon","coordinates":[[[121.735168,25.094012],[121.735205,25.09389],[121.735257,25.093901],[121.735273,25.093839],[121.735253,25.093835],[121.735339,25.093614],[121.735388,25.093464],[121.735446,25.093272],[121.735515,25.092998],[121.735528,25.093001],[121.735655,25.092563],[121.735437,25.092541],[121.735406,25.092533],[121.735352,25.092236],[121.735175,25.092231],[121.734979,25.092253],[121.734807,25.092305],[121.734667,25.092389],[121.73459,25.092471],[121.734562,25.09251],[121.73453,25.092575],[121.734448,25.09281],[121.734442,25.092842],[121.734442,25.09288],[121.734452,25.092925],[121.734469,25.092974],[121.734497,25.093028],[121.734533,25.093082],[121.734602,25.093349],[121.734515,25.093601],[121.734508,25.093673],[121.734521,25.093804],[121.734535,25.093878],[121.734779,25.094299],[121.734843,25.094431],[121.734867,25.094449],[121.73495,25.094477],[121.735168,25.094012]]]}},{"type":"Feature","properties":{"id":"8113d9318f59","name":"基隆市暖暖區暖暖國民小學","level":"國小","basis":"both","data_ym":"202508"},"geometry":{"type":"Polygon","coordinates":[[[121.737968,25.100342],[121.737436,25.099881],[121.73723,25.100036],[121.737194,25.100056],[121.736902,25.100135],[121.736892,25.100318],[121.737457,25.100916],[121.737546,25.100978],[121.737567,25.101001],[121.73783,25.100821],[121.737978,25.100743],[121.737962,25.100467],[121.737963,25.100367],[121.737968,25.100342]]]}},{"type":"Feature","properties":{"id":"f4ce405da8e4","name":"基隆市暖暖區碇內國民小學","level":"國小","basis":"both","data_ym":"202508"},"geometry":{"type":"Polygon","coordinates":[[[121.754249,25.098528],[121.754354,25.098031],[121.754497,25.097394],[121.754494,25.097386],[121.754479,25.097384],[121.754484,25.097354],[121.754408,25.097343],[121.754403,25.097369],[121.754265,25.097347],[121.75427,25.097322],[121.753893,25.09726],[121.753845,25.097255],[121.753799,25.097268],[121.753769,25.097308],[121.753763,25.097328],[121.753617,25.09729],[121.753427,25.097202],[121.753331,25.097167],[121.753258,25.097607],[121.753044,25.097714],[121.752933,25.097846],[121.75287,25.097837],[121.752845,25.097997],[121.752724,25.097978],[121.752667,25.098297],[121.752838,25.098319],[121.753436,25.098381],[121.753836,25.098455],[121.753864,25.09844],[121.754054,25.098476],[121.75405,25.098504],[121.75424,25.098533],[121.754249,25.098528]]]}},{"type":"Feature","properties":{"id":"07b02db44b27","name":"崇右影藝科技大學","level":"大專","basis":"both","data_ym":"202508"},"geometry":{"type":"Polygon","coordinates":[[[121.754685,25.132648],[121.754732,25.132561],[121.754753,25.132566],[121.75481,25.132563],[121.754857,25.132552],[121.754896,25.132536],[121.75494,25.132503],[121.755022,25.132454],[121.755106,25.132398],[121.755156,25.132339],[121.75523,25.132214],[121.755315,25.132081],[121.755353,25.132063],[121.755419,25.132019],[121.755413,25.132002],[121.755384,25.131994],[121.755232,25.132055],[121.755175,25.132082],[121.755057,25.132154],[121.755016,25.132157],[121.754963,25.132152],[121.754867,25.132129],[121.754826,25.132108],[121.754786,25.13208],[121.754602,25.131873],[121.75452,25.131797],[121.754433,25.13164],[121.754339,25.131533],[121.754318,25.131517],[121.753977,25.131396],[121.753825,25.131287],[121.753535,25.131098],[121.753435,25.131088],[121.753401,25.130851],[121.753381,25.130844],[121.753362,25.130829],[121.75334,25.130801],[121.753327,25.130793],[121.753302,25.130752],[121.753265,25.130652],[121.753219,25.130442],[121.75321,25.130443],[121.753207,25.13043],[121.752696,25.130525],[121.75253,25.13055],[121.752661,25.130702],[121.752682,25.130843],[121.753003,25.131148],[121.753089,25.131266],[121.753049,25.131285],[121.753091,25.131366],[121.753198,25.131447],[121.7533,25.131508],[121.753327,25.131753],[121.753245,25.13178],[121.753241,25.131882],[121.753389,25.132167],[121.753596,25.132105],[121.75376,25.132265],[121.753942,25.132492],[121.753976,25.132877],[121.754602,25.133189],[121.754789,25.133084],[121.754802,25.132905],[121.754844,25.132831],[121.754846,25.132802],[121.754839,25.13273],[121.754832,25.132717],[121.754817,25.132708],[121.754708,25.132655],[121.754685,25.132648]]]}},{"type":"Feature","properties":{"id":"3427fc006994","name":"經國管理暨健康學院1","level":"大專","basis":"name","data_ym":"202508"},"geometry":{"type":"Polygon","coordinates":[[[121.727131,25.150485],[121.727342,25.150151],[121.727405,25.150102],[121.727467,25.150063],[121.727194,25.149848],[121.727111,25.149946],[121.726886,25.150165],[121.72684,25.150205],[121.726797,25.150225],[121.726755,25.150234],[121.726725,25.150237],[121.726676,25.150232],[121.726629,25.150219],[121.726474,25.150129],[121.726384,25.150091],[121.726343,25.150089],[121.726317,25.150093],[121.726235,25.150118],[121.726199,25.150141],[121.726146,25.150204],[121.726108,25.150307],[121.726107,25.150374],[121.726124,25.150447],[121.726139,25.150482],[121.726157,25.150508],[121.726195,25.150545],[121.726252,25.150581],[121.726498,25.150711],[121.726534,25.150747],[121.726548,25.150768],[121.726589,25.150841],[121.726566,25.15085],[121.726576,25.150901],[121.726637,25.151133],[121.726959,25.151379],[121.727048,25.151455],[121.72718,25.151522],[121.727237,25.151539],[121.727263,25.151564],[121.727369,25.151795],[121.727496,25.151963],[121.727699,25.152087],[121.727801,25.152089],[121.727804,25.152007],[121.72774,25.152006],[121.727658,25.151958],[121.727569,25.15189],[121.727508,25.151821],[121.72746,25.151714],[121.727391,25.151525],[121.72745,25.151327],[121.727452,25.151241],[121.727298,25.150929],[121.727149,25.150743],[121.72715,25.150616],[121.727131,25.150485]]]}},{"type":"Feature","properties":{"id":"0a8450d752a8","name":"德育護理健康學院","level":"大專","basis":"both","data_ym":"202508"},"geometry":{"type":"Polygon","coordinates":[[[121.72982,25.150176],[121.729996,25.149806],[121.730158,25.149646],[121.730417,25.149248],[121.730459,25.148968],[121.731136,25.148467],[121.731192,25.148324],[121.731152,25.148146],[121.731067,25.148084],[121.730968,25.148075],[121.730884,25.148031],[121.730748,25.147992],[121.730714,25.148023],[121.730678,25.147989],[121.73066,25.147941],[121.730652,25.147896],[121.730658,25.147824],[121.730667,25.147791],[121.730708,25.147712],[121.730735,25.147649],[121.730789,25.14747],[121.730844,25.147176],[121.730849,25.147101],[121.730728,25.146994],[121.730523,25.146972],[121.730261,25.146872],[121.73023,25.1469],[121.730136,25.146831],[121.730108,25.146859],[121.729927,25.146767],[121.729611,25.147031],[121.729704,25.147116],[121.729544,25.147217],[121.729413,25.147377],[121.729402,25.147413],[121.729398,25.147451],[121.729573,25.147588],[121.729541,25.147661],[121.72949,25.147722],[121.729389,25.147818],[121.729383,25.14784],[121.729403,25.147951],[121.729482,25.148174],[121.729561,25.14816],[121.729603,25.148159],[121.729657,25.148164],[121.729747,25.148206],[121.729783,25.148247],[121.729471,25.14875],[121.729436,25.148762],[121.72939,25.148849],[121.729384,25.148876],[121.729357,25.148929],[121.729317,25.148979],[121.729243,25.149061],[121.729004,25.149274],[121.728863,25.149169],[121.728606,25.149178],[121.728332,25.149465],[121.728149,25.149584],[121.727632,25.1498],[121.727676,25.149839],[121.72767,25.149846],[121.727677,25.149852],[121.727638,25.149893],[121.727593,25.149922],[121.727673,25.150077],[121.727727,25.150142],[121.727817,25.150277],[121.728288,25.150024],[121.728459,25.15031],[121.728604,25.150858],[121.728635,25.151368],[121.729127,25.151475],[121.729539,25.150809],[121.72982,25.150176]]]}}]}