{"type":"FeatureCollection","county":"新竹市","features":[{"type":"Feature","properties":{"id":"edec4b9c1eb7","name":"中華大學","level":"大專","basis":"both","data_ym":"202308"},"geometry":{"type":"Polygon","coordinates":[[[120.954944,24.763107],[120.955047,24.763004],[120.955267,24.762721],[120.955343,24.762461],[120.955406,24.762189],[120.955416,24.7621],[120.955402,24.761975],[120.955403,24.761779],[120.955399,24.761691],[120.955377,24.761536],[120.955365,24.76141],[120.955362,24.761316],[120.955368,24.761253],[120.955382,24.761199],[120.9554,24.761155],[120.955459,24.76112],[120.955972,24.761009],[120.956037,24.760961],[120.956089,24.760904],[120.956134,24.760827],[120.956154,24.760761],[120.956146,24.760619],[120.956118,24.760386],[120.956088,24.760241],[120.956029,24.760106],[120.95593,24.759977],[120.955834,24.75991],[120.955717,24.759837],[120.955595,24.759781],[120.955489,24.759695],[120.955344,24.75962],[120.955207,24.759628],[120.954952,24.758618],[120.954922,24.758462],[120.954046,24.758607],[120.953614,24.757486],[120.953472,24.75704],[120.953504,24.756977],[120.953573,24.756905],[120.95316,24.756649],[120.953088,24.756387],[120.952765,24.756674],[120.952607,24.756632],[120.952537,24.756835],[120.952413,24.757101],[120.95238,24.757162],[120.952358,24.757184],[120.952323,24.757204],[120.952229,24.757247],[120.952243,24.757282],[120.952265,24.757283],[120.952269,24.757392],[120.952285,24.757393],[120.952297,24.757472],[120.952306,24.757506],[120.952313,24.757611],[120.952249,24.758009],[120.952224,24.758085],[120.952187,24.758181],[120.95213,24.758303],[120.951797,24.75884],[120.951696,24.75895],[120.951256,24.758654],[120.951119,24.758615],[120.950911,24.758545],[120.950678,24.757655],[120.950628,24.757694],[120.950521,24.757767],[120.950182,24.757922],[120.950119,24.757941],[120.950225,24.758231],[120.949905,24.758329],[120.949915,24.758368],[120.951095,24.761323],[120.951192,24.76128],[120.951337,24.761188],[120.951911,24.761715],[120.951969,24.761741],[120.952172,24.761697],[120.952342,24.761476],[120.952601,24.760656],[120.953035,24.760616],[120.953029,24.760209],[120.953087,24.760179],[120.953104,24.760132],[120.953099,24.760029],[120.953271,24.760035],[120.953479,24.760008],[120.953541,24.759987],[120.95358,24.759951],[120.953591,24.759932],[120.953779,24.759895],[120.953813,24.759914],[120.953854,24.759946],[120.954219,24.760301],[120.954383,24.760448],[120.954441,24.760486],[120.954488,24.76051],[120.954584,24.760548],[120.954755,24.760601],[120.954825,24.760645],[120.95486,24.760674],[120.95497,24.760781],[120.95498,24.760871],[120.955053,24.761014],[120.955097,24.761384],[120.955124,24.761756],[120.955102,24.762156],[120.95506,24.762389],[120.954953,24.762599],[120.954782,24.762834],[120.95468,24.762933],[120.954781,24.76301],[120.95473,24.763079],[120.954845,24.763182],[120.954848,24.763191],[120.954944,24.763107]]]}},{"type":"Feature","properties":{"id":"2b35b5e935bb","name":"元培醫事科技大學","level":"大專","basis":"both","data_ym":"202108"},"geometry":{"type":"Polygon","coordinates":[[[120.943592,24.775911],[120.943014,24.775912],[120.942994,24.775171],[120.942918,24.775185],[120.942746,24.775249],[120.942612,24.775337],[120.942429,24.775342],[120.942337,24.775377],[120.94224,24.775715],[120.940944,24.776289],[120.940734,24.775715],[120.94053,24.775724],[120.940098,24.774726],[120.939901,24.774844],[120.939767,24.77492],[120.939574,24.775063],[120.939422,24.775231],[120.939345,24.775335],[120.939289,24.775426],[120.939224,24.775598],[120.939215,24.775637],[120.939209,24.776323],[120.939201,24.776378],[120.939185,24.776416],[120.939156,24.776456],[120.939112,24.776496],[120.938926,24.776644],[120.938868,24.776727],[120.938806,24.776684],[120.938683,24.776926],[120.938632,24.777036],[120.939378,24.777291],[120.939222,24.777461],[120.939187,24.77751],[120.939242,24.777522],[120.939287,24.777541],[120.939654,24.778021],[120.939818,24.778246],[120.939856,24.778234],[120.939946,24.778179],[120.940132,24.778078],[120.940265,24.777997],[120.940386,24.777933],[120.940668,24.777818],[120.940839,24.777731],[120.940923,24.77768],[120.940969,24.777648],[120.941102,24.777535],[120.941269,24.777365],[120.941443,24.777206],[120.941595,24.777081],[120.94226,24.776643],[120.942332,24.776613],[120.942913,24.776401],[120.943621,24.77619],[120.943595,24.77608],[120.943592,24.775911]]]}},{"type":"Feature","properties":{"id":"4cfb77963d18","name":"元培醫事科技大學1","level":"大專","basis":"both","data_ym":"201311"},"geometry":{"type":"Polygon","coordinates":[[[120.94151,24.777339],[120.941561,24.777338],[120.941603,24.777348],[120.941671,24.777377],[120.941871,24.777538],[120.941981,24.77763],[120.94252,24.778174],[120.942544,24.778193],[120.942574,24.778196],[120.942597,24.77819],[120.943565,24.777743],[120.943669,24.777684],[120.943676,24.777644],[120.943597,24.777548],[120.943281,24.777349],[120.943178,24.777261],[120.943152,24.777215],[120.942793,24.777171],[120.942796,24.777161],[120.94273,24.77715],[120.942728,24.777163],[120.94244,24.777128],[120.942393,24.777343],[120.94219,24.777277],[120.942134,24.777251],[120.941998,24.777175],[120.94194,24.777221],[120.941914,24.777204],[120.941761,24.777084],[120.941627,24.777185],[120.941352,24.777419],[120.941067,24.777692],[120.94098,24.777756],[120.940771,24.77788],[120.940542,24.777977],[120.940387,24.778049],[120.940278,24.778103],[120.940049,24.778227],[120.939991,24.778266],[120.939913,24.77833],[120.939885,24.778356],[120.93989,24.778364],[120.939986,24.778481],[120.940034,24.778528],[120.94006,24.778542],[120.940081,24.778545],[120.940141,24.778532],[120.940173,24.778516],[120.940648,24.778187],[120.940825,24.778043],[120.940956,24.777929],[120.941053,24.77784],[120.941197,24.777676],[120.941228,24.777597],[120.941312,24.777501],[120.941472,24.777347],[120.94151,24.777339]]]}},{"type":"Feature","properties":{"id":"81af4314a677","name":"臺灣基督長老教會聖經學院","level":"大專","basis":"name","data_ym":"202203"},"geometry":{"type":"Polygon","coordinates":[[[120.972292,24.793328],[120.972338,24.793206],[120.972463,24.793245],[120.972618,24.792897],[120.972676,24.792913],[120.972692,24.792883],[120.973,24.79295],[120.973213,24.793007],[120.973322,24.792792],[120.97337,24.792684],[120.973582,24.792277],[120.973631,24.79221],[120.973696,24.792081],[120.97376,24.791916],[120.973776,24.791874],[120.973747,24.791868],[120.973762,24.791771],[120.973732,24.791656],[120.972979,24.79147],[120.972933,24.791502],[120.97252,24.791705],[120.972468,24.791639],[120.972329,24.791728],[120.972037,24.791805],[120.972029,24.791836],[120.971993,24.791874],[120.971941,24.791909],[120.971843,24.791954],[120.971784,24.791956],[120.971744,24.791942],[120.971655,24.791873],[120.971638,24.791934],[120.971491,24.791955],[120.971356,24.791923],[120.971103,24.791928],[120.971045,24.792006],[120.970991,24.792044],[120.970929,24.792053],[120.970857,24.792003],[120.970814,24.792039],[120.970744,24.79214],[120.970672,24.792203],[120.970656,24.792226],[120.970849,24.792365],[120.971019,24.792366],[120.971094,24.792267],[120.971174,24.792265],[120.971273,24.792327],[120.971429,24.792352],[120.971654,24.792493],[120.971589,24.792629],[120.971708,24.792708],[120.971669,24.79273],[120.971374,24.792981],[120.971336,24.792995],[120.971628,24.793199],[120.971662,24.793218],[120.971841,24.793003],[120.972103,24.793195],[120.972292,24.793328]]]}},{"type":"Feature","properties":{"id":"364e734784b6","name":"玄奘大學","level":"大專","basis":"both","data_ym":"202108"},"geometry":{"type":"Polygon","coordinates":[[[120.943014,24.775912],[120.943905,24.775911],[120.943903,24.775554],[120.943913,24.775464],[120.943943,24.775302],[120.94399,24.77512],[120.944037,24.774974],[120.94406,24.774887],[120.94405,24.774856],[120.944031,24.774842],[120.943982,24.77482],[120.944101,24.774618],[120.9441,24.774468],[120.944012,24.773984],[120.94397,24.773836],[120.943923,24.773749],[120.943792,24.773576],[120.943726,24.773502],[120.943434,24.773242],[120.943353,24.77314],[120.943153,24.772942],[120.943025,24.772866],[120.942959,24.772842],[120.942891,24.772811],[120.943392,24.771735],[120.943411,24.771673],[120.943408,24.771627],[120.943354,24.771559],[120.943154,24.771353],[120.943058,24.771261],[120.942965,24.771187],[120.942911,24.771158],[120.94283,24.771129],[120.942656,24.771089],[120.942515,24.771059],[120.942453,24.771052],[120.942396,24.771052],[120.94234,24.771062],[120.942297,24.771082],[120.942263,24.771112],[120.942225,24.771168],[120.94205,24.77151],[120.941813,24.77151],[120.941622,24.771835],[120.94147,24.772363],[120.941452,24.772512],[120.941452,24.772596],[120.9415,24.772686],[120.94151,24.772696],[120.941441,24.772728],[120.941413,24.77276],[120.941406,24.772811],[120.941153,24.772957],[120.941209,24.77305],[120.941277,24.773133],[120.94127,24.77318],[120.940946,24.773074],[120.9398,24.772633],[120.939436,24.772855],[120.939319,24.772935],[120.939137,24.773092],[120.938716,24.773119],[120.938667,24.773151],[120.938545,24.773386],[120.938444,24.773676],[120.938377,24.773997],[120.938275,24.774217],[120.938114,24.774423],[120.937998,24.77467],[120.937996,24.774733],[120.938017,24.774804],[120.938079,24.774961],[120.938214,24.775085],[120.938361,24.77515],[120.93875,24.775215],[120.938947,24.775715],[120.938885,24.776457],[120.938806,24.776684],[120.938868,24.776727],[120.938926,24.776644],[120.939112,24.776496],[120.939156,24.776456],[120.939185,24.776416],[120.939201,24.776378],[120.939209,24.776323],[120.93921,24.776276],[120.939215,24.775637],[120.939224,24.775598],[120.939289,24.775426],[120.939345,24.775335],[120.939422,24.775231],[120.939574,24.775063],[120.939767,24.77492],[120.939901,24.774844],[120.940098,24.774726],[120.94053,24.775724],[120.940734,24.775715],[120.940944,24.776289],[120.94224,24.775715],[120.942337,24.775377],[120.942429,24.775342],[120.942612,24.775337],[120.942746,24.775249],[120.942918,24.775185],[120.942994,24.775171],[120.943014,24.775912]]]}},{"type":"Feature","properties":{"id":"782cd21ff172","name":"國立清華大學","level":"大專","basis":"both","data_ym":"202508"},"geometry":{"type":"Polygon","coordinates":[[[120.99223,24.797215],[120.992307,24.797153],[120.992569,24.797],[120.992673,24.796918],[120.992768,24.796823],[120.992858,24.79671],[120.99294,24.796587],[120.993019,24.796441],[120.993113,24.796195],[120.993117,24.796155],[120.993103,24.796112],[120.992992,24.795977],[120.993404,24.795693],[120.994074,24.796508],[120.994575,24.7969],[120.994923,24.797008],[120.99493,24.796989],[120.995172,24.797071],[120.995192,24.797087],[120.995533,24.797534],[120.996696,24.796755],[120.996804,24.796689],[120.996825,24.796609],[120.996795,24.796535],[120.996827,24.796512],[120.996831,24.79651],[120.99689,24.796631],[120.99691,24.796651],[120.996918,24.796672],[120.99718,24.796474],[120.997158,24.796468],[120.99712,24.796422],[120.997072,24.796396],[120.997027,24.796354],[120.997079,24.796322],[120.997142,24.796313],[120.997209,24.796328],[120.997282,24.796269],[120.997302,24.796293],[120.997512,24.796113],[120.997693,24.795967],[120.99766,24.795918],[120.997734,24.795854],[120.997758,24.795879],[120.997777,24.795917],[120.997776,24.795973],[120.997925,24.795844],[120.99789,24.795836],[120.997867,24.795827],[120.998024,24.795683],[120.997997,24.795659],[120.99807,24.795593],[120.998357,24.795357],[120.998662,24.795093],[120.998693,24.79512],[120.99927,24.794617],[120.999529,24.794397],[120.999951,24.794091],[120.999917,24.794044],[121.000523,24.793621],[121.000542,24.79365],[121.002517,24.792231],[121.002433,24.792146],[121.001815,24.791765],[121.001525,24.791604],[121.001343,24.791491],[121.001289,24.791466],[121.001266,24.791464],[121.001237,24.791476],[121.00081,24.791862],[121.000545,24.792065],[121.000329,24.792203],[121.000247,24.792268],[121.000195,24.792319],[120.999928,24.792628],[120.999333,24.793337],[120.999069,24.793641],[120.998956,24.79376],[120.998706,24.794048],[120.998543,24.79424],[120.998452,24.794353],[120.998225,24.794613],[120.998059,24.794818],[120.997962,24.794921],[120.997667,24.795267],[120.997619,24.795329],[120.997515,24.795448],[120.997505,24.795468],[120.99744,24.795526],[120.997366,24.79544],[120.997195,24.795173],[120.997029,24.794897],[120.996692,24.794362],[120.996642,24.794278],[120.99662,24.794215],[120.996621,24.79414],[120.996642,24.79407],[120.996695,24.794],[120.996784,24.793938],[120.997291,24.79365],[120.997328,24.793612],[120.997343,24.79357],[120.997342,24.793555],[120.997318,24.793511],[120.99673,24.792804],[120.996591,24.792657],[120.996485,24.792571],[120.996385,24.792514],[120.996236,24.792452],[120.995984,24.792367],[120.995727,24.79232],[120.995614,24.792308],[120.995351,24.792265],[120.995315,24.792227],[120.995357,24.791848],[120.996711,24.791749],[120.997245,24.791687],[120.997239,24.791383],[120.997298,24.791245],[120.997554,24.790944],[120.997317,24.790727],[120.996905,24.791011],[120.99665,24.791089],[120.996419,24.791117],[120.992806,24.788818],[120.992784,24.788758],[120.992614,24.78846],[120.99249,24.788265],[120.991868,24.787332],[120.991772,24.787185],[120.991698,24.787045],[120.991593,24.786548],[120.991533,24.786335],[120.991644,24.786147],[120.991596,24.786024],[120.991583,24.785739],[120.991603,24.785596],[120.991624,24.785481],[120.991631,24.785075],[120.990803,24.785069],[120.990783,24.785072],[120.990601,24.785068],[120.99059,24.784991],[120.990575,24.784988],[120.990473,24.784991],[120.990404,24.784997],[120.990219,24.785042],[120.990128,24.785072],[120.989998,24.785126],[120.989939,24.785157],[120.98864,24.785954],[120.98824,24.786185],[120.987927,24.786391],[120.987737,24.786499],[120.987621,24.787301],[120.987426,24.78807],[120.987247,24.788755],[120.987237,24.788885],[120.987294,24.789354],[120.987442,24.789521],[120.987791,24.789266],[120.988393,24.789817],[120.988462,24.789726],[120.989332,24.790573],[120.989533,24.790407],[120.989719,24.790425],[120.989908,24.790423],[120.990022,24.790414],[120.990074,24.790414],[120.990157,24.790421],[120.9902,24.790429],[120.990234,24.790444],[120.99028,24.790482],[120.990319,24.790542],[120.990316,24.790842],[120.990305,24.790852],[120.990271,24.790918],[120.99024,24.790934],[120.99023,24.791123],[120.990226,24.791156],[120.990219,24.791177],[120.990205,24.791184],[120.990187,24.791187],[120.990163,24.791182],[120.990075,24.791137],[120.990024,24.791099],[120.990006,24.791078],[120.989781,24.79101],[120.989638,24.791014],[120.988304,24.791171],[120.988211,24.791233],[120.988265,24.79134],[120.988145,24.791567],[120.988142,24.791622],[120.988151,24.79168],[120.988214,24.791721],[120.988301,24.791743],[120.988391,24.791751],[120.988478,24.791745],[120.988601,24.791702],[120.988706,24.791677],[120.989396,24.791685],[120.989453,24.79168],[120.989522,24.791669],[120.989611,24.791636],[120.989785,24.791634],[120.989922,24.7916],[120.989995,24.791565],[120.990074,24.791565],[120.990111,24.791569],[120.990157,24.791833],[120.989983,24.79196],[120.989544,24.792395],[120.991032,24.793421],[120.989995,24.793337],[120.989883,24.793354],[120.989753,24.793428],[120.989601,24.793574],[120.989523,24.793712],[120.989461,24.793873],[120.989454,24.794522],[120.989442,24.794529],[120.989401,24.794539],[120.989525,24.795073],[120.989548,24.795126],[120.989555,24.795186],[120.989565,24.795416],[120.98956,24.795522],[120.989545,24.795693],[120.989544,24.795774],[120.989552,24.795908],[120.989549,24.795994],[120.989496,24.796345],[120.989483,24.796482],[120.989479,24.796607],[120.989507,24.79667],[120.989537,24.796718],[120.989626,24.796834],[120.989602,24.796925],[120.98897,24.797015],[120.988972,24.797025],[120.988811,24.797052],[120.988807,24.797038],[120.98771,24.797191],[120.987781,24.797221],[120.988121,24.797339],[120.988226,24.797379],[120.988427,24.797446],[120.989328,24.797723],[120.989338,24.79773],[120.98934,24.797744],[120.989263,24.797929],[120.98953,24.79802],[120.989869,24.797953],[120.989894,24.797958],[120.989946,24.798031],[120.990025,24.798113],[120.99014,24.79831],[120.990219,24.798254],[120.990286,24.79817],[120.990388,24.798067],[120.990447,24.798037],[120.990543,24.798004],[120.990615,24.797988],[120.990669,24.797988],[120.990766,24.798012],[120.990822,24.798051],[120.990885,24.79813],[120.991009,24.798309],[120.991045,24.798346],[120.991075,24.79837],[120.991116,24.798388],[120.991159,24.798389],[120.991218,24.798362],[120.991282,24.79832],[120.991331,24.798271],[120.991369,24.79822],[120.991418,24.798117],[120.991459,24.79806],[120.991503,24.798017],[120.991583,24.797964],[120.99162,24.797931],[120.99164,24.797886],[120.991663,24.797744],[120.99168,24.797705],[120.991707,24.797666],[120.991761,24.797634],[120.991806,24.797621],[120.991851,24.797624],[120.991895,24.797633],[120.992038,24.79769],[120.99212,24.797736],[120.992199,24.797773],[120.992231,24.797782],[120.992255,24.797779],[120.992272,24.797756],[120.992272,24.797701],[120.992258,24.797604],[120.992192,24.797374],[120.992165,24.797239],[120.992172,24.797202],[120.992207,24.797171],[120.992215,24.797175],[120.99223,24.797215]]]}},{"type":"Feature","properties":{"id":"67137dd02979","name":"國立清華大學附設實驗國民小學","level":"國小","basis":"name","data_ym":"202508"},"geometry":{"type":"Polygon","coordinates":[[[120.962056,24.798816],[120.962024,24.79879],[120.961703,24.798429],[120.961624,24.798387],[120.961408,24.798256],[120.961302,24.798374],[120.960896,24.798131],[120.960376,24.798282],[120.960257,24.798331],[120.96023,24.798348],[120.960208,24.798367],[120.960197,24.798393],[120.960197,24.798419],[120.960206,24.798442],[120.960267,24.798527],[120.960711,24.799108],[120.960748,24.799183],[120.960615,24.799356],[120.961153,24.7997],[120.961231,24.799771],[120.961344,24.799839],[120.961408,24.799886],[120.961481,24.79995],[120.961996,24.799271],[120.961952,24.799167],[120.961927,24.799083],[120.961922,24.798993],[120.962056,24.798816]]]}},{"type":"Feature","properties":{"id":"ebaa0a03355e","name":"國立清華大學附設實驗國民小學T.O.S.校區","level":"大專","basis":"branch","data_ym":"202508"},"geometry":{"type":"Polygon","coordinates":[[[121.003103,24.799665],[121.002981,24.799219],[121.002588,24.799309],[121.002666,24.799569],[121.002858,24.800129],[121.003204,24.800004],[121.003103,24.799665]]]}},{"type":"Feature","properties":{"id":"8c4925a74510","name":"國立清華大學南大校區","level":"大專","basis":"branch","data_ym":"202506"},"geometry":{"type":"Polygon","coordinates":[[[120.966172,24.792338],[120.96599,24.792267],[120.965812,24.792206],[120.965669,24.792189],[120.965457,24.792193],[120.965113,24.79224],[120.964783,24.792271],[120.964728,24.792273],[120.964559,24.792245],[120.964458,24.792218],[120.964345,24.792182],[120.964223,24.792131],[120.964142,24.792089],[120.964066,24.792039],[120.963991,24.791981],[120.963925,24.791923],[120.963866,24.791858],[120.963818,24.791796],[120.963748,24.791846],[120.963476,24.79195],[120.963094,24.792118],[120.963003,24.792231],[120.962948,24.792343],[120.962927,24.792444],[120.962912,24.792634],[120.962916,24.792899],[120.96299,24.79309],[120.963129,24.793263],[120.963307,24.793394],[120.963549,24.793624],[120.963714,24.793754],[120.964017,24.793958],[120.965076,24.794601],[120.965091,24.794609],[120.965266,24.794604],[120.965296,24.794555],[120.965403,24.794444],[120.965733,24.794131],[120.965922,24.79398],[120.966042,24.793894],[120.966112,24.79385],[120.966234,24.793784],[120.966299,24.793757],[120.966398,24.793723],[120.966648,24.793653],[120.966657,24.793649],[120.966692,24.793602],[120.966721,24.793348],[120.966759,24.793221],[120.966781,24.793198],[120.966809,24.793177],[120.966904,24.793046],[120.966921,24.793014],[120.966358,24.792475],[120.966172,24.792338]]]}},{"type":"Feature","properties":{"id":"c341f29330d9","name":"國立陽明交通大學","level":"大專","basis":"both","data_ym":"202508"},"geometry":{"type":"Polygon","coordinates":[[[120.997317,24.790727],[120.997839,24.790225],[120.997955,24.789839],[120.997972,24.789807],[120.998385,24.789695],[120.998594,24.789531],[120.998194,24.789096],[120.998503,24.788856],[120.998593,24.788831],[120.998635,24.788831],[120.998716,24.788906],[120.998851,24.788966],[120.998927,24.789011],[120.999369,24.789455],[120.999406,24.789478],[120.999444,24.789492],[120.999493,24.789503],[120.999546,24.789506],[120.9996,24.7895],[120.999762,24.789461],[121.000176,24.789323],[121.000687,24.789304],[121.000689,24.789279],[121.000697,24.789262],[121.000715,24.789251],[121.000836,24.789206],[121.000899,24.789172],[121.000996,24.78911],[121.001103,24.789008],[121.001337,24.788799],[121.001414,24.788723],[121.001538,24.788546],[121.001581,24.788472],[121.001652,24.7884],[121.001741,24.788323],[121.001942,24.788172],[121.002098,24.787856],[121.002118,24.787801],[121.002127,24.787736],[121.002118,24.787681],[121.002098,24.787618],[121.002067,24.787543],[121.002051,24.787476],[121.002047,24.787409],[121.002048,24.787316],[121.00206,24.787276],[121.002113,24.787227],[121.002395,24.787168],[121.002346,24.78701],[121.002324,24.786896],[121.002257,24.786718],[121.002031,24.786183],[121.002002,24.78617],[121.001934,24.786126],[121.001806,24.786023],[121.001663,24.785903],[121.001505,24.785752],[121.001386,24.785622],[121.001277,24.785488],[121.001152,24.785309],[121.001064,24.78516],[121.000777,24.784606],[121.000731,24.784512],[121.000657,24.78434],[121.00062,24.784249],[121.000553,24.784053],[121.000489,24.783831],[121.000439,24.783623],[121.000427,24.783595],[121.000414,24.783578],[121.000398,24.783566],[121.000366,24.783554],[121.000165,24.783575],[120.999749,24.783596],[120.999611,24.783599],[120.999444,24.783584],[120.999282,24.783545],[120.999188,24.783512],[120.999065,24.783455],[120.999005,24.783421],[120.998955,24.783386],[120.998875,24.783314],[120.998765,24.783194],[120.998708,24.78312],[120.998669,24.78305],[120.998637,24.782978],[120.998603,24.78288],[120.998568,24.782734],[120.99855,24.782715],[120.998527,24.782707],[120.997509,24.78295],[120.997354,24.782996],[120.997268,24.783031],[120.997059,24.783134],[120.996924,24.783211],[120.996427,24.78354],[120.99613,24.783731],[120.996054,24.783771],[120.995953,24.783813],[120.995842,24.783845],[120.995711,24.783868],[120.995608,24.783879],[120.995548,24.78388],[120.995402,24.783877],[120.994875,24.783852],[120.994698,24.783838],[120.994157,24.783819],[120.994023,24.783843],[120.993937,24.783867],[120.993877,24.783891],[120.9938,24.783935],[120.993732,24.783979],[120.993649,24.784046],[120.993397,24.784273],[120.993251,24.784462],[120.993206,24.784458],[120.993181,24.784466],[120.993129,24.784512],[120.99334,24.784713],[120.993375,24.784767],[120.993379,24.78482],[120.993372,24.784855],[120.99334,24.784925],[120.993251,24.785041],[120.993003,24.785317],[120.992973,24.785364],[120.992963,24.785393],[120.992966,24.785441],[120.993039,24.785721],[120.993061,24.785847],[120.993061,24.785926],[120.993055,24.785965],[120.99304,24.786022],[120.993029,24.786048],[120.993004,24.786082],[120.992981,24.7861],[120.992705,24.786217],[120.99264,24.786249],[120.992579,24.786287],[120.992544,24.786322],[120.992515,24.78638],[120.99249,24.786462],[120.992485,24.786509],[120.992256,24.786508],[120.992233,24.786517],[120.99222,24.786537],[120.992222,24.78656],[120.992238,24.786577],[120.992233,24.786833],[120.99225,24.786991],[120.992304,24.787224],[120.992349,24.787333],[120.992383,24.787454],[120.992403,24.787554],[120.99244,24.787654],[120.992463,24.787694],[120.992493,24.787732],[120.992566,24.787803],[120.993219,24.788221],[120.993247,24.788246],[120.993272,24.788281],[120.993282,24.788324],[120.993291,24.788514],[120.993303,24.788631],[120.993331,24.788757],[120.993369,24.788881],[120.993415,24.788974],[120.993487,24.789084],[120.993537,24.789145],[120.993602,24.789198],[120.993551,24.789293],[120.996419,24.791117],[120.99665,24.791089],[120.996905,24.791011],[120.997317,24.790727]]]}},{"type":"Feature","properties":{"id":"acb923467357","name":"國立陽明交通大學新竹博愛校區","level":"大專","basis":"branch","data_ym":"202308"},"geometry":{"type":"Polygon","coordinates":[[[120.98033,24.799509],[120.980473,24.79932],[120.980515,24.79935],[120.980668,24.799124],[120.980862,24.799239],[120.980914,24.79923],[120.981551,24.798456],[120.981674,24.798535],[120.982493,24.798551],[120.982604,24.79874],[120.984398,24.797938],[120.984362,24.797757],[120.984315,24.797599],[120.984261,24.797462],[120.984209,24.797354],[120.984157,24.797266],[120.984044,24.797158],[120.983374,24.796654],[120.983173,24.796525],[120.983085,24.79648],[120.982978,24.796444],[120.98277,24.796389],[120.98245,24.796309],[120.982196,24.796257],[120.982172,24.796327],[120.981732,24.796215],[120.981734,24.7962],[120.981238,24.796089],[120.981157,24.796443],[120.981116,24.796558],[120.98105,24.796778],[120.980643,24.796697],[120.980622,24.797016],[120.980593,24.797262],[120.980367,24.797212],[120.980259,24.797339],[120.980179,24.797387],[120.979994,24.797331],[120.979861,24.797367],[120.979586,24.797763],[120.979467,24.797899],[120.979464,24.797937],[120.979406,24.798021],[120.979779,24.798291],[120.979855,24.79831],[120.979876,24.798333],[120.979946,24.798389],[120.979576,24.798851],[120.979479,24.798982],[120.98033,24.799509]]]}},{"type":"Feature","properties":{"id":"9a60679ac8ce","name":"國立新竹女子高級中學","level":"高中職","basis":"name","data_ym":"201507"},"geometry":{"type":"Polygon","coordinates":[[[120.976577,24.805355],[120.975155,24.8045],[120.97504,24.804549],[120.974339,24.805414],[120.974058,24.805777],[120.975532,24.806705],[120.975889,24.806236],[120.976135,24.805919],[120.976297,24.80572],[120.976577,24.805355]]]}},{"type":"Feature","properties":{"id":"0eec1d18de74","name":"國立新竹科學園區實驗高級中等學校","level":"高中職","basis":"name","data_ym":"202508"},"geometry":{"type":"Polygon","coordinates":[[[121.014039,24.778446],[121.014829,24.778383],[121.014803,24.778448],[121.014745,24.778541],[121.01454,24.778782],[121.014461,24.778904],[121.014414,24.779016],[121.014398,24.779074],[121.014388,24.779121],[121.014379,24.779211],[121.014381,24.77929],[121.014394,24.77939],[121.014432,24.779511],[121.014475,24.779603],[121.014607,24.779803],[121.014679,24.779809],[121.014702,24.779846],[121.014758,24.779959],[121.014792,24.780037],[121.014793,24.780188],[121.014718,24.780239],[121.014645,24.780281],[121.014575,24.780309],[121.014489,24.780328],[121.014418,24.780359],[121.014313,24.780414],[121.014091,24.780545],[121.014469,24.780441],[121.015125,24.780282],[121.015373,24.780209],[121.01555,24.780133],[121.015769,24.780022],[121.016652,24.779558],[121.017029,24.779368],[121.017217,24.779278],[121.017372,24.779214],[121.017545,24.779156],[121.017832,24.779081],[121.018207,24.778974],[121.018462,24.778859],[121.018914,24.778638],[121.018934,24.778621],[121.018944,24.778594],[121.018734,24.77825],[121.018624,24.778088],[121.01853,24.777967],[121.018419,24.777836],[121.018329,24.777743],[121.018186,24.777605],[121.017342,24.776887],[121.016824,24.776436],[121.016768,24.77638],[121.016699,24.776297],[121.016557,24.776032],[121.016505,24.77597],[121.016451,24.775921],[121.016376,24.775867],[121.016321,24.775853],[121.016214,24.775837],[121.015984,24.775853],[121.015361,24.775911],[121.015332,24.775925],[121.015315,24.775944],[121.015304,24.775975],[121.015311,24.776046],[121.01534,24.776219],[121.015357,24.776364],[121.015368,24.776567],[121.01536,24.776668],[121.015337,24.77675],[121.0153,24.776833],[121.015232,24.776944],[121.015532,24.777009],[121.015535,24.777297],[121.015541,24.777333],[121.015762,24.777503],[121.015846,24.777589],[121.015865,24.777875],[121.014959,24.777889],[121.014755,24.777896],[121.014749,24.777837],[121.014218,24.777888],[121.014247,24.77812],[121.014203,24.778126],[121.014207,24.778156],[121.014008,24.778173],[121.014039,24.778446]]]}},{"type":"Feature","properties":{"id":"91a49208df88","name":"國立新竹高級工業職業學校","level":"高中職","basis":"name","data_ym":"202308"},"geometry":{"type":"Polygon","coordinates":[[[120.983907,24.809917],[120.983596,24.809728],[120.983048,24.810429],[120.983329,24.810653],[120.983715,24.811006],[120.983804,24.811095],[120.983801,24.811098],[120.98403,24.811286],[120.98428,24.811448],[120.984421,24.811549],[120.984639,24.811276],[120.984719,24.811147],[120.984801,24.810979],[120.984849,24.810865],[120.98493,24.810552],[120.984924,24.810526],[120.984686,24.810395],[120.984352,24.810196],[120.983907,24.809917]]]}},{"type":"Feature","properties":{"id":"b58c48181460","name":"國立新竹高級工業職業學校1","level":"高中職","basis":"name","data_ym":"202308"},"geometry":{"type":"Polygon","coordinates":[[[120.982884,24.810191],[120.98332,24.80962],[120.983359,24.809562],[120.98336,24.809548],[120.983334,24.809528],[120.982957,24.809289],[120.982537,24.809031],[120.982484,24.809047],[120.982312,24.809284],[120.982094,24.809561],[120.982244,24.809656],[120.9822,24.809724],[120.982088,24.809882],[120.981959,24.81005],[120.981791,24.809942],[120.981628,24.810155],[120.981636,24.810191],[120.981768,24.810273],[120.98184,24.810172],[120.982039,24.810292],[120.981962,24.810396],[120.982301,24.810605],[120.982479,24.810721],[120.98269,24.810437],[120.982884,24.810191]]]}},{"type":"Feature","properties":{"id":"f75408d9d8f9","name":"國立新竹高級中學","level":"高中職","basis":"both","data_ym":"202308"},"geometry":{"type":"Polygon","coordinates":[[[120.982188,24.795412],[120.982639,24.794643],[120.982462,24.794538],[120.982594,24.794333],[120.982507,24.794265],[120.982254,24.794104],[120.98123,24.793612],[120.981377,24.793376],[120.979819,24.792612],[120.979738,24.792747],[120.979304,24.793509],[120.979302,24.793519],[120.979444,24.793586],[120.979133,24.794188],[120.979922,24.794544],[120.979815,24.794795],[120.979786,24.794885],[120.97971,24.795066],[120.980318,24.795278],[120.98047,24.7953],[120.980762,24.795403],[120.981368,24.795632],[120.981896,24.79582],[120.981963,24.795661],[120.982096,24.795371],[120.982188,24.795412]]]}},{"type":"Feature","properties":{"id":"e81918781d9e","name":"國立新竹高級商業職業學校","level":"高中職","basis":"name","data_ym":"202308"},"geometry":{"type":"Polygon","coordinates":[[[120.986897,24.797188],[120.986856,24.797073],[120.986857,24.79706],[120.987014,24.796854],[120.987067,24.796873],[120.987065,24.796863],[120.987088,24.796861],[120.987203,24.796732],[120.9873,24.796594],[120.987093,24.796078],[120.986992,24.796014],[120.986956,24.796003],[120.986889,24.795959],[120.986822,24.795906],[120.986744,24.795854],[120.98667,24.795817],[120.986579,24.795778],[120.98643,24.795727],[120.986379,24.795715],[120.98634,24.795713],[120.98618,24.795664],[120.985849,24.795513],[120.985572,24.795412],[120.984548,24.795018],[120.984177,24.794889],[120.983618,24.794684],[120.983492,24.794624],[120.983416,24.794571],[120.983323,24.7945],[120.982186,24.793498],[120.982046,24.793382],[120.98194,24.793314],[120.98157,24.793122],[120.981449,24.793064],[120.980598,24.792994],[120.981377,24.793376],[120.98123,24.793612],[120.982254,24.794104],[120.982507,24.794265],[120.982594,24.794333],[120.982462,24.794538],[120.982639,24.794643],[120.982212,24.79537],[120.982492,24.795905],[120.983457,24.796285],[120.983469,24.796257],[120.98587,24.797089],[120.986303,24.797245],[120.9863,24.797282],[120.98628,24.79731],[120.986498,24.797274],[120.98649,24.797257],[120.986897,24.797188]]]}},{"type":"Feature","properties":{"id":"a10e70f0f98e","name":"新竹市北區北門國民小學","level":"國小","basis":"both","data_ym":"202308"},"geometry":{"type":"Polygon","coordinates":[[[120.966553,24.814423],[120.966532,24.814398],[120.966525,24.8144],[120.966262,24.813986],[120.96625,24.813985],[120.966106,24.813746],[120.96595,24.813386],[120.965729,24.813456],[120.965582,24.813078],[120.965147,24.813213],[120.964772,24.813337],[120.964668,24.813407],[120.964566,24.813501],[120.964507,24.813572],[120.964475,24.813629],[120.964429,24.813828],[120.964417,24.813922],[120.965167,24.814276],[120.965298,24.814346],[120.965608,24.814484],[120.965619,24.814534],[120.965759,24.814691],[120.965882,24.814757],[120.966116,24.814728],[120.966612,24.814555],[120.966553,24.814423]]]}},{"type":"Feature","properties":{"id":"f8324313185e","name":"新竹市北區民富國民小學","level":"國小","basis":"both","data_ym":"202308"},"geometry":{"type":"Polygon","coordinates":[[[120.960079,24.808932],[120.960438,24.808463],[120.960478,24.808487],[120.960931,24.807903],[120.960893,24.807876],[120.960918,24.80784],[120.960622,24.807649],[120.960632,24.807637],[120.959491,24.806909],[120.959463,24.80694],[120.959223,24.807087],[120.959191,24.807102],[120.959043,24.80698],[120.958948,24.806923],[120.958271,24.807793],[120.95875,24.808101],[120.959731,24.808707],[120.960079,24.808932]]]}},{"type":"Feature","properties":{"id":"7c4bd5371fae","name":"新竹市北區西門國民小學","level":"國小","basis":"both","data_ym":"202308"},"geometry":{"type":"Polygon","coordinates":[[[120.959809,24.802081],[120.959783,24.802077],[120.958349,24.802526],[120.958056,24.802592],[120.957719,24.802697],[120.958056,24.80352],[120.958175,24.803846],[120.959168,24.803565],[120.959761,24.803383],[120.960218,24.803237],[120.960233,24.803206],[120.960235,24.803178],[120.959988,24.802554],[120.959831,24.802099],[120.959809,24.802081]]]}},{"type":"Feature","properties":{"id":"c8e0937b5f40","name":"新竹市北區南寮國民小學","level":"國小","basis":"both","data_ym":"202308"},"geometry":{"type":"Polygon","coordinates":[[[120.939605,24.83756],[120.939556,24.837485],[120.939179,24.837654],[120.939063,24.837723],[120.938788,24.837993],[120.938527,24.838049],[120.938564,24.83809],[120.938503,24.838131],[120.93885,24.838551],[120.938825,24.838566],[120.939193,24.839015],[120.939186,24.83902],[120.939281,24.839135],[120.939245,24.839161],[120.939263,24.839183],[120.939758,24.838823],[120.939894,24.838741],[120.940309,24.838478],[120.939605,24.83756]]]}},{"type":"Feature","properties":{"id":"09ac5c8bbbac","name":"新竹市北區載熙國民小學","level":"國小","basis":"both","data_ym":"202308"},"geometry":{"type":"Polygon","coordinates":[[[120.963562,24.820468],[120.963702,24.820321],[120.963825,24.820232],[120.96395,24.820178],[120.964004,24.820168],[120.964133,24.819884],[120.96425,24.819606],[120.963723,24.819417],[120.963698,24.819478],[120.963363,24.819316],[120.963171,24.819237],[120.963175,24.819227],[120.963088,24.819189],[120.962674,24.819038],[120.962372,24.819342],[120.9624,24.819405],[120.962212,24.819589],[120.962181,24.81958],[120.962098,24.819663],[120.962339,24.819854],[120.962438,24.819889],[120.96243,24.819935],[120.963216,24.820523],[120.963264,24.820463],[120.96345,24.820593],[120.963562,24.820468]]]}},{"type":"Feature","properties":{"id":"b5e15a2653d5","name":"新竹市北區舊社國民小學","level":"國小","basis":"both","data_ym":"201901"},"geometry":{"type":"Polygon","coordinates":[[[120.973448,24.821434],[120.973424,24.821435],[120.97239,24.822098],[120.972375,24.822114],[120.972369,24.822135],[120.972376,24.82217],[120.9727,24.822613],[120.973145,24.823248],[120.973183,24.823226],[120.97366,24.822881],[120.97376,24.822816],[120.973913,24.822702],[120.97434,24.822404],[120.973526,24.821454],[120.973448,24.821434]]]}},{"type":"Feature","properties":{"id":"9bca5398b57e","name":"新竹市立三民國民中學","level":"國中","basis":"both","data_ym":"201311"},"geometry":{"type":"Polygon","coordinates":[[[120.979446,24.811351],[120.97934,24.811282],[120.97894,24.811811],[120.97858,24.812322],[120.979381,24.812824],[120.979883,24.813155],[120.979898,24.81316],[120.979918,24.813152],[120.979945,24.81313],[120.980722,24.812145],[120.980723,24.812127],[120.979446,24.811351]]]}},{"type":"Feature","properties":{"id":"76161cf13042","name":"新竹市立內湖國民中學","level":"國中","basis":"both","data_ym":"202308"},"geometry":{"type":"Polygon","coordinates":[[[120.912929,24.742717],[120.913317,24.742194],[120.913086,24.742267],[120.913018,24.742277],[120.912901,24.742276],[120.912795,24.742258],[120.912752,24.742241],[120.912664,24.742186],[120.912543,24.742078],[120.91246,24.741962],[120.912366,24.741742],[120.912266,24.741535],[120.912187,24.74144],[120.912104,24.741365],[120.911997,24.741309],[120.911933,24.741287],[120.911771,24.741247],[120.911687,24.741243],[120.911095,24.741368],[120.911014,24.741375],[120.910919,24.741371],[120.910815,24.741359],[120.910724,24.741759],[120.910672,24.742123],[120.910577,24.742177],[120.910532,24.742325],[120.910579,24.742344],[120.910604,24.74235],[120.911203,24.74245],[120.911199,24.742471],[120.911473,24.742498],[120.912074,24.742525],[120.91229,24.742671],[120.912929,24.742717]]]}},{"type":"Feature","properties":{"id":"db612e2cf410","name":"新竹市立光武國民中學","level":"國中","basis":"both","data_ym":"201311"},"geometry":{"type":"Polygon","coordinates":[[[121.012774,24.785678],[121.012735,24.785521],[121.012516,24.785588],[121.012461,24.78559],[121.012392,24.785456],[121.012128,24.78566],[121.011802,24.785935],[121.011461,24.786196],[121.011487,24.786238],[121.011649,24.786617],[121.011674,24.786692],[121.012166,24.787842],[121.012374,24.788311],[121.012447,24.7885],[121.012501,24.788617],[121.012525,24.788658],[121.012574,24.788678],[121.01339,24.788191],[121.013016,24.787597],[121.01294,24.787413],[121.013001,24.78739],[121.012907,24.787182],[121.013155,24.787117],[121.013261,24.787093],[121.012774,24.785678]]]}},{"type":"Feature","properties":{"id":"1845d4a536ec","name":"新竹市立光華國民中學","level":"國中","basis":"both","data_ym":"202308"},"geometry":{"type":"Polygon","coordinates":[[[120.972779,24.819507],[120.972884,24.819412],[120.972994,24.819506],[120.973598,24.819078],[120.973647,24.819117],[120.97369,24.819085],[120.973937,24.818942],[120.974719,24.818569],[120.974665,24.818508],[120.974095,24.817911],[120.973713,24.817886],[120.973707,24.81795],[120.973553,24.817974],[120.973317,24.818185],[120.973152,24.818313],[120.973008,24.818411],[120.972829,24.818262],[120.972507,24.81858],[120.972503,24.818616],[120.972463,24.818663],[120.972346,24.818781],[120.972137,24.81898],[120.97218,24.819009],[120.972541,24.819303],[120.972779,24.819507]]]}},{"type":"Feature","properties":{"id":"779b70b8b130","name":"新竹市立成德高級中學","level":"高中職","basis":"both","data_ym":"202506"},"geometry":{"type":"Polygon","coordinates":[[[120.953923,24.791198],[120.953581,24.790188],[120.953576,24.79015],[120.953561,24.789851],[120.953654,24.789466],[120.953679,24.78935],[120.953713,24.789071],[120.953702,24.789047],[120.953678,24.789017],[120.953479,24.788858],[120.95332,24.788774],[120.952975,24.788713],[120.952901,24.788706],[120.952852,24.788715],[120.952698,24.788811],[120.952467,24.789231],[120.952361,24.7892],[120.952125,24.789755],[120.951992,24.790043],[120.951906,24.790155],[120.951801,24.790319],[120.951675,24.790364],[120.951663,24.790372],[120.95164,24.790395],[120.951603,24.790463],[120.951599,24.790494],[120.951509,24.790552],[120.951169,24.790755],[120.95102,24.790906],[120.951072,24.791097],[120.951277,24.791171],[120.951742,24.791232],[120.951993,24.791112],[120.952008,24.791004],[120.952254,24.790931],[120.952465,24.79091],[120.952529,24.790919],[120.952691,24.790961],[120.952831,24.790991],[120.95284,24.790947],[120.952889,24.790956],[120.952922,24.790883],[120.952955,24.790843],[120.952981,24.790825],[120.953037,24.790824],[120.953059,24.790838],[120.953084,24.790867],[120.953104,24.79093],[120.953116,24.790989],[120.953142,24.791016],[120.953171,24.791011],[120.953201,24.790998],[120.953219,24.790982],[120.953228,24.790964],[120.953252,24.790946],[120.953393,24.790918],[120.95353,24.791086],[120.953772,24.791228],[120.953836,24.791244],[120.953862,24.791241],[120.953887,24.791231],[120.953919,24.791206],[120.953923,24.791198]]]}},{"type":"Feature","properties":{"id":"181d6beb0fd7","name":"新竹市立竹光國民中學","level":"國中","basis":"both","data_ym":"202509"},"geometry":{"type":"Polygon","coordinates":[[[120.953846,24.807132],[120.954392,24.807716],[120.954158,24.807894],[120.953999,24.808019],[120.954886,24.80897],[120.954956,24.808917],[120.955061,24.809032],[120.955153,24.809093],[120.955328,24.808455],[120.955214,24.808421],[120.955228,24.808376],[120.955086,24.808345],[120.95509,24.808329],[120.95491,24.808283],[120.954938,24.808115],[120.954879,24.808105],[120.954923,24.807929],[120.955338,24.808044],[120.955439,24.808068],[120.955574,24.807551],[120.955583,24.807553],[120.955607,24.807467],[120.955597,24.807465],[120.955787,24.806726],[120.955791,24.80669],[120.955788,24.806669],[120.95577,24.80663],[120.955748,24.806608],[120.955725,24.806591],[120.955706,24.806582],[120.955691,24.806581],[120.954845,24.806838],[120.953846,24.807132]]]}},{"type":"Feature","properties":{"id":"fb76dbd13a15","name":"新竹市立育賢國民中學","level":"國中","basis":"both","data_ym":"202308"},"geometry":{"type":"Polygon","coordinates":[[[120.967279,24.790682],[120.967238,24.790151],[120.967172,24.789392],[120.966645,24.789396],[120.96642,24.789355],[120.966326,24.789318],[120.965825,24.789815],[120.965656,24.789975],[120.965654,24.790056],[120.965543,24.790175],[120.965516,24.790162],[120.965005,24.790679],[120.965061,24.790748],[120.96726,24.790728],[120.967279,24.790682]]]}},{"type":"Feature","properties":{"id":"8c948c1668c3","name":"新竹市立虎林國民中學","level":"國中","basis":"both","data_ym":"202308"},"geometry":{"type":"Polygon","coordinates":[[[120.941675,24.805228],[120.941683,24.806823],[120.940362,24.806838],[120.940358,24.807044],[120.940365,24.807045],[120.940359,24.807154],[120.940365,24.8072],[120.940489,24.807368],[120.940647,24.807558],[120.942935,24.807521],[120.942911,24.80659],[120.942501,24.80617],[120.942622,24.806065],[120.942612,24.806043],[120.942612,24.806012],[120.942616,24.806],[120.942631,24.805981],[120.942673,24.805963],[120.942886,24.80593],[120.942881,24.805875],[120.942884,24.805808],[120.943054,24.805809],[120.943056,24.805622],[120.9432,24.805613],[120.943175,24.805163],[120.942081,24.805172],[120.942079,24.805235],[120.941924,24.805236],[120.941675,24.805228]]]}},{"type":"Feature","properties":{"id":"08d9f57bc4a2","name":"新竹市立南華國民中學","level":"國中","basis":"both","data_ym":"202308"},"geometry":{"type":"Polygon","coordinates":[[[120.927516,24.844075],[120.928119,24.843791],[120.92816,24.843803],[120.928293,24.843855],[120.928304,24.843834],[120.928426,24.843896],[120.929017,24.843622],[120.929024,24.843636],[120.929464,24.843432],[120.928755,24.842318],[120.927749,24.842852],[120.927746,24.842846],[120.927132,24.843177],[120.926906,24.843329],[120.926977,24.843483],[120.927321,24.844167],[120.927317,24.844169],[120.927325,24.844186],[120.927527,24.844091],[120.927516,24.844075]]]}},{"type":"Feature","properties":{"id":"b9932950e8a8","name":"新竹市立建功高級中學","level":"高中職","basis":"both","data_ym":"201709"},"geometry":{"type":"Polygon","coordinates":[[[121.00268,24.79839],[121.002639,24.79823],[121.002553,24.797994],[121.002022,24.797266],[121.001769,24.796963],[121.001649,24.797027],[121.001549,24.797065],[121.001436,24.797094],[121.001357,24.797106],[121.001352,24.797051],[121.001365,24.797035],[121.001287,24.797039],[121.001297,24.797056],[121.001294,24.797119],[121.000466,24.797061],[121.000465,24.797046],[120.999889,24.796921],[120.999815,24.796901],[120.999795,24.797028],[120.999791,24.797131],[120.999794,24.797163],[120.999802,24.797189],[120.999841,24.79726],[120.999939,24.797414],[121.000168,24.797631],[121.000248,24.797774],[121.000298,24.797835],[121.000462,24.798013],[121.000938,24.798321],[121.000976,24.798352],[121.001009,24.798394],[121.001022,24.798426],[121.001034,24.798471],[121.001038,24.798517],[121.001034,24.798564],[121.001022,24.798609],[121.001003,24.798652],[121.000979,24.798687],[121.000503,24.799204],[121.000471,24.799253],[121.000463,24.799293],[121.000463,24.799318],[121.000475,24.799339],[121.000769,24.799708],[121.001119,24.799451],[121.002225,24.798656],[121.00268,24.79839]]]}},{"type":"Feature","properties":{"id":"af24ce4e22e4","name":"新竹市立建華國民中學","level":"國中","basis":"both","data_ym":"202308"},"geometry":{"type":"Polygon","coordinates":[[[120.976556,24.7942],[120.976727,24.793881],[120.976879,24.793927],[120.977097,24.793485],[120.977479,24.792568],[120.977294,24.792486],[120.977099,24.792389],[120.976872,24.792263],[120.976767,24.792212],[120.976662,24.792383],[120.976407,24.792291],[120.976515,24.792086],[120.976409,24.792025],[120.976293,24.792255],[120.976252,24.792234],[120.97624,24.79225],[120.976068,24.792193],[120.976102,24.792094],[120.975905,24.792024],[120.975868,24.792033],[120.975869,24.792251],[120.975856,24.792246],[120.975852,24.792255],[120.975654,24.792228],[120.975578,24.792351],[120.975456,24.792296],[120.97537,24.792374],[120.975485,24.792491],[120.975372,24.792603],[120.975487,24.792723],[120.97546,24.792748],[120.975468,24.792775],[120.975504,24.792808],[120.975475,24.792834],[120.975569,24.792934],[120.975632,24.793022],[120.975647,24.793055],[120.97532,24.793466],[120.975357,24.793487],[120.975233,24.793762],[120.97652,24.794223],[120.976543,24.794219],[120.976556,24.7942]]]}},{"type":"Feature","properties":{"id":"97de44cbeb03","name":"新竹市立香山高級中學","level":"高中職","basis":"both","data_ym":"202308"},"geometry":{"type":"Polygon","coordinates":[[[120.929554,24.785446],[120.930053,24.784964],[120.930321,24.785208],[120.930336,24.785194],[120.930359,24.785192],[120.93037,24.78518],[120.93037,24.785163],[120.930409,24.785121],[120.930617,24.784927],[120.930637,24.784944],[120.930971,24.784632],[120.931003,24.784531],[120.930838,24.784309],[120.930571,24.78399],[120.930317,24.783697],[120.930226,24.783636],[120.930136,24.783615],[120.929714,24.783596],[120.929706,24.7836],[120.929672,24.783639],[120.929206,24.784322],[120.929047,24.784466],[120.928905,24.784605],[120.928825,24.78467],[120.928667,24.784776],[120.928602,24.784825],[120.92854,24.784883],[120.928457,24.784949],[120.928398,24.784972],[120.928362,24.784998],[120.928318,24.785064],[120.928021,24.785295],[120.927953,24.78544],[120.927902,24.785571],[120.928607,24.786382],[120.929122,24.785886],[120.929554,24.785446]]]}},{"type":"Feature","properties":{"id":"13865be07e38","name":"新竹市立培英國民中學","level":"國中","basis":"both","data_ym":"202308"},"geometry":{"type":"Polygon","coordinates":[[[120.978479,24.794624],[120.978925,24.793612],[120.978882,24.793586],[120.978913,24.793512],[120.978556,24.79331],[120.978606,24.79321],[120.978266,24.793038],[120.978026,24.793454],[120.97754,24.793287],[120.977563,24.793249],[120.977347,24.793176],[120.976998,24.793977],[120.976966,24.794063],[120.976987,24.794086],[120.978479,24.794624]]]}},{"type":"Feature","properties":{"id":"01554f1e1be5","name":"新竹市立荷蘭國際學校","level":"其他","basis":"none","data_ym":"201811"},"geometry":{"type":"Polygon","coordinates":[[[120.942475,24.796521],[120.942936,24.796607],[120.943102,24.796181],[120.942834,24.796138],[120.942834,24.796141],[120.942635,24.79612],[120.942703,24.795768],[120.942614,24.795737],[120.94259,24.795871],[120.942539,24.796106],[120.942521,24.796103],[120.942451,24.796402],[120.942503,24.796413],[120.942475,24.796521]]]}},{"type":"Feature","properties":{"id":"02050a6c9b9c","name":"新竹市立富禮國民中學","level":"國中","basis":"both","data_ym":"202506"},"geometry":{"type":"Polygon","coordinates":[[[120.911854,24.765217],[120.913023,24.764697],[120.912823,24.764305],[120.912803,24.764282],[120.912755,24.764249],[120.912665,24.764056],[120.912699,24.764046],[120.912519,24.763676],[120.910949,24.764316],[120.910854,24.764348],[120.910969,24.764475],[120.911411,24.764885],[120.911473,24.765045],[120.911735,24.765241],[120.911798,24.765171],[120.911854,24.765217]]]}},{"type":"Feature","properties":{"id":"45f29aea6482","name":"新竹市立華德福實驗學校","level":"其他","basis":"none","data_ym":"202508"},"geometry":{"type":"Polygon","coordinates":[[[120.959473,24.751703],[120.959397,24.751627],[120.959389,24.751556],[120.959545,24.751441],[120.95957,24.751433],[120.959591,24.751435],[120.959681,24.751463],[120.959692,24.75146],[120.960238,24.751057],[120.960368,24.750969],[120.959725,24.750272],[120.959178,24.750645],[120.959026,24.750792],[120.958985,24.751169],[120.958861,24.751185],[120.958864,24.751118],[120.958584,24.751149],[120.958589,24.751039],[120.958504,24.750955],[120.958477,24.750955],[120.958497,24.750905],[120.958423,24.750704],[120.958398,24.75059],[120.958416,24.750533],[120.958282,24.750534],[120.958287,24.750705],[120.95837,24.750886],[120.958289,24.750904],[120.958255,24.751143],[120.958213,24.751245],[120.958128,24.75135],[120.958118,24.751357],[120.958113,24.751382],[120.9581,24.75141],[120.958037,24.751459],[120.957899,24.751589],[120.957843,24.751648],[120.957885,24.751688],[120.957902,24.751674],[120.957934,24.751685],[120.95799,24.751728],[120.958109,24.751881],[120.958158,24.751932],[120.958122,24.751975],[120.958226,24.75205],[120.958734,24.751794],[120.959473,24.751703]]]}},{"type":"Feature","properties":{"id":"9461102da236","name":"新竹市立新科國民中學","level":"國中","basis":"both","data_ym":"201507"},"geometry":{"type":"Polygon","coordinates":[[[121.02418,24.778533],[121.024053,24.778693],[121.023031,24.779284],[121.022397,24.779689],[121.02257,24.779918],[121.022694,24.779842],[121.022764,24.779937],[121.022906,24.780157],[121.023406,24.78082],[121.02369,24.780698],[121.023651,24.780643],[121.023859,24.780547],[121.024037,24.78066],[121.024097,24.780589],[121.024142,24.780629],[121.024262,24.780331],[121.024466,24.779859],[121.02464,24.779518],[121.024735,24.779278],[121.024787,24.77918],[121.024585,24.778995],[121.024443,24.778844],[121.024298,24.778646],[121.02418,24.778533]]]}},{"type":"Feature","properties":{"id":"1f8d70f71b1b","name":"新竹市私立天主教磐石高級中學","level":"高中職","basis":"name","data_ym":"202108"},"geometry":{"type":"Polygon","coordinates":[[[120.957007,24.810895],[120.957105,24.810844],[120.957113,24.810857],[120.957159,24.81083],[120.957152,24.81082],[120.957386,24.810693],[120.956816,24.809816],[120.956565,24.809949],[120.956278,24.809522],[120.955974,24.809774],[120.95574,24.809975],[120.956534,24.810838],[120.956589,24.810885],[120.956787,24.811027],[120.957011,24.810901],[120.957007,24.810895]]]}},{"type":"Feature","properties":{"id":"0b1d88560e8e","name":"新竹市私立天主教曙光女子高級中學1","level":"高中職","basis":"name","data_ym":"201311"},"geometry":{"type":"Polygon","coordinates":[[[120.972306,24.811515],[120.972365,24.811439],[120.97251,24.81123],[120.972684,24.811008],[120.972674,24.810958],[120.972442,24.81079],[120.972436,24.8108],[120.972424,24.810804],[120.972226,24.810846],[120.97199,24.810887],[120.971864,24.810786],[120.971659,24.810653],[120.971343,24.811057],[120.972015,24.811465],[120.971985,24.811501],[120.972007,24.811514],[120.971992,24.811547],[120.972144,24.811701],[120.972306,24.811515]]]}},{"type":"Feature","properties":{"id":"15fc0ecfdc83","name":"新竹市私立世界高級中學","level":"高中職","basis":"both","data_ym":"201805"},"geometry":{"type":"Polygon","coordinates":[[[121.020078,24.782076],[121.019972,24.781822],[121.02,24.781814],[121.019954,24.78169],[121.019787,24.781351],[121.019738,24.781366],[121.019668,24.781213],[121.019557,24.781033],[121.019819,24.780855],[121.019875,24.780824],[121.019746,24.780649],[121.019728,24.780661],[121.019628,24.780507],[121.018974,24.780855],[121.019217,24.781594],[121.019214,24.781637],[121.01923,24.781635],[121.019262,24.781774],[121.019234,24.78178],[121.019278,24.781958],[121.019297,24.782007],[121.019925,24.781854],[121.020018,24.782084],[121.020023,24.782124],[121.020094,24.782092],[121.020078,24.782076]]]}},{"type":"Feature","properties":{"id":"c97bff2980ee","name":"新竹市私立光復高級中學","level":"高中職","basis":"both","data_ym":"202308"},"geometry":{"type":"Polygon","coordinates":[[[120.995576,24.797589],[120.995192,24.797087],[120.995172,24.797071],[120.99493,24.796989],[120.994923,24.797008],[120.994575,24.7969],[120.994074,24.796508],[120.993404,24.795693],[120.992992,24.795977],[120.993103,24.796112],[120.993117,24.796155],[120.993113,24.796195],[120.993019,24.796441],[120.99294,24.796587],[120.992858,24.79671],[120.992768,24.796823],[120.992673,24.796918],[120.992569,24.797],[120.992307,24.797153],[120.99223,24.797215],[120.992259,24.797294],[120.992276,24.797323],[120.992378,24.797342],[120.992384,24.797316],[120.993078,24.797437],[120.993015,24.797769],[120.992967,24.798282],[120.992907,24.798493],[120.992827,24.798705],[120.992912,24.798724],[120.992895,24.798858],[120.992944,24.798859],[120.992991,24.798968],[120.993532,24.798786],[120.993677,24.798719],[120.994107,24.798489],[120.994078,24.798552],[120.994302,24.79841],[120.994266,24.798266],[120.994201,24.797933],[120.994192,24.797823],[120.994171,24.797796],[120.994358,24.797678],[120.99438,24.797623],[120.994396,24.797607],[120.994361,24.797509],[120.994379,24.797505],[120.994391,24.797496],[120.994399,24.797481],[120.9944,24.797466],[120.994697,24.797296],[120.994719,24.797301],[120.994736,24.797299],[120.994749,24.797291],[120.994758,24.797275],[120.99476,24.797258],[120.994755,24.797242],[120.994743,24.797231],[120.994825,24.797032],[120.994922,24.79706],[120.995145,24.797137],[120.995479,24.797569],[120.995488,24.797564],[120.995531,24.797619],[120.995576,24.797589]]]}},{"type":"Feature","properties":{"id":"66868053f5e0","name":"新竹市私立康橋國民中小學","level":"國中","basis":"name","data_ym":"202308"},"geometry":{"type":"Polygon","coordinates":[[[120.9658,24.767808],[120.965604,24.767801],[120.965576,24.767831],[120.965517,24.768474],[120.965448,24.769164],[120.965735,24.769186],[120.96623,24.769261],[120.966495,24.769372],[120.966537,24.769373],[120.966556,24.769364],[120.966668,24.769245],[120.967071,24.768691],[120.967055,24.76868],[120.967232,24.768431],[120.967234,24.768415],[120.967224,24.768403],[120.966333,24.768021],[120.96603,24.76788],[120.9658,24.767808]]]}},{"type":"Feature","properties":{"id":"61300e3f3606","name":"新竹市私立磐石高級中學附設國中","level":"國中","basis":"name","data_ym":"202508"},"geometry":{"type":"Polygon","coordinates":[[[120.956873,24.808852],[120.956517,24.808418],[120.956474,24.808354],[120.956444,24.808374],[120.955857,24.80764],[120.95581,24.80781],[120.956176,24.808301],[120.956038,24.808388],[120.955958,24.808277],[120.955708,24.808422],[120.955678,24.808429],[120.955627,24.808468],[120.955665,24.808512],[120.955677,24.808503],[120.9563,24.809235],[120.956364,24.809296],[120.956854,24.808884],[120.956873,24.808852]]]}},{"type":"Feature","properties":{"id":"e77bd1ba6c27","name":"新竹市私立曙光女子高級中學","level":"高中職","basis":"name","data_ym":"202308"},"geometry":{"type":"Polygon","coordinates":[[[120.973395,24.811447],[120.973186,24.811384],[120.973217,24.811306],[120.973193,24.811298],[120.97331,24.810983],[120.973054,24.810774],[120.972058,24.812054],[120.972069,24.812108],[120.972197,24.812188],[120.972223,24.812187],[120.972265,24.812214],[120.972264,24.812227],[120.972273,24.812239],[120.972327,24.812272],[120.972349,24.812251],[120.972412,24.812245],[120.972471,24.812234],[120.972522,24.812247],[120.972624,24.812292],[120.972698,24.812336],[120.972725,24.812346],[120.972717,24.812366],[120.972825,24.812384],[120.972891,24.812229],[120.972875,24.81222],[120.97289,24.812179],[120.973058,24.811724],[120.973065,24.81172],[120.973108,24.811614],[120.973536,24.811872],[120.973666,24.811585],[120.973643,24.811578],[120.973644,24.811575],[120.973377,24.811499],[120.973395,24.811447]]]}},{"type":"Feature","properties":{"id":"cbbb8f0c6abe","name":"新竹市私立曙光國民小學","level":"國小","basis":"both","data_ym":"202507"},"geometry":{"type":"Polygon","coordinates":[[[120.971042,24.813036],[120.971316,24.812678],[120.971356,24.812703],[120.971623,24.812363],[120.971723,24.812226],[120.971714,24.812193],[120.971339,24.811963],[120.970958,24.812473],[120.970596,24.812253],[120.970346,24.812589],[120.970201,24.812512],[120.970163,24.812564],[120.970468,24.812746],[120.97052,24.812721],[120.971042,24.813036]]]}},{"type":"Feature","properties":{"id":"9e9f2364bddb","name":"新竹市東區三民國民小學","level":"國小","basis":"both","data_ym":"201901"},"geometry":{"type":"Polygon","coordinates":[[[120.982208,24.812252],[120.98174,24.8121],[120.981707,24.812103],[120.980749,24.813327],[120.980773,24.813429],[120.980941,24.813895],[120.981201,24.814059],[120.981441,24.814222],[120.981981,24.813717],[120.983089,24.812741],[120.983216,24.812622],[120.982691,24.812439],[120.982208,24.812252]]]}},{"type":"Feature","properties":{"id":"b33405da1008","name":"新竹市東區水源國民小學","level":"國小","basis":"both","data_ym":"201901"},"geometry":{"type":"Polygon","coordinates":[[[121.002127,24.813375],[121.002746,24.813145],[121.002757,24.813192],[121.003325,24.813007],[121.003256,24.81281],[121.003206,24.812821],[121.00281,24.811533],[121.002679,24.811592],[121.002709,24.811659],[121.001648,24.812178],[121.001915,24.812888],[121.002127,24.813375]]]}},{"type":"Feature","properties":{"id":"4c21a6d22c03","name":"新竹市東區竹蓮國民小學","level":"國小","basis":"both","data_ym":"202308"},"geometry":{"type":"Polygon","coordinates":[[[120.973956,24.795832],[120.972871,24.795173],[120.972276,24.795991],[120.972999,24.796426],[120.972978,24.79645],[120.974207,24.797188],[120.974443,24.797088],[120.974876,24.796477],[120.974872,24.796403],[120.973947,24.795846],[120.973956,24.795832]]]}},{"type":"Feature","properties":{"id":"6123f2dbc495","name":"新竹市東區東門國民小學","level":"國小","basis":"both","data_ym":"202308"},"geometry":{"type":"Polygon","coordinates":[[[120.972278,24.804845],[120.972264,24.804848],[120.972219,24.804881],[120.971423,24.805562],[120.971449,24.805589],[120.971371,24.805659],[120.971361,24.805679],[120.971359,24.805707],[120.971371,24.805736],[120.971391,24.805759],[120.972172,24.806276],[120.972816,24.806684],[120.972828,24.806684],[120.972848,24.806672],[120.973546,24.805763],[120.973553,24.805728],[120.973545,24.805706],[120.97338,24.805599],[120.973394,24.805567],[120.97241,24.804925],[120.972278,24.804845]]]}},{"type":"Feature","properties":{"id":"a6778ed715af","name":"新竹市東區東園國民小學","level":"國小","basis":"both","data_ym":"202108"},"geometry":{"type":"Polygon","coordinates":[[[120.9853,24.800153],[120.985732,24.80002],[120.985754,24.799998],[120.985762,24.799959],[120.985694,24.799765],[120.985424,24.799042],[120.985392,24.798974],[120.985357,24.798861],[120.985033,24.798606],[120.984894,24.798538],[120.984293,24.79821],[120.984248,24.798181],[120.983573,24.798467],[120.983725,24.798817],[120.983986,24.799466],[120.984071,24.79946],[120.984153,24.799721],[120.984113,24.799763],[120.984229,24.800026],[120.984648,24.800107],[120.984918,24.800133],[120.985111,24.800085],[120.985198,24.800094],[120.985236,24.800112],[120.9853,24.800153]]]}},{"type":"Feature","properties":{"id":"e02b7118bc31","name":"新竹市東區青草湖國民小學","level":"國小","basis":"both","data_ym":"202308"},"geometry":{"type":"Polygon","coordinates":[[[120.979035,24.769788],[120.979189,24.769548],[120.979491,24.769094],[120.979157,24.768918],[120.979115,24.768891],[120.979079,24.768857],[120.979031,24.768902],[120.978917,24.768827],[120.978801,24.768671],[120.978752,24.768616],[120.978735,24.768628],[120.978681,24.768591],[120.978722,24.76854],[120.978713,24.768519],[120.978595,24.768441],[120.978396,24.768329],[120.978368,24.768318],[120.978384,24.768307],[120.978342,24.768293],[120.978231,24.768272],[120.978042,24.768365],[120.978026,24.768391],[120.978026,24.7684],[120.978206,24.768521],[120.978146,24.768599],[120.97797,24.768474],[120.977943,24.768465],[120.977927,24.768469],[120.977919,24.768475],[120.977914,24.768497],[120.977921,24.768516],[120.977949,24.768565],[120.978,24.768628],[120.978239,24.768833],[120.978244,24.769034],[120.978308,24.769054],[120.978277,24.769126],[120.978283,24.769128],[120.978262,24.769173],[120.978004,24.76908],[120.977959,24.76908],[120.977932,24.769137],[120.977943,24.769214],[120.977872,24.769247],[120.977773,24.769478],[120.977752,24.769542],[120.977733,24.769618],[120.97761,24.769618],[120.977576,24.769623],[120.97729,24.76971],[120.977306,24.769845],[120.977325,24.769899],[120.977458,24.770119],[120.977558,24.77025],[120.977688,24.770179],[120.978013,24.770024],[120.978069,24.770006],[120.97811,24.769999],[120.978373,24.76998],[120.978759,24.769964],[120.978852,24.769941],[120.978904,24.769916],[120.978959,24.76988],[120.978998,24.769839],[120.979035,24.769788]]]}},{"type":"Feature","properties":{"id":"54a3c8c0ec01","name":"新竹市東區建功國民小學","level":"國小","basis":"both","data_ym":"202308"},"geometry":{"type":"Polygon","coordinates":[[[121.00001,24.800897],[121.000303,24.799934],[121.00043,24.799538],[121.00037,24.799465],[121.00023,24.799372],[120.999054,24.7991],[120.999062,24.799063],[120.999013,24.799051],[120.999005,24.799087],[120.998832,24.799045],[120.998381,24.800584],[120.999069,24.800721],[120.999115,24.800684],[120.99934,24.800721],[120.999348,24.800766],[121.00001,24.800897]]]}},{"type":"Feature","properties":{"id":"a04f3898cca6","name":"新竹市東區科園國民小學","level":"國小","basis":"both","data_ym":"201901"},"geometry":{"type":"Polygon","coordinates":[[[121.012823,24.780713],[121.012591,24.780786],[121.012663,24.780915],[121.012739,24.781063],[121.012945,24.781407],[121.011778,24.781879],[121.011762,24.781894],[121.011759,24.781903],[121.011778,24.781955],[121.011796,24.782027],[121.011818,24.782159],[121.012833,24.782166],[121.013308,24.782161],[121.01357,24.782133],[121.013605,24.782083],[121.013629,24.782012],[121.013634,24.781971],[121.013628,24.781905],[121.013614,24.781841],[121.013483,24.781637],[121.013173,24.781233],[121.012823,24.780713]]]}},{"type":"Feature","properties":{"id":"f3bc0b5b14da","name":"新竹市東區高峰國民小學","level":"國小","basis":"both","data_ym":"202308"},"geometry":{"type":"Polygon","coordinates":[[[120.98334,24.780877],[120.983462,24.780855],[120.983656,24.780789],[120.983748,24.780672],[120.983946,24.780705],[120.984257,24.780777],[120.984593,24.780434],[120.984488,24.780357],[120.984556,24.780139],[120.984454,24.780014],[120.98444,24.77999],[120.984431,24.779932],[120.983993,24.779688],[120.983767,24.779572],[120.984102,24.778881],[120.984186,24.778745],[120.984287,24.778643],[120.98443,24.778672],[120.984491,24.778419],[120.984194,24.778257],[120.984179,24.778273],[120.984108,24.778325],[120.984051,24.778292],[120.984042,24.778303],[120.983872,24.778402],[120.983763,24.778433],[120.983742,24.778445],[120.983651,24.778541],[120.983611,24.778594],[120.98346,24.778855],[120.983437,24.77891],[120.983394,24.779123],[120.983251,24.779278],[120.983229,24.779316],[120.98315,24.779508],[120.98273,24.779857],[120.98265,24.780021],[120.982715,24.780121],[120.982988,24.78015],[120.982983,24.780189],[120.982899,24.780428],[120.982916,24.780489],[120.982828,24.780721],[120.982828,24.780751],[120.982836,24.780784],[120.982867,24.780813],[120.982943,24.780846],[120.983034,24.780863],[120.98313,24.780861],[120.983263,24.780879],[120.98334,24.780877]]]}},{"type":"Feature","properties":{"id":"50034293d5e9","name":"新竹市東區陽光國民小學","level":"國小","basis":"both","data_ym":"202308"},"geometry":{"type":"Polygon","coordinates":[[[120.96829,24.790354],[120.968171,24.790133],[120.968154,24.79014],[120.968143,24.790112],[120.967935,24.789758],[120.967885,24.789642],[120.967853,24.789489],[120.967278,24.78932],[120.967265,24.789341],[120.967265,24.789379],[120.967415,24.790955],[120.967447,24.791393],[120.968022,24.79128],[120.96838,24.791217],[120.968385,24.790709],[120.968359,24.790554],[120.96829,24.790354]]]}},{"type":"Feature","properties":{"id":"ea2c9bb869c8","name":"新竹市東區新竹國民小學","level":"國小","basis":"both","data_ym":"202308"},"geometry":{"type":"Polygon","coordinates":[[[120.966,24.797375],[120.966827,24.796263],[120.966928,24.79611],[120.966921,24.796035],[120.96674,24.795908],[120.966443,24.79573],[120.966175,24.795555],[120.965991,24.795777],[120.965399,24.795419],[120.965581,24.795173],[120.965392,24.795057],[120.964603,24.796093],[120.964591,24.796086],[120.96439,24.796386],[120.965325,24.796955],[120.966,24.797375]]]}},{"type":"Feature","properties":{"id":"7b13efc19802","name":"新竹市東區龍山國民小學","level":"國小","basis":"both","data_ym":"201901"},"geometry":{"type":"Polygon","coordinates":[[[121.0079,24.79035],[121.008128,24.790188],[121.008142,24.790206],[121.008379,24.790043],[121.008063,24.789659],[121.007793,24.789321],[121.007786,24.789324],[121.007765,24.789322],[121.007588,24.789104],[121.007121,24.789421],[121.006682,24.789732],[121.006354,24.789956],[121.006341,24.78997],[121.006336,24.789995],[121.006339,24.790048],[121.006802,24.790926],[121.006831,24.790997],[121.00691,24.790974],[121.007227,24.790855],[121.007203,24.790815],[121.0079,24.79035]]]}},{"type":"Feature","properties":{"id":"35f284626914","name":"新竹市東區關東國民小學","level":"國小","basis":"both","data_ym":"202508"},"geometry":{"type":"Polygon","coordinates":[[[121.021666,24.784594],[121.021662,24.784557],[121.022095,24.784578],[121.022115,24.784558],[121.022183,24.784294],[121.022229,24.784062],[121.022286,24.784065],[121.022298,24.784023],[121.022285,24.78403],[121.022245,24.784029],[121.022252,24.783972],[121.022266,24.783973],[121.022299,24.783859],[121.022449,24.783491],[121.022335,24.783483],[121.020901,24.783424],[121.020918,24.783475],[121.020881,24.783832],[121.020831,24.784473],[121.020849,24.784513],[121.021581,24.784554],[121.021579,24.784575],[121.021573,24.78459],[121.021666,24.784594]]]}},{"type":"Feature","properties":{"id":"feff2004dfcd","name":"新竹市東區關埔國民小學","level":"國小","basis":"both","data_ym":"202508"},"geometry":{"type":"Polygon","coordinates":[[[121.014658,24.788452],[121.014664,24.788402],[121.014653,24.788406],[121.014456,24.788126],[121.014298,24.787912],[121.014277,24.787908],[121.014238,24.787921],[121.014125,24.787928],[121.013102,24.788549],[121.013087,24.788562],[121.013072,24.788595],[121.013075,24.788624],[121.013086,24.788649],[121.014121,24.790481],[121.014135,24.790494],[121.014157,24.790502],[121.014171,24.790505],[121.014209,24.790502],[121.014244,24.790482],[121.01482,24.790207],[121.014587,24.789816],[121.015341,24.78939],[121.015173,24.789118],[121.015016,24.788882],[121.014911,24.788739],[121.014879,24.788706],[121.014695,24.788605],[121.014665,24.788508],[121.014658,24.788452]]]}},{"type":"Feature","properties":{"id":"23c13874a4e8","name":"新竹市香山區大庄國民小學","level":"國小","basis":"both","data_ym":"201901"},"geometry":{"type":"Polygon","coordinates":[[[120.927543,24.789478],[120.927671,24.789341],[120.927839,24.789465],[120.927879,24.789422],[120.927703,24.789299],[120.927705,24.789296],[120.927698,24.789291],[120.927854,24.7891],[120.927863,24.789106],[120.928052,24.788885],[120.92806,24.78889],[120.92808,24.788867],[120.927365,24.78839],[120.927382,24.78837],[120.927329,24.788339],[120.927038,24.788679],[120.926936,24.788741],[120.926211,24.788182],[120.926092,24.788106],[120.926046,24.788414],[120.925928,24.788762],[120.926498,24.789222],[120.927429,24.789944],[120.927722,24.789601],[120.927543,24.789478]]]}},{"type":"Feature","properties":{"id":"107fbab73905","name":"新竹市香山區大湖國民小學","level":"國小","basis":"both","data_ym":"202506"},"geometry":{"type":"Polygon","coordinates":[[[120.933841,24.745702],[120.933569,24.745387],[120.933385,24.745397],[120.933272,24.745425],[120.933153,24.745429],[120.933153,24.745416],[120.933065,24.745418],[120.933064,24.745431],[120.933021,24.745432],[120.93301,24.74544],[120.933044,24.745468],[120.933083,24.745521],[120.933157,24.745642],[120.933219,24.745767],[120.933332,24.745913],[120.933401,24.745989],[120.933426,24.746009],[120.933841,24.745702]]]}},{"type":"Feature","properties":{"id":"7b0df5f3bc4a","name":"新竹市香山區內湖國民小學","level":"國小","basis":"both","data_ym":"202308"},"geometry":{"type":"Polygon","coordinates":[[[120.907233,24.741939],[120.907125,24.741561],[120.906927,24.741601],[120.906846,24.741582],[120.906848,24.741568],[120.90669,24.741537],[120.906592,24.741532],[120.906493,24.741545],[120.906299,24.74168],[120.906206,24.741733],[120.906178,24.741692],[120.906182,24.741733],[120.906142,24.742121],[120.906159,24.742141],[120.906154,24.742268],[120.906132,24.742279],[120.906099,24.742686],[120.906102,24.742696],[120.90651,24.742827],[120.906525,24.742823],[120.906566,24.742784],[120.906608,24.742719],[120.90679,24.742374],[120.906871,24.742322],[120.907288,24.742154],[120.907233,24.741939]]]}},{"type":"Feature","properties":{"id":"af554b8ef42d","name":"新竹市香山區虎林國民小學","level":"國小","basis":"both","data_ym":"202308"},"geometry":{"type":"Polygon","coordinates":[[[120.941675,24.805228],[120.941431,24.805237],[120.940383,24.805247],[120.940378,24.805544],[120.940374,24.806349],[120.940362,24.806838],[120.941683,24.806823],[120.941675,24.805228]]]}},{"type":"Feature","properties":{"id":"3d4c89adf721","name":"新竹市香山區南隘國民小學","level":"國小","basis":"both","data_ym":"202308"},"geometry":{"type":"Polygon","coordinates":[[[120.929509,24.726229],[120.929407,24.726164],[120.929361,24.726197],[120.928957,24.726395],[120.928839,24.726434],[120.928896,24.726711],[120.928956,24.727115],[120.928962,24.727345],[120.928989,24.727467],[120.929178,24.727385],[120.929173,24.727363],[120.929872,24.727173],[120.929855,24.727042],[120.929744,24.726818],[120.929641,24.726668],[120.929541,24.726496],[120.929498,24.726382],[120.929465,24.726316],[120.929522,24.726263],[120.929509,24.726229]]]}},{"type":"Feature","properties":{"id":"b8bd6f92b507","name":"新竹市香山區茄苳國民小學","level":"國小","basis":"both","data_ym":"201901"},"geometry":{"type":"Polygon","coordinates":[[[120.945882,24.755958],[120.94606,24.755844],[120.946327,24.755937],[120.946421,24.755728],[120.94636,24.755686],[120.945892,24.755479],[120.945746,24.755225],[120.945585,24.755328],[120.945293,24.754987],[120.944717,24.755368],[120.944807,24.755473],[120.9445,24.755639],[120.944653,24.755867],[120.945063,24.755682],[120.945179,24.755814],[120.945579,24.756184],[120.945882,24.755958]]]}},{"type":"Feature","properties":{"id":"30b627923c90","name":"新竹市香山區香山國民小學","level":"國小","basis":"both","data_ym":"202507"},"geometry":{"type":"Polygon","coordinates":[[[120.944079,24.797281],[120.944496,24.796799],[120.944642,24.796509],[120.943284,24.795988],[120.943111,24.796366],[120.943018,24.796622],[120.942475,24.796521],[120.942388,24.796885],[120.942371,24.796883],[120.942281,24.797066],[120.942244,24.797116],[120.942305,24.797178],[120.942362,24.797227],[120.942435,24.797273],[120.942516,24.797313],[120.942558,24.7972],[120.943233,24.797416],[120.94317,24.797576],[120.943246,24.797605],[120.943355,24.797321],[120.943984,24.797491],[120.944079,24.797281]]]}},{"type":"Feature","properties":{"id":"67e0d16aff6a","name":"新竹市香山區頂埔國民小學","level":"國小","basis":"both","data_ym":"201901"},"geometry":{"type":"Polygon","coordinates":[[[120.950008,24.796621],[120.949961,24.796623],[120.94991,24.796644],[120.949183,24.796895],[120.949136,24.796919],[120.949126,24.79693],[120.949123,24.796958],[120.94913,24.796985],[120.949423,24.797794],[120.949594,24.798277],[120.949614,24.798349],[120.949626,24.798357],[120.949661,24.798355],[120.949691,24.798343],[120.950363,24.797937],[120.950611,24.797773],[120.950713,24.7977],[120.950824,24.797604],[120.950881,24.797534],[120.950917,24.797475],[120.950454,24.79735],[120.950413,24.797282],[120.950406,24.797261],[120.950576,24.796779],[120.950087,24.796636],[120.950008,24.796621]]]}},{"type":"Feature","properties":{"id":"aaab8c721500","name":"新竹市香山區朝山國民小學","level":"國小","basis":"both","data_ym":"202308"},"geometry":{"type":"Polygon","coordinates":[[[120.913023,24.764697],[120.911854,24.765217],[120.912093,24.76541],[120.912206,24.765513],[120.912347,24.765649],[120.91253,24.765844],[120.912693,24.766046],[120.913204,24.766024],[120.913274,24.765983],[120.913988,24.765945],[120.914008,24.765906],[120.914006,24.765789],[120.914044,24.765765],[120.914022,24.76526],[120.913427,24.765327],[120.913139,24.764655],[120.913133,24.764653],[120.913023,24.764697]]]}},{"type":"Feature","properties":{"id":"ab8e1f06f24d","name":"新竹市香山區港南國民小學","level":"國小","basis":"both","data_ym":"201901"},"geometry":{"type":"Polygon","coordinates":[[[120.923615,24.814356],[120.923093,24.813326],[120.922525,24.81348],[120.922604,24.813769],[120.922916,24.814785],[120.923126,24.814738],[120.923317,24.814683],[120.923711,24.814579],[120.923615,24.814356]]]}}]}