{"type":"FeatureCollection","county":"連江縣","features":[{"type":"Feature","properties":{"id":"18314741b231","name":"連江縣立東引國民中小學","level":"國中","basis":"moe","data_ym":"201801"},"geometry":{"type":"Polygon","coordinates":[[[120.489276,26.367959],[120.489225,26.367883],[120.489201,26.367896],[120.489187,26.367877],[120.489158,26.367852],[120.489118,26.367825],[120.489099,26.367844],[120.489043,26.36787],[120.488958,26.36773],[120.488779,26.367805],[120.488697,26.367633],[120.488676,26.367619],[120.488561,26.367653],[120.488145,26.367738],[120.488222,26.368032],[120.488238,26.368105],[120.488246,26.368176],[120.48832,26.368484],[120.488539,26.368454],[120.488707,26.368279],[120.488935,26.368159],[120.489192,26.368012],[120.489276,26.367959]]]}},{"type":"Feature","properties":{"id":"48f80ab5fefc","name":"連江縣立東引國民中小學1","level":"國中","basis":"moe","data_ym":"201801"},"geometry":{"type":"Polygon","coordinates":[[[120.488205,26.368156],[120.488191,26.368071],[120.488106,26.367747],[120.488094,26.367748],[120.488091,26.367737],[120.487911,26.367766],[120.48766,26.367825],[120.487651,26.367839],[120.48763,26.367837],[120.487615,26.368106],[120.48766,26.368107],[120.48766,26.368135],[120.487816,26.368135],[120.487846,26.368151],[120.487921,26.36815],[120.487947,26.36817],[120.488205,26.368156]]]}}]}